,Borough,Neighborhood,Neighborhood Latitude,Neighborhood Longitude,Venue,Venue Latitude,Venue Longitude,Address,Distance,Postalcode,City,State,Venue Category
0,Bronx,Fieldston,40.895437426903875,-73.90564259591689,Spuyten Duyvil Crossfit,40.887847,-73.907061,3603 Fieldston Rd,853,10463,Bronx,NY,Gym / Fitness Center
1,Bronx,Riverdale,40.89083449389134,-73.91258546108577,Spuyten Duyvil Crossfit,40.887847,-73.907061,3603 Fieldston Rd,571,10463,Bronx,NY,Gym / Fitness Center
2,Bronx,Kingsbridge,40.88168737120525,-73.90281798724611,Spuyten Duyvil Crossfit,40.887847,-73.907061,3603 Fieldston Rd,773,10463,Bronx,NY,Gym / Fitness Center
3,Manhattan,Marble Hill,40.87655077879968,-73.91065965862988,Spuyten Duyvil Crossfit,40.887847,-73.907061,3603 Fieldston Rd,1293,10463,Bronx,NY,Gym / Fitness Center
4,Bronx,Norwood,40.877224155994504,-73.87939073956817,Spuyten Duyvil Crossfit,40.887847,-73.907061,3603 Fieldston Rd,2611,10463,Bronx,NY,Gym / Fitness Center
5,Bronx,Bedford Park,40.87018516497537,-73.88551218419137,Spuyten Duyvil Crossfit,40.887847,-73.907061,3603 Fieldston Rd,2674,10463,Bronx,NY,Gym / Fitness Center
6,Bronx,University Heights,40.85572707719668,-73.91041596191317,Crossfit Uws,40.84654529961183,-73.92514653387603,,1607,,Bronx,NY,Athletics & Sports
7,Bronx,Morris Heights,40.84789792606274,-73.91967159119572,Crossfit Uws,40.84654529961183,-73.92514653387603,,484,,Bronx,NY,Athletics & Sports
8,Bronx,Fordham,40.86099679638657,-73.8964265598163,Crossfit Uws,40.84654529961183,-73.92514653387603,,2904,,Bronx,NY,Athletics & Sports
9,Bronx,High  Bridge,40.8366230107061,-73.92610209358138,Crossfit Uws,40.84654529961183,-73.92514653387603,,1107,,Bronx,NY,Athletics & Sports
10,Bronx,High  Bridge,40.8366230107061,-73.92610209358138,CrossFit Harlem - Afrobrutality Sports,40.817750147175666,-73.93775306423404,,2318,,New York,NY,Gym
11,Bronx,High  Bridge,40.8366230107061,-73.92610209358138,CrossFit Equis,40.81975279405422,-73.92175018787384,655 Morris Ave,1913,10451,Bronx,NY,Gym
12,Bronx,High  Bridge,40.8366230107061,-73.92610209358138,Harlem CrossFit,40.81719356788495,-73.93513753753648,,2292,10037,New York,NY,Gym
13,Bronx,Melrose,40.81975437059498,-73.90942160757443,CrossFit SoBro (South Bronx),40.807106109371404,-73.91147735194403,229 Bruckner Blvd,1418,10454,Bronx,NY,Gym
14,Bronx,Melrose,40.81975437059498,-73.90942160757443,CrossFit Equis,40.81975279405422,-73.92175018787384,655 Morris Ave,1038,10451,Bronx,NY,Gym
15,Bronx,Melrose,40.81975437059498,-73.90942160757443,CrossFit Harlem - Afrobrutality Sports,40.817750147175666,-73.93775306423404,,2397,,New York,NY,Gym
16,Bronx,Melrose,40.81975437059498,-73.90942160757443,Crossfit Concrete Jungle,40.808122,-73.930234,"7 Bruckner Blvd, bronx Ny 10454",2179,10454,New York,NY,Gym / Fitness Center
17,Bronx,Melrose,40.81975437059498,-73.90942160757443,Harlem CrossFit,40.81719356788495,-73.93513753753648,,2185,10037,New York,NY,Gym
18,Bronx,Mott Haven,40.80623874935181,-73.91609987487583,CrossFit SoBro (South Bronx),40.807106109371404,-73.91147735194403,229 Bruckner Blvd,401,10454,Bronx,NY,Gym
19,Bronx,Mott Haven,40.80623874935181,-73.91609987487583,Crossfit Concrete Jungle,40.808122,-73.930234,"7 Bruckner Blvd, bronx Ny 10454",1209,10454,New York,NY,Gym / Fitness Center
20,Bronx,Mott Haven,40.80623874935181,-73.91609987487583,CrossFit Harlem - Afrobrutality Sports,40.817750147175666,-73.93775306423404,,2229,,New York,NY,Gym
21,Bronx,Mott Haven,40.80623874935181,-73.91609987487583,CrossFit Equis,40.81975279405422,-73.92175018787384,655 Morris Ave,1577,10451,Bronx,NY,Gym
22,Bronx,Mott Haven,40.80623874935181,-73.91609987487583,Harlem CrossFit,40.81719356788495,-73.93513753753648,,2014,10037,New York,NY,Gym
23,Bronx,Port Morris,40.80166362775625,-73.91322139386142,CrossFit SoBro (South Bronx),40.807106109371404,-73.91147735194403,229 Bruckner Blvd,623,10454,Bronx,NY,Gym
24,Bronx,Port Morris,40.80166362775625,-73.91322139386142,CrossFit Dynamix,40.77793428308367,-73.90354697996085,36-05 20th Ave,2764,11105,Astoria,NY,Gym / Fitness Center
25,Bronx,Port Morris,40.80166362775625,-73.91322139386142,Crossfit Concrete Jungle,40.808122,-73.930234,"7 Bruckner Blvd, bronx Ny 10454",1603,10454,New York,NY,Gym / Fitness Center
26,Bronx,Port Morris,40.80166362775625,-73.91322139386142,CrossFit Harlem - Afrobrutality Sports,40.817750147175666,-73.93775306423404,,2734,,New York,NY,Gym
27,Bronx,Port Morris,40.80166362775625,-73.91322139386142,CrossFit Equis,40.81975279405422,-73.92175018787384,655 Morris Ave,2138,10451,Bronx,NY,Gym
28,Bronx,Port Morris,40.80166362775625,-73.91322139386142,Harlem CrossFit,40.81719356788495,-73.93513753753648,,2529,10037,New York,NY,Gym
29,Bronx,Port Morris,40.80166362775625,-73.91322139386142,Efc Crossfit,40.77540849938759,-73.91088570183538,22-15 31st St,2929,11105,Astoria,NY,Gym
30,Bronx,Longwood,40.815099045458254,-73.89578820094466,CrossFit SoBro (South Bronx),40.807106109371404,-73.91147735194403,229 Bruckner Blvd,1593,10454,Bronx,NY,Gym
31,Bronx,Longwood,40.815099045458254,-73.89578820094466,CrossFit Equis,40.81975279405422,-73.92175018787384,655 Morris Ave,2247,10451,Bronx,NY,Gym
32,Bronx,Longwood,40.815099045458254,-73.89578820094466,Crossfit Concrete Jungle,40.808122,-73.930234,"7 Bruckner Blvd, bronx Ny 10454",3004,10454,New York,NY,Gym / Fitness Center
33,Bronx,Hunts Point,40.809729879387135,-73.88331505955298,CrossFit SoBro (South Bronx),40.807106109371404,-73.91147735194403,229 Bruckner Blvd,2390,10454,Bronx,NY,Gym
34,Bronx,Morrisania,40.82359198585537,-73.90150648943066,CrossFit SoBro (South Bronx),40.807106109371404,-73.91147735194403,229 Bruckner Blvd,2018,10454,Bronx,NY,Gym
35,Bronx,Morrisania,40.82359198585537,-73.90150648943066,CrossFit Equis,40.81975279405422,-73.92175018787384,655 Morris Ave,1758,10451,Bronx,NY,Gym
36,Bronx,Morrisania,40.82359198585537,-73.90150648943066,Harlem CrossFit,40.81719356788495,-73.93513753753648,,2921,10037,New York,NY,Gym
37,Bronx,Morrisania,40.82359198585537,-73.90150648943066,Crossfit Concrete Jungle,40.808122,-73.930234,"7 Bruckner Blvd, bronx Ny 10454",2970,10454,New York,NY,Gym / Fitness Center
38,Bronx,Clason Point,40.806551120035934,-73.85414416189273,Crossfit Mma of Whitestone,40.78683263373473,-73.83710200617963,13-15 131st Street,2623,,Whitestone,NY,Athletics & Sports
39,Bronx,Spuyten Duyvil,40.8813949772709,-73.917190482104,Spuyten Duyvil Crossfit,40.887847,-73.907061,3603 Fieldston Rd,1114,10463,Bronx,NY,Gym / Fitness Center
40,Bronx,North Riverdale,40.9085428295067,-73.90453054908934,Spuyten Duyvil Crossfit,40.887847,-73.907061,3603 Fieldston Rd,2313,10463,Bronx,NY,Gym / Fitness Center
41,Bronx,Concourse,40.834283807338544,-73.91558941773451,CrossFit Equis,40.81975279405422,-73.92175018787384,655 Morris Ave,1698,10451,Bronx,NY,Gym
42,Bronx,Concourse,40.834283807338544,-73.91558941773451,CrossFit Harlem - Afrobrutality Sports,40.817750147175666,-73.93775306423404,,2621,,New York,NY,Gym
43,Bronx,Concourse,40.834283807338544,-73.91558941773451,Crossfit Uws,40.84654529961183,-73.92514653387603,,1584,,Bronx,NY,Athletics & Sports
44,Bronx,Concourse,40.834283807338544,-73.91558941773451,Harlem CrossFit,40.81719356788495,-73.93513753753648,,2516,10037,New York,NY,Gym
45,Brooklyn,Bay Ridge,40.62580106501069,-74.03062069353821,Bay Ridge Crossfit,40.62414280628023,-74.03082276499144,3rd Avenue,185,11209,Bay Ridge,NY,Gym / Fitness Center
46,Brooklyn,Bay Ridge,40.62580106501069,-74.03062069353821,bayridge crossfit,40.62422697687232,-74.03072659659897,,175,,Brooklyn,NY,Sports Club
47,Brooklyn,Bensonhurst,40.61100890202048,-73.99517998380736,CrossFit Coney Island,40.602854643892606,-73.96901325736928,2034 McDonald Ave,2390,11223,Brooklyn,NY,Gym
48,Brooklyn,Sunset Park,40.64510294925433,-74.01031618527792,Crossfit 718,40.66072378554618,-73.99436919730705,148 26th St,2199,11232,Brooklyn,NY,Gym
49,Brooklyn,Sunset Park,40.64510294925433,-74.01031618527792,Bay Ridge Crossfit,40.62414280628023,-74.03082276499144,3rd Avenue,2906,11209,Bay Ridge,NY,Gym / Fitness Center
50,Brooklyn,Sunset Park,40.64510294925433,-74.01031618527792,bayridge crossfit,40.62422697687232,-74.03072659659897,,2893,,Brooklyn,NY,Sports Club
51,Brooklyn,Greenpoint,40.730200984864744,-73.954240931274,True North Training,40.71687709749549,-73.96593519191094,70 River St,1781,11211,Brooklyn,NY,Gym
52,Brooklyn,Greenpoint,40.730200984864744,-73.954240931274,Crossfit Greenpoint,40.73611274835637,-73.9519963753644,188 DuPont St,684,11222,Brooklyn,NY,Gym / Fitness Center
53,Brooklyn,Greenpoint,40.730200984864744,-73.954240931274,CrossFit Gantry,40.74612457212019,-73.9522352960643,10-20 47th Rd,1780,11101,Queens,NY,Gym / Fitness Center
54,Brooklyn,Greenpoint,40.730200984864744,-73.954240931274,CrossFit East River,40.7254434939673,-73.97846140631547,647 E 9th St,2110,10009,New York,NY,Gym / Fitness Center
55,Brooklyn,Greenpoint,40.730200984864744,-73.954240931274,CrossFit Virtuosity,40.719027924652224,-73.94800787522796,98 Bayard St,1350,11222,Brooklyn,NY,Gym
56,Brooklyn,Greenpoint,40.730200984864744,-73.954240931274,CrossFit LIC - Noskov Fitness,40.74979439698375,-73.94735552127253,1305 44th Ave,2257,11101,Long Island City,NY,Gym
57,Brooklyn,Greenpoint,40.730200984864744,-73.954240931274,Crossfit Outbreak,40.71821365256554,-73.94289220547613,208 Frost St,1642,11211,Brooklyn,NY,Gym / Fitness Center
58,Brooklyn,Greenpoint,40.730200984864744,-73.954240931274,LTrain CrossFit,40.71148487197682,-73.94578712977734,667 Grand St,2202,11211,Brooklyn,NY,Gym / Fitness Center
59,Brooklyn,Greenpoint,40.730200984864744,-73.954240931274,WillyB Crossfit,40.707827833118586,-73.94877866580192,41 Meserole Street,2532,,Brooklyn,NY,Gym
60,Brooklyn,Greenpoint,40.730200984864744,-73.954240931274,willyb crossfit,40.729464975491624,-73.95069073496587,220 Newel Street,310,,Brooklyn,NY,Gym
61,Brooklyn,Greenpoint,40.730200984864744,-73.954240931274,Brooklyn CrossFit : West Street,40.7281508786577,-73.95868520245914,42 West St,438,11222,Brooklyn,NY,Gym
62,Brooklyn,Greenpoint,40.730200984864744,-73.954240931274,CrossFit DeBo,40.710137651424134,-73.93635749816895,306 Stagg St,2695,11206,Brooklyn,NY,Gym / Fitness Center
63,Brooklyn,Greenpoint,40.730200984864744,-73.954240931274,Crossfit Outbreak,40.710482,-73.966665,415 Wythe Ave,2432,11249,Brooklyn,NY,Gym
64,Brooklyn,Gravesend,40.59526001306597,-73.97347087708452,CrossFit Coney Island,40.602854643892606,-73.96901325736928,2034 McDonald Ave,925,11223,Brooklyn,NY,Gym
65,Brooklyn,Gravesend,40.59526001306597,-73.97347087708452,CrossFit STEED,40.58140561672332,-73.98444682359695,2705 W 16th St,1799,11224,Brooklyn,NY,Gym / Fitness Center
66,Brooklyn,Brighton Beach,40.576825065666085,-73.96509448785343,CrossFit STEED,40.58140561672332,-73.98444682359695,2705 W 16th St,1713,11224,Brooklyn,NY,Gym / Fitness Center
67,Brooklyn,Brighton Beach,40.576825065666085,-73.96509448785343,CrossFit Coney Island,40.602854643892606,-73.96901325736928,2034 McDonald Ave,2916,11223,Brooklyn,NY,Gym
68,Brooklyn,Sheepshead Bay,40.58689012678388,-73.94318640482987,Crossfit Marine Park,40.606168128959396,-73.93010083727226,2119 E 34th St,2414,11234,Brooklyn,NY,Gym
69,Brooklyn,Sheepshead Bay,40.58689012678388,-73.94318640482987,CrossFit Coney Island,40.602854643892606,-73.96901325736928,2034 McDonald Ave,2814,11223,Brooklyn,NY,Gym
70,Brooklyn,Manhattan Terrace,40.61443251335102,-73.95743840559946,CrossFit Coney Island,40.602854643892606,-73.96901325736928,2034 McDonald Ave,1618,11223,Brooklyn,NY,Gym
71,Brooklyn,Manhattan Terrace,40.61443251335102,-73.95743840559946,Crossfit Marine Park,40.606168128959396,-73.93010083727226,2119 E 34th St,2486,11234,Brooklyn,NY,Gym
72,Brooklyn,Crown Heights,40.67082917695298,-73.9432911907359,Crow Hill CrossFit,40.67768653054873,-73.95677179098129,1010 Dean St,1370,11238,Brooklyn,NY,Gym
73,Brooklyn,Crown Heights,40.67082917695298,-73.9432911907359,Crossfit Kingsboro,40.68006491229371,-73.96083801950718,1000 Atlantic Ave,1803,11238,Brooklyn,NY,Gym / Fitness Center
74,Brooklyn,Crown Heights,40.67082917695298,-73.9432911907359,CrossFit Prospect Heights,40.68066094103169,-73.97400039656718,623 Bergen St,2814,11238,Brooklyn,NY,Gym / Fitness Center
75,Brooklyn,Crown Heights,40.67082917695298,-73.9432911907359,Crossfit Outbreak,40.686849845476694,-73.94175109166727,492 Throop Ave,1788,11221,New York,NY,Gym / Fitness Center
76,Brooklyn,Crown Heights,40.67082917695298,-73.9432911907359,Crossfit Outbreak,40.695908,-73.93364,1000 Broadway,2908,11221,Brooklyn,NY,Gym / Fitness Center
77,Brooklyn,East Flatbush,40.64171776668965,-73.93610256185843,Crossfit Fit Cross II,40.641800472432834,-73.91133785247803,8701 Farragut Rd,2091,11236,Brooklyn,NY,Gym
78,Brooklyn,East Flatbush,40.64171776668965,-73.93610256185843,Crowhill Crossfit,40.650587473474175,-73.9129353301848,800,2191,,Brooklyn,NY,Athletics & Sports
79,Brooklyn,Kensington,40.64238195800357,-73.98042110559481,Crossfit 718,40.66072378554618,-73.99436919730705,148 26th St,2357,11232,Brooklyn,NY,Gym
80,Brooklyn,Windsor Terrace,40.65694583575108,-73.98007340430179,Crossfit South Brooklyn,40.6793845048432,-73.98371438935206,597 Degraw St,2516,11217,Brooklyn,NY,Gym
81,Brooklyn,Windsor Terrace,40.65694583575108,-73.98007340430179,Crossfit 718,40.66072378554618,-73.99436919730705,148 26th St,1278,11232,Brooklyn,NY,Gym
82,Brooklyn,Windsor Terrace,40.65694583575108,-73.98007340430179,CrossFit Prospect Heights,40.68066094103169,-73.97400039656718,623 Bergen St,2689,11238,Brooklyn,NY,Gym / Fitness Center
83,Brooklyn,Windsor Terrace,40.65694583575108,-73.98007340430179,Park Slope Crossfit,40.68155605033434,-73.97951811393598,500 Bergen St,2739,11217,Brooklyn,NY,Gym / Fitness Center
84,Brooklyn,Windsor Terrace,40.65694583575108,-73.98007340430179,Class One Mixed Martial Arts & CrossFit,40.68168067415296,-73.97998644894972,85 4th Ave,2753,11217,Brooklyn,NY,Martial Arts Dojo
85,Brooklyn,Prospect Heights,40.67682226225477,-73.96485924262697,Crossfit South Brooklyn,40.6793845048432,-73.98371438935206,597 Degraw St,1617,11217,Brooklyn,NY,Gym
86,Brooklyn,Prospect Heights,40.67682226225477,-73.96485924262697,CrossFit Prospect Heights,40.68066094103169,-73.97400039656718,623 Bergen St,882,11238,Brooklyn,NY,Gym / Fitness Center
87,Brooklyn,Prospect Heights,40.67682226225477,-73.96485924262697,Crow Hill CrossFit,40.67768653054873,-73.95677179098129,1010 Dean St,689,11238,Brooklyn,NY,Gym
88,Brooklyn,Prospect Heights,40.67682226225477,-73.96485924262697,Crossfit Kingsboro,40.68006491229371,-73.96083801950718,1000 Atlantic Ave,495,11238,Brooklyn,NY,Gym / Fitness Center
89,Brooklyn,Prospect Heights,40.67682226225477,-73.96485924262697,CrossFit Outbreak,40.69755415417896,-73.96498985427989,10 Grand Ave,2307,11205,Brooklyn,NY,Gym
90,Brooklyn,Prospect Heights,40.67682226225477,-73.96485924262697,Park Slope Crossfit,40.68155605033434,-73.97951811393598,500 Bergen St,1345,11217,Brooklyn,NY,Gym / Fitness Center
91,Brooklyn,Prospect Heights,40.67682226225477,-73.96485924262697,Crossfit Outbreak,40.686849845476694,-73.94175109166727,492 Throop Ave,2247,11221,New York,NY,Gym / Fitness Center
92,Brooklyn,Prospect Heights,40.67682226225477,-73.96485924262697,Class One Mixed Martial Arts & CrossFit,40.68168067415296,-73.97998644894972,85 4th Ave,1386,11217,Brooklyn,NY,Martial Arts Dojo
93,Brooklyn,Brownsville,40.66394994339758,-73.91023536176615,Crossfit BQE,40.687133932943645,-73.90619787369249,698 Central Ave,2603,11207,Brooklyn,NY,Athletics & Sports
94,Brooklyn,Brownsville,40.66394994339758,-73.91023536176615,Crowhill Crossfit,40.650587473474175,-73.9129353301848,800,1504,,Brooklyn,NY,Athletics & Sports
95,Brooklyn,Brownsville,40.66394994339758,-73.91023536176615,Crossfit Fit Cross II,40.641800472432834,-73.91133785247803,8701 Farragut Rd,2467,11236,Brooklyn,NY,Gym
96,Brooklyn,Williamsburg,40.70714439344255,-73.95811529220936,True North Training,40.71687709749549,-73.96593519191094,70 River St,1268,11211,Brooklyn,NY,Gym
97,Brooklyn,Williamsburg,40.70714439344255,-73.95811529220936,LTrain CrossFit,40.71148487197682,-73.94578712977734,667 Grand St,1147,11211,Brooklyn,NY,Gym / Fitness Center
98,Brooklyn,Williamsburg,40.70714439344255,-73.95811529220936,WillyB Crossfit,40.707827833118586,-73.94877866580192,41 Meserole Street,791,,Brooklyn,NY,Gym
99,Brooklyn,Williamsburg,40.70714439344255,-73.95811529220936,CrossFit Virtuosity,40.719027924652224,-73.94800787522796,98 Bayard St,1573,11222,Brooklyn,NY,Gym
100,Brooklyn,Williamsburg,40.70714439344255,-73.95811529220936,CrossFit East River,40.7254434939673,-73.97846140631547,647 E 9th St,2663,10009,New York,NY,Gym / Fitness Center
101,Brooklyn,Williamsburg,40.70714439344255,-73.95811529220936,Crossfit Outbreak,40.71821365256554,-73.94289220547613,208 Frost St,1779,11211,Brooklyn,NY,Gym / Fitness Center
102,Brooklyn,Williamsburg,40.70714439344255,-73.95811529220936,CrossFit Dumbo,40.70355587265485,-73.98779136884086,48 Pearl St,2535,11201,Brooklyn,NY,Gym
103,Brooklyn,Williamsburg,40.70714439344255,-73.95811529220936,CrossFit Outbreak,40.69755415417896,-73.96498985427989,10 Grand Ave,1215,11205,Brooklyn,NY,Gym
104,Brooklyn,Williamsburg,40.70714439344255,-73.95811529220936,Bushwick CrossFit,40.703433968199775,-73.93095418810844,10 Wilson Ave,2328,11237,Brooklyn,NY,Gym / Fitness Center
105,Brooklyn,Williamsburg,40.70714439344255,-73.95811529220936,Crossfit Outbreak,40.710482,-73.966665,415 Wythe Ave,811,11249,Brooklyn,NY,Gym
106,Brooklyn,Williamsburg,40.70714439344255,-73.95811529220936,CrossFit DeBo,40.710137651424134,-73.93635749816895,306 Stagg St,1865,11206,Brooklyn,NY,Gym / Fitness Center
107,Brooklyn,Williamsburg,40.70714439344255,-73.95811529220936,Crossfit Outbreak,40.695908,-73.93364,1000 Broadway,2414,11221,Brooklyn,NY,Gym / Fitness Center
108,Brooklyn,Williamsburg,40.70714439344255,-73.95811529220936,Brooklyn CrossFit : West Street,40.7281508786577,-73.95868520245914,42 West St,2338,11222,Brooklyn,NY,Gym
109,Brooklyn,Williamsburg,40.70714439344255,-73.95811529220936,Crossfit Outbreak,40.686849845476694,-73.94175109166727,492 Throop Ave,2647,11221,New York,NY,Gym / Fitness Center
110,Brooklyn,Williamsburg,40.70714439344255,-73.95811529220936,willyb crossfit,40.729464975491624,-73.95069073496587,220 Newel Street,2562,,Brooklyn,NY,Gym
111,Brooklyn,Bushwick,40.69811611017905,-73.92525797487053,Bushwick CrossFit,40.703433968199775,-73.93095418810844,10 Wilson Ave,762,11237,Brooklyn,NY,Gym / Fitness Center
112,Brooklyn,Bushwick,40.69811611017905,-73.92525797487053,Crossfit BQE,40.687133932943645,-73.90619787369249,698 Central Ave,2020,11207,Brooklyn,NY,Athletics & Sports
113,Brooklyn,Bushwick,40.69811611017905,-73.92525797487053,LTrain CrossFit,40.71148487197682,-73.94578712977734,667 Grand St,2283,11211,Brooklyn,NY,Gym / Fitness Center
114,Brooklyn,Bushwick,40.69811611017905,-73.92525797487053,WillyB Crossfit,40.707827833118586,-73.94877866580192,41 Meserole Street,2260,,Brooklyn,NY,Gym
115,Brooklyn,Bushwick,40.69811611017905,-73.92525797487053,Crossfit Outbreak,40.71821365256554,-73.94289220547613,208 Frost St,2686,11211,Brooklyn,NY,Gym / Fitness Center
116,Brooklyn,Bushwick,40.69811611017905,-73.92525797487053,Crossfit Outbreak,40.695908,-73.93364,1000 Broadway,748,11221,Brooklyn,NY,Gym / Fitness Center
117,Brooklyn,Bushwick,40.69811611017905,-73.92525797487053,CrossFit DeBo,40.710137651424134,-73.93635749816895,306 Stagg St,1633,11206,Brooklyn,NY,Gym / Fitness Center
118,Brooklyn,Bushwick,40.69811611017905,-73.92525797487053,Crossfit Outbreak,40.686849845476694,-73.94175109166727,492 Throop Ave,1873,11221,New York,NY,Gym / Fitness Center
119,Brooklyn,Bushwick,40.69811611017905,-73.92525797487053,Crossfit Bridge and Tunnel,40.69545059200372,-73.90079651038307,,2085,11385,Queens,NY,Gym
120,Brooklyn,Bushwick,40.69811611017905,-73.92525797487053,CrossFit Ridgewood,40.71171,-73.89977,63-49 60th Pl,2629,11385,Ridgewood,NY,Gym / Fitness Center
121,Brooklyn,Bedford Stuyvesant,40.6872316077205,-73.94178488690304,Crow Hill CrossFit,40.67768653054873,-73.95677179098129,1010 Dean St,1652,11238,Brooklyn,NY,Gym
122,Brooklyn,Bedford Stuyvesant,40.6872316077205,-73.94178488690304,Bushwick CrossFit,40.703433968199775,-73.93095418810844,10 Wilson Ave,2022,11237,Brooklyn,NY,Gym / Fitness Center
123,Brooklyn,Bedford Stuyvesant,40.6872316077205,-73.94178488690304,LTrain CrossFit,40.71148487197682,-73.94578712977734,667 Grand St,2720,11211,Brooklyn,NY,Gym / Fitness Center
124,Brooklyn,Bedford Stuyvesant,40.6872316077205,-73.94178488690304,Crossfit Kingsboro,40.68006491229371,-73.96083801950718,1000 Atlantic Ave,1795,11238,Brooklyn,NY,Gym / Fitness Center
125,Brooklyn,Bedford Stuyvesant,40.6872316077205,-73.94178488690304,Crossfit BQE,40.687133932943645,-73.90619787369249,698 Central Ave,3003,11207,Brooklyn,NY,Athletics & Sports
126,Brooklyn,Bedford Stuyvesant,40.6872316077205,-73.94178488690304,CrossFit Prospect Heights,40.68066094103169,-73.97400039656718,623 Bergen St,2816,11238,Brooklyn,NY,Gym / Fitness Center
127,Brooklyn,Bedford Stuyvesant,40.6872316077205,-73.94178488690304,WillyB Crossfit,40.707827833118586,-73.94877866580192,41 Meserole Street,2367,,Brooklyn,NY,Gym
128,Brooklyn,Bedford Stuyvesant,40.6872316077205,-73.94178488690304,CrossFit Outbreak,40.69755415417896,-73.96498985427989,10 Grand Ave,2270,11205,Brooklyn,NY,Gym
129,Brooklyn,Bedford Stuyvesant,40.6872316077205,-73.94178488690304,Crossfit Outbreak,40.686849845476694,-73.94175109166727,492 Throop Ave,42,11221,New York,NY,Gym / Fitness Center
130,Brooklyn,Bedford Stuyvesant,40.6872316077205,-73.94178488690304,Crossfit Outbreak,40.695908,-73.93364,1000 Broadway,1185,11221,Brooklyn,NY,Gym / Fitness Center
131,Brooklyn,Bedford Stuyvesant,40.6872316077205,-73.94178488690304,CrossFit DeBo,40.710137651424134,-73.93635749816895,306 Stagg St,2590,11206,Brooklyn,NY,Gym / Fitness Center
132,Brooklyn,Brooklyn Heights,40.69586372272413,-73.99378225496432,Crossfit South Brooklyn,40.6793845048432,-73.98371438935206,597 Degraw St,2021,11217,Brooklyn,NY,Gym
133,Brooklyn,Brooklyn Heights,40.69586372272413,-73.99378225496432,CrossFit Dumbo,40.70355587265485,-73.98779136884086,48 Pearl St,994,11201,Brooklyn,NY,Gym
134,Brooklyn,Brooklyn Heights,40.69586372272413,-73.99378225496432,Bowery CrossFit,40.71781226812158,-73.99262371362899,285 Grand St,2445,10002,New York,NY,Gym
135,Brooklyn,Brooklyn Heights,40.69586372272413,-73.99378225496432,CrossFit Red Hook,40.68119660398171,-74.00834022022252,209 Van Brunt St,2043,11231,Brooklyn,NY,Gym / Fitness Center
136,Brooklyn,Brooklyn Heights,40.69586372272413,-73.99378225496432,CrossFit Prospect Heights,40.68066094103169,-73.97400039656718,623 Bergen St,2377,11238,Brooklyn,NY,Gym / Fitness Center
137,Brooklyn,Brooklyn Heights,40.69586372272413,-73.99378225496432,Crossfit Wall Street,40.70554386423745,-74.01213909064103,60 New St,1887,10004,New York,NY,Gym
138,Brooklyn,Brooklyn Heights,40.69586372272413,-73.99378225496432,CrossFit 212 TriBeCa,40.714537431170484,-74.00599852611592,281 Broadway,2320,10007,New York,NY,Gym
139,Brooklyn,Brooklyn Heights,40.69586372272413,-73.99378225496432,Just Train,40.70947002162219,-74.00983963357307,6 Maiden Ln,2032,10038,New York,NY,Gym
140,Brooklyn,Brooklyn Heights,40.69586372272413,-73.99378225496432,CrossFit Outbreak,40.69755415417896,-73.96498985427989,10 Grand Ave,2437,11205,Brooklyn,NY,Gym
141,Brooklyn,Brooklyn Heights,40.69586372272413,-73.99378225496432,Crossfit 212,40.71805284050912,-74.00475220100614,84 Franklin St,2637,10013,New York,NY,Gym / Fitness Center
142,Brooklyn,Brooklyn Heights,40.69586372272413,-73.99378225496432,CrossFit 212 FiDi,40.70370900153129,-74.01152898481944,Stone,1733,10004,New York,NY,Gym / Fitness Center
143,Brooklyn,Brooklyn Heights,40.69586372272413,-73.99378225496432,CrossFit Wall Street,40.70974343802443,-74.0065837982249,111 Fulton St,1885,10038,New York,NY,Gym / Fitness Center
144,Brooklyn,Brooklyn Heights,40.69586372272413,-73.99378225496432,Oculus Crossfit,40.70977302010993,-74.0065501436561,151 William St,1886,10038,New York,NY,Gym / Fitness Center
145,Brooklyn,Brooklyn Heights,40.69586372272413,-73.99378225496432,Park Slope Crossfit,40.68155605033434,-73.97951811393598,500 Bergen St,1996,11217,Brooklyn,NY,Gym / Fitness Center
146,Brooklyn,Brooklyn Heights,40.69586372272413,-73.99378225496432,Crossfit Outbreak,40.710482,-73.966665,415 Wythe Ave,2808,11249,Brooklyn,NY,Gym
147,Brooklyn,Brooklyn Heights,40.69586372272413,-73.99378225496432,Class One Mixed Martial Arts & CrossFit,40.68168067415296,-73.97998644894972,85 4th Ave,1961,11217,Brooklyn,NY,Martial Arts Dojo
148,Brooklyn,Cobble Hill,40.68791972248561,-73.9985613921847,Crossfit South Brooklyn,40.6793845048432,-73.98371438935206,597 Degraw St,1572,11217,Brooklyn,NY,Gym
149,Brooklyn,Cobble Hill,40.68791972248561,-73.9985613921847,CrossFit Red Hook,40.68119660398171,-74.00834022022252,209 Van Brunt St,1114,11231,Brooklyn,NY,Gym / Fitness Center
150,Brooklyn,Cobble Hill,40.68791972248561,-73.9985613921847,CrossFit Dumbo,40.70355587265485,-73.98779136884086,48 Pearl St,1963,11201,Brooklyn,NY,Gym
151,Brooklyn,Cobble Hill,40.68791972248561,-73.9985613921847,CrossFit Prospect Heights,40.68066094103169,-73.97400039656718,623 Bergen St,2225,11238,Brooklyn,NY,Gym / Fitness Center
152,Brooklyn,Cobble Hill,40.68791972248561,-73.9985613921847,Crossfit Wall Street,40.70554386423745,-74.01213909064103,60 New St,2272,10004,New York,NY,Gym
153,Brooklyn,Cobble Hill,40.68791972248561,-73.9985613921847,Just Train,40.70947002162219,-74.00983963357307,6 Maiden Ln,2580,10038,New York,NY,Gym
154,Brooklyn,Cobble Hill,40.68791972248561,-73.9985613921847,Park Slope Crossfit,40.68155605033434,-73.97951811393598,500 Bergen St,1756,11217,Brooklyn,NY,Gym / Fitness Center
155,Brooklyn,Cobble Hill,40.68791972248561,-73.9985613921847,CrossFit 212 FiDi,40.70370900153129,-74.01152898481944,Stone,2070,10004,New York,NY,Gym / Fitness Center
156,Brooklyn,Cobble Hill,40.68791972248561,-73.9985613921847,CrossFit Wall Street,40.70974343802443,-74.0065837982249,111 Fulton St,2521,10038,New York,NY,Gym / Fitness Center
157,Brooklyn,Cobble Hill,40.68791972248561,-73.9985613921847,Oculus Crossfit,40.70977302010993,-74.0065501436561,151 William St,2524,10038,New York,NY,Gym / Fitness Center
158,Brooklyn,Cobble Hill,40.68791972248561,-73.9985613921847,Class One Mixed Martial Arts & CrossFit,40.68168067415296,-73.97998644894972,85 4th Ave,1714,11217,Brooklyn,NY,Martial Arts Dojo
159,Brooklyn,Carroll Gardens,40.68213188564184,-74.00037274122076,Crossfit South Brooklyn,40.6793845048432,-73.98371438935206,597 Degraw St,1439,11217,Brooklyn,NY,Gym
160,Brooklyn,Carroll Gardens,40.68213188564184,-74.00037274122076,CrossFit Red Hook,40.68119660398171,-74.00834022022252,209 Van Brunt St,680,11231,Brooklyn,NY,Gym / Fitness Center
161,Brooklyn,Carroll Gardens,40.68213188564184,-74.00037274122076,CrossFit Prospect Heights,40.68066094103169,-73.97400039656718,623 Bergen St,2232,11238,Brooklyn,NY,Gym / Fitness Center
162,Brooklyn,Carroll Gardens,40.68213188564184,-74.00037274122076,CrossFit Dumbo,40.70355587265485,-73.98779136884086,48 Pearl St,2610,11201,Brooklyn,NY,Gym
163,Brooklyn,Carroll Gardens,40.68213188564184,-74.00037274122076,Crossfit 718,40.66072378554618,-73.99436919730705,148 26th St,2436,11232,Brooklyn,NY,Gym
164,Brooklyn,Carroll Gardens,40.68213188564184,-74.00037274122076,Crossfit Wall Street,40.70554386423745,-74.01213909064103,60 New St,2788,10004,New York,NY,Gym
165,Brooklyn,Carroll Gardens,40.68213188564184,-74.00037274122076,Park Slope Crossfit,40.68155605033434,-73.97951811393598,500 Bergen St,1761,11217,Brooklyn,NY,Gym / Fitness Center
166,Brooklyn,Carroll Gardens,40.68213188564184,-74.00037274122076,CrossFit 212 FiDi,40.70370900153129,-74.01152898481944,Stone,2579,10004,New York,NY,Gym / Fitness Center
167,Brooklyn,Carroll Gardens,40.68213188564184,-74.00037274122076,Class One Mixed Martial Arts & CrossFit,40.68168067415296,-73.97998644894972,85 4th Ave,1721,11217,Brooklyn,NY,Martial Arts Dojo
168,Brooklyn,Red Hook,40.67625323025092,-74.01275897473568,Crossfit South Brooklyn,40.6793845048432,-73.98371438935206,597 Degraw St,2476,11217,Brooklyn,NY,Gym
169,Brooklyn,Red Hook,40.67625323025092,-74.01275897473568,CrossFit Red Hook,40.68119660398171,-74.00834022022252,209 Van Brunt St,664,11231,Brooklyn,NY,Gym / Fitness Center
170,Brooklyn,Red Hook,40.67625323025092,-74.01275897473568,Crossfit 718,40.66072378554618,-73.99436919730705,148 26th St,2323,11232,Brooklyn,NY,Gym
171,Brooklyn,Red Hook,40.67625323025092,-74.01275897473568,Park Slope Crossfit,40.68155605033434,-73.97951811393598,500 Bergen St,2867,11217,Brooklyn,NY,Gym / Fitness Center
172,Brooklyn,Red Hook,40.67625323025092,-74.01275897473568,Class One Mixed Martial Arts & CrossFit,40.68168067415296,-73.97998644894972,85 4th Ave,2831,11217,Brooklyn,NY,Martial Arts Dojo
173,Brooklyn,Gowanus,40.6739311431872,-73.99444087145346,Crossfit South Brooklyn,40.6793845048432,-73.98371438935206,597 Degraw St,1090,11217,Brooklyn,NY,Gym
174,Brooklyn,Gowanus,40.6739311431872,-73.99444087145346,CrossFit Red Hook,40.68119660398171,-74.00834022022252,209 Van Brunt St,1425,11231,Brooklyn,NY,Gym / Fitness Center
175,Brooklyn,Gowanus,40.6739311431872,-73.99444087145346,CrossFit Prospect Heights,40.68066094103169,-73.97400039656718,623 Bergen St,1881,11238,Brooklyn,NY,Gym / Fitness Center
176,Brooklyn,Gowanus,40.6739311431872,-73.99444087145346,Crossfit 718,40.66072378554618,-73.99436919730705,148 26th St,1470,11232,Brooklyn,NY,Gym
177,Brooklyn,Gowanus,40.6739311431872,-73.99444087145346,Crossfit Kingsboro,40.68006491229371,-73.96083801950718,1000 Atlantic Ave,2917,11238,Brooklyn,NY,Gym / Fitness Center
178,Brooklyn,Gowanus,40.6739311431872,-73.99444087145346,Park Slope Crossfit,40.68155605033434,-73.97951811393598,500 Bergen St,1519,11217,Brooklyn,NY,Gym / Fitness Center
179,Brooklyn,Gowanus,40.6739311431872,-73.99444087145346,Class One Mixed Martial Arts & CrossFit,40.68168067415296,-73.97998644894972,85 4th Ave,1494,11217,Brooklyn,NY,Martial Arts Dojo
180,Brooklyn,Fort Greene,40.688527260189815,-73.97290574369099,Crossfit South Brooklyn,40.6793845048432,-73.98371438935206,597 Degraw St,1366,11217,Brooklyn,NY,Gym
181,Brooklyn,Fort Greene,40.688527260189815,-73.97290574369099,CrossFit Prospect Heights,40.68066094103169,-73.97400039656718,623 Bergen St,880,11238,Brooklyn,NY,Gym / Fitness Center
182,Brooklyn,Fort Greene,40.688527260189815,-73.97290574369099,CrossFit Dumbo,40.70355587265485,-73.98779136884086,48 Pearl St,2092,11201,Brooklyn,NY,Gym
183,Brooklyn,Fort Greene,40.688527260189815,-73.97290574369099,Crow Hill CrossFit,40.67768653054873,-73.95677179098129,1010 Dean St,1819,11238,Brooklyn,NY,Gym
184,Brooklyn,Fort Greene,40.688527260189815,-73.97290574369099,Crossfit Kingsboro,40.68006491229371,-73.96083801950718,1000 Atlantic Ave,1387,11238,Brooklyn,NY,Gym / Fitness Center
185,Brooklyn,Fort Greene,40.688527260189815,-73.97290574369099,CrossFit Outbreak,40.69755415417896,-73.96498985427989,10 Grand Ave,1206,11205,Brooklyn,NY,Gym
186,Brooklyn,Fort Greene,40.688527260189815,-73.97290574369099,WillyB Crossfit,40.707827833118586,-73.94877866580192,41 Meserole Street,2960,,Brooklyn,NY,Gym
187,Brooklyn,Fort Greene,40.688527260189815,-73.97290574369099,Park Slope Crossfit,40.68155605033434,-73.97951811393598,500 Bergen St,955,11217,Brooklyn,NY,Gym / Fitness Center
188,Brooklyn,Fort Greene,40.688527260189815,-73.97290574369099,Crossfit Outbreak,40.686849845476694,-73.94175109166727,492 Throop Ave,2636,11221,New York,NY,Gym / Fitness Center
189,Brooklyn,Fort Greene,40.688527260189815,-73.97290574369099,Crossfit Outbreak,40.710482,-73.966665,415 Wythe Ave,2500,11249,Brooklyn,NY,Gym
190,Brooklyn,Fort Greene,40.688527260189815,-73.97290574369099,Class One Mixed Martial Arts & CrossFit,40.68168067415296,-73.97998644894972,85 4th Ave,968,11217,Brooklyn,NY,Martial Arts Dojo
191,Brooklyn,Park Slope,40.672320522682014,-73.97705030183931,Crossfit South Brooklyn,40.6793845048432,-73.98371438935206,597 Degraw St,966,11217,Brooklyn,NY,Gym
192,Brooklyn,Park Slope,40.672320522682014,-73.97705030183931,CrossFit Prospect Heights,40.68066094103169,-73.97400039656718,623 Bergen St,963,11238,Brooklyn,NY,Gym / Fitness Center
193,Brooklyn,Park Slope,40.672320522682014,-73.97705030183931,Crow Hill CrossFit,40.67768653054873,-73.95677179098129,1010 Dean St,1813,11238,Brooklyn,NY,Gym
194,Brooklyn,Park Slope,40.672320522682014,-73.97705030183931,Crossfit 718,40.66072378554618,-73.99436919730705,148 26th St,1950,11232,Brooklyn,NY,Gym
195,Brooklyn,Park Slope,40.672320522682014,-73.97705030183931,Crossfit Kingsboro,40.68006491229371,-73.96083801950718,1000 Atlantic Ave,1617,11238,Brooklyn,NY,Gym / Fitness Center
196,Brooklyn,Park Slope,40.672320522682014,-73.97705030183931,CrossFit Red Hook,40.68119660398171,-74.00834022022252,209 Van Brunt St,2820,11231,Brooklyn,NY,Gym / Fitness Center
197,Brooklyn,Park Slope,40.672320522682014,-73.97705030183931,CrossFit Outbreak,40.69755415417896,-73.96498985427989,10 Grand Ave,2987,11205,Brooklyn,NY,Gym
198,Brooklyn,Park Slope,40.672320522682014,-73.97705030183931,Park Slope Crossfit,40.68155605033434,-73.97951811393598,500 Bergen St,1048,11217,Brooklyn,NY,Gym / Fitness Center
199,Brooklyn,Park Slope,40.672320522682014,-73.97705030183931,Class One Mixed Martial Arts & CrossFit,40.68168067415296,-73.97998644894972,85 4th Ave,1071,11217,Brooklyn,NY,Martial Arts Dojo
200,Brooklyn,Cypress Hills,40.6846357939163,-73.87583132262635,Crossfit BQE,40.687133932943645,-73.90619787369249,698 Central Ave,2578,11207,Brooklyn,NY,Athletics & Sports
201,Brooklyn,Cypress Hills,40.6846357939163,-73.87583132262635,CrossFit Glendale,40.70992427095417,-73.86641222449022,70-17 83rd St,2925,11385,Glendale,NY,Gym
202,Brooklyn,Cypress Hills,40.6846357939163,-73.87583132262635,Crossfit Bridge and Tunnel,40.69545059200372,-73.90079651038307,,2426,11385,Queens,NY,Gym
203,Brooklyn,East New York,40.66992570084708,-73.88069863917373,Crossfit BQE,40.687133932943645,-73.90619787369249,698 Central Ave,2881,11207,Brooklyn,NY,Athletics & Sports
204,Brooklyn,Starrett City,40.64758905230878,-73.87936970045882,Crossfit Fit Cross II,40.641800472432834,-73.91133785247803,8701 Farragut Rd,2776,11236,Brooklyn,NY,Gym
205,Brooklyn,Starrett City,40.64758905230878,-73.87936970045882,Crowhill Crossfit,40.650587473474175,-73.9129353301848,800,2854,,Brooklyn,NY,Athletics & Sports
206,Brooklyn,Canarsie,40.63556432797432,-73.90209269778973,Crossfit Fit Cross II,40.641800472432834,-73.91133785247803,8701 Farragut Rd,1044,11236,Brooklyn,NY,Gym
207,Brooklyn,Canarsie,40.63556432797432,-73.90209269778973,Crowhill Crossfit,40.650587473474175,-73.9129353301848,800,1906,,Brooklyn,NY,Athletics & Sports
208,Brooklyn,Flatlands,40.6304460437575,-73.92911302644681,Crossfit Fit Cross II,40.641800472432834,-73.91133785247803,8701 Farragut Rd,1962,11236,Brooklyn,NY,Gym
209,Brooklyn,Flatlands,40.6304460437575,-73.92911302644681,Crossfit Marine Park,40.606168128959396,-73.93010083727226,2119 E 34th St,2703,11234,Brooklyn,NY,Gym
210,Brooklyn,Flatlands,40.6304460437575,-73.92911302644681,Crowhill Crossfit,40.650587473474175,-73.9129353301848,800,2625,,Brooklyn,NY,Athletics & Sports
211,Brooklyn,Mill Island,40.60633642168567,-73.90818571777432,Aviator Sports & Events Center,40.589889630162254,-73.89891475268549,3159 Flatbush Ave,1991,11234,Brooklyn,NY,Climbing Gym
212,Brooklyn,Mill Island,40.60633642168567,-73.90818571777432,Crossfit Marine Park,40.606168128959396,-73.93010083727226,2119 E 34th St,1852,11234,Brooklyn,NY,Gym
213,Brooklyn,Mill Island,40.60633642168567,-73.90818571777432,CrossFit Floyd Bennett Field,40.589915256260205,-73.89955781515174,3159 Flatbush Ave,1968,11234,Brooklyn,NY,Sports Club
214,Brooklyn,Coney Island,40.57429256471605,-73.98868295821644,CrossFit STEED,40.58140561672332,-73.98444682359695,2705 W 16th St,869,11224,Brooklyn,NY,Gym / Fitness Center
215,Brooklyn,Bath Beach,40.599518702822415,-73.99875221443526,CrossFit STEED,40.58140561672332,-73.98444682359695,2705 W 16th St,2351,11224,Brooklyn,NY,Gym / Fitness Center
216,Brooklyn,Bath Beach,40.599518702822415,-73.99875221443526,CrossFit Coney Island,40.602854643892606,-73.96901325736928,2034 McDonald Ave,2540,11223,Brooklyn,NY,Gym
217,Brooklyn,Dyker Heights,40.61921945772268,-74.01931375636029,Bay Ridge Crossfit,40.62414280628023,-74.03082276499144,3rd Avenue,1116,11209,Bay Ridge,NY,Gym / Fitness Center
218,Brooklyn,Dyker Heights,40.61921945772268,-74.01931375636029,bayridge crossfit,40.62422697687232,-74.03072659659897,,1113,,Brooklyn,NY,Sports Club
219,Brooklyn,Gerritsen Beach,40.59084843390208,-73.93010170691203,Aviator Sports & Events Center,40.589889630162254,-73.89891475268549,3159 Flatbush Ave,2638,11234,Brooklyn,NY,Climbing Gym
220,Brooklyn,Gerritsen Beach,40.59084843390208,-73.93010170691203,Crossfit Marine Park,40.606168128959396,-73.93010083727226,2119 E 34th St,1705,11234,Brooklyn,NY,Gym
221,Brooklyn,Gerritsen Beach,40.59084843390208,-73.93010170691203,CrossFit Floyd Bennett Field,40.589915256260205,-73.89955781515174,3159 Flatbush Ave,2584,11234,Brooklyn,NY,Sports Club
222,Brooklyn,Marine Park,40.60974777989464,-73.93134404108504,Crossfit Marine Park,40.606168128959396,-73.93010083727226,2119 E 34th St,412,11234,Brooklyn,NY,Gym
223,Brooklyn,Clinton Hill,40.69322942188155,-73.96784306216374,Crossfit South Brooklyn,40.6793845048432,-73.98371438935206,597 Degraw St,2042,11217,Brooklyn,NY,Gym
224,Brooklyn,Clinton Hill,40.69322942188155,-73.96784306216374,True North Training,40.71687709749549,-73.96593519191094,70 River St,2637,11211,Brooklyn,NY,Gym
225,Brooklyn,Clinton Hill,40.69322942188155,-73.96784306216374,CrossFit Prospect Heights,40.68066094103169,-73.97400039656718,623 Bergen St,1492,11238,Brooklyn,NY,Gym / Fitness Center
226,Brooklyn,Clinton Hill,40.69322942188155,-73.96784306216374,CrossFit Outbreak,40.69755415417896,-73.96498985427989,10 Grand Ave,538,11205,Brooklyn,NY,Gym
227,Brooklyn,Clinton Hill,40.69322942188155,-73.96784306216374,CrossFit Dumbo,40.70355587265485,-73.98779136884086,48 Pearl St,2038,11201,Brooklyn,NY,Gym
228,Brooklyn,Clinton Hill,40.69322942188155,-73.96784306216374,Crow Hill CrossFit,40.67768653054873,-73.95677179098129,1010 Dean St,1966,11238,Brooklyn,NY,Gym
229,Brooklyn,Clinton Hill,40.69322942188155,-73.96784306216374,Crossfit Kingsboro,40.68006491229371,-73.96083801950718,1000 Atlantic Ave,1580,11238,Brooklyn,NY,Gym / Fitness Center
230,Brooklyn,Clinton Hill,40.69322942188155,-73.96784306216374,LTrain CrossFit,40.71148487197682,-73.94578712977734,667 Grand St,2755,11211,Brooklyn,NY,Gym / Fitness Center
231,Brooklyn,Clinton Hill,40.69322942188155,-73.96784306216374,WillyB Crossfit,40.707827833118586,-73.94877866580192,41 Meserole Street,2286,,Brooklyn,NY,Gym
232,Brooklyn,Clinton Hill,40.69322942188155,-73.96784306216374,Park Slope Crossfit,40.68155605033434,-73.97951811393598,500 Bergen St,1630,11217,Brooklyn,NY,Gym / Fitness Center
233,Brooklyn,Clinton Hill,40.69322942188155,-73.96784306216374,Crossfit Outbreak,40.710482,-73.966665,415 Wythe Ave,1923,11249,Brooklyn,NY,Gym
234,Brooklyn,Clinton Hill,40.69322942188155,-73.96784306216374,Crossfit Outbreak,40.686849845476694,-73.94175109166727,492 Throop Ave,2314,11221,New York,NY,Gym / Fitness Center
235,Brooklyn,Clinton Hill,40.69322942188155,-73.96784306216374,Crossfit Outbreak,40.695908,-73.93364,1000 Broadway,2902,11221,Brooklyn,NY,Gym / Fitness Center
236,Brooklyn,Clinton Hill,40.69322942188155,-73.96784306216374,Class One Mixed Martial Arts & CrossFit,40.68168067415296,-73.97998644894972,85 4th Ave,1644,11217,Brooklyn,NY,Martial Arts Dojo
237,Brooklyn,Sea Gate,40.576375378902284,-74.00787311200247,CrossFit STEED,40.58140561672332,-73.98444682359695,2705 W 16th St,2058,11224,Brooklyn,NY,Gym / Fitness Center
238,Brooklyn,Downtown,40.69084402109806,-73.98346337431106,Crossfit South Brooklyn,40.6793845048432,-73.98371438935206,597 Degraw St,1275,11217,Brooklyn,NY,Gym
239,Brooklyn,Downtown,40.69084402109806,-73.98346337431106,CrossFit Prospect Heights,40.68066094103169,-73.97400039656718,623 Bergen St,1386,11238,Brooklyn,NY,Gym / Fitness Center
240,Brooklyn,Downtown,40.69084402109806,-73.98346337431106,CrossFit Dumbo,40.70355587265485,-73.98779136884086,48 Pearl St,1461,11201,Brooklyn,NY,Gym
241,Brooklyn,Downtown,40.69084402109806,-73.98346337431106,CrossFit Red Hook,40.68119660398171,-74.00834022022252,209 Van Brunt St,2358,11231,Brooklyn,NY,Gym / Fitness Center
242,Brooklyn,Downtown,40.69084402109806,-73.98346337431106,CrossFit Outbreak,40.69755415417896,-73.96498985427989,10 Grand Ave,1728,11205,Brooklyn,NY,Gym
243,Brooklyn,Downtown,40.69084402109806,-73.98346337431106,Crow Hill CrossFit,40.67768653054873,-73.95677179098129,1010 Dean St,2687,11238,Brooklyn,NY,Gym
244,Brooklyn,Downtown,40.69084402109806,-73.98346337431106,Crossfit Kingsboro,40.68006491229371,-73.96083801950718,1000 Atlantic Ave,2255,11238,Brooklyn,NY,Gym / Fitness Center
245,Brooklyn,Downtown,40.69084402109806,-73.98346337431106,Crossfit Wall Street,40.70554386423745,-74.01213909064103,60 New St,2921,10004,New York,NY,Gym
246,Brooklyn,Downtown,40.69084402109806,-73.98346337431106,Park Slope Crossfit,40.68155605033434,-73.97951811393598,500 Bergen St,1086,11217,Brooklyn,NY,Gym / Fitness Center
247,Brooklyn,Downtown,40.69084402109806,-73.98346337431106,Crossfit Outbreak,40.710482,-73.966665,415 Wythe Ave,2605,11249,Brooklyn,NY,Gym
248,Brooklyn,Downtown,40.69084402109806,-73.98346337431106,CrossFit 212 FiDi,40.70370900153129,-74.01152898481944,Stone,2767,10004,New York,NY,Gym / Fitness Center
249,Brooklyn,Downtown,40.69084402109806,-73.98346337431106,Oculus Crossfit,40.70977302010993,-74.0065501436561,151 William St,2869,10038,New York,NY,Gym / Fitness Center
250,Brooklyn,Downtown,40.69084402109806,-73.98346337431106,CrossFit Wall Street,40.70974343802443,-74.0065837982249,111 Fulton St,2869,10038,New York,NY,Gym / Fitness Center
251,Brooklyn,Downtown,40.69084402109806,-73.98346337431106,Class One Mixed Martial Arts & CrossFit,40.68168067415296,-73.97998644894972,85 4th Ave,1061,11217,Brooklyn,NY,Martial Arts Dojo
252,Brooklyn,Boerum Hill,40.687241380657376,-73.98357724689187,Crossfit South Brooklyn,40.6793845048432,-73.98371438935206,597 Degraw St,874,11217,Brooklyn,NY,Gym
253,Brooklyn,Boerum Hill,40.687241380657376,-73.98357724689187,CrossFit Prospect Heights,40.68066094103169,-73.97400039656718,623 Bergen St,1090,11238,Brooklyn,NY,Gym / Fitness Center
254,Brooklyn,Boerum Hill,40.687241380657376,-73.98357724689187,CrossFit Dumbo,40.70355587265485,-73.98779136884086,48 Pearl St,1850,11201,Brooklyn,NY,Gym
255,Brooklyn,Boerum Hill,40.687241380657376,-73.98357724689187,CrossFit Red Hook,40.68119660398171,-74.00834022022252,209 Van Brunt St,2195,11231,Brooklyn,NY,Gym / Fitness Center
256,Brooklyn,Boerum Hill,40.687241380657376,-73.98357724689187,Crow Hill CrossFit,40.67768653054873,-73.95677179098129,1010 Dean St,2500,11238,Brooklyn,NY,Gym
257,Brooklyn,Boerum Hill,40.687241380657376,-73.98357724689187,Crossfit Kingsboro,40.68006491229371,-73.96083801950718,1000 Atlantic Ave,2079,11238,Brooklyn,NY,Gym / Fitness Center
258,Brooklyn,Boerum Hill,40.687241380657376,-73.98357724689187,CrossFit Outbreak,40.69755415417896,-73.96498985427989,10 Grand Ave,1944,11205,Brooklyn,NY,Gym
259,Brooklyn,Boerum Hill,40.687241380657376,-73.98357724689187,Park Slope Crossfit,40.68155605033434,-73.97951811393598,500 Bergen St,719,11217,Brooklyn,NY,Gym / Fitness Center
260,Brooklyn,Boerum Hill,40.687241380657376,-73.98357724689187,CrossFit 212 FiDi,40.70370900153129,-74.01152898481944,Stone,2987,10004,New York,NY,Gym / Fitness Center
261,Brooklyn,Boerum Hill,40.687241380657376,-73.98357724689187,Crossfit Outbreak,40.710482,-73.966665,415 Wythe Ave,2954,11249,Brooklyn,NY,Gym
262,Brooklyn,Boerum Hill,40.687241380657376,-73.98357724689187,Class One Mixed Martial Arts & CrossFit,40.68168067415296,-73.97998644894972,85 4th Ave,689,11217,Brooklyn,NY,Martial Arts Dojo
263,Brooklyn,Prospect Lefferts Gardens,40.65842001746986,-73.9548986707772,Crow Hill CrossFit,40.67768653054873,-73.95677179098129,1010 Dean St,2150,11238,Brooklyn,NY,Gym
264,Brooklyn,Prospect Lefferts Gardens,40.65842001746986,-73.9548986707772,CrossFit Prospect Heights,40.68066094103169,-73.97400039656718,623 Bergen St,2954,11238,Brooklyn,NY,Gym / Fitness Center
265,Brooklyn,Prospect Lefferts Gardens,40.65842001746986,-73.9548986707772,Crossfit Kingsboro,40.68006491229371,-73.96083801950718,1000 Atlantic Ave,2461,11238,Brooklyn,NY,Gym / Fitness Center
266,Brooklyn,Ocean Hill,40.6784025547954,-73.91306831787404,Crossfit BQE,40.687133932943645,-73.90619787369249,698 Central Ave,1131,11207,Brooklyn,NY,Athletics & Sports
267,Brooklyn,Ocean Hill,40.6784025547954,-73.91306831787404,Crossfit Bridge and Tunnel,40.69545059200372,-73.90079651038307,,2162,11385,Queens,NY,Gym
268,Brooklyn,Ocean Hill,40.6784025547954,-73.91306831787404,Crossfit Outbreak,40.686849845476694,-73.94175109166727,492 Throop Ave,2597,11221,New York,NY,Gym / Fitness Center
269,Brooklyn,Ocean Hill,40.6784025547954,-73.91306831787404,Crossfit Outbreak,40.695908,-73.93364,1000 Broadway,2610,11221,Brooklyn,NY,Gym / Fitness Center
270,Brooklyn,City Line,40.678569957274824,-73.86797598081343,Monkey Fist Martial Arts,40.67275500125601,-73.84350153773275,135-26 Cross Bay Blvd.,2165,11417,Ozone Park,NY,Gym / Fitness Center
271,Brooklyn,Bergen Beach,40.615149550453125,-73.89855633630324,Aviator Sports & Events Center,40.589889630162254,-73.89891475268549,3159 Flatbush Ave,2812,11234,Brooklyn,NY,Climbing Gym
272,Brooklyn,Bergen Beach,40.615149550453125,-73.89855633630324,Crossfit Marine Park,40.606168128959396,-73.93010083727226,2119 E 34th St,2847,11234,Brooklyn,NY,Gym
273,Brooklyn,Bergen Beach,40.615149550453125,-73.89855633630324,CrossFit Floyd Bennett Field,40.589915256260205,-73.89955781515174,3159 Flatbush Ave,2810,11234,Brooklyn,NY,Sports Club
274,Brooklyn,Midwood,40.62559589869847,-73.95759523489846,CrossFit Coney Island,40.602854643892606,-73.96901325736928,2034 McDonald Ave,2709,11223,Brooklyn,NY,Gym
275,Brooklyn,Georgetown,40.623845244784235,-73.91607483951331,Crossfit Fit Cross II,40.641800472432834,-73.91133785247803,8701 Farragut Rd,2038,11236,Brooklyn,NY,Gym
276,Brooklyn,Georgetown,40.623845244784235,-73.91607483951331,Crossfit Marine Park,40.606168128959396,-73.93010083727226,2119 E 34th St,2297,11234,Brooklyn,NY,Gym
277,Brooklyn,Georgetown,40.623845244784235,-73.91607483951331,Crowhill Crossfit,40.650587473474175,-73.9129353301848,800,2988,,Brooklyn,NY,Athletics & Sports
278,Brooklyn,Spring Creek,40.65713927658277,-73.86998779106547,Monkey Fist Martial Arts,40.67275500125601,-73.84350153773275,135-26 Cross Bay Blvd.,2832,11417,Ozone Park,NY,Gym / Fitness Center
279,Brooklyn,East Williamsburg,40.70849241041552,-73.93885815269203,LTrain CrossFit,40.71148487197682,-73.94578712977734,667 Grand St,672,11211,Brooklyn,NY,Gym / Fitness Center
280,Brooklyn,East Williamsburg,40.70849241041552,-73.93885815269203,True North Training,40.71687709749549,-73.96593519191094,70 River St,2468,11211,Brooklyn,NY,Gym
281,Brooklyn,East Williamsburg,40.70849241041552,-73.93885815269203,Bushwick CrossFit,40.703433968199775,-73.93095418810844,10 Wilson Ave,872,11237,Brooklyn,NY,Gym / Fitness Center
282,Brooklyn,East Williamsburg,40.70849241041552,-73.93885815269203,WillyB Crossfit,40.707827833118586,-73.94877866580192,41 Meserole Street,840,,Brooklyn,NY,Gym
283,Brooklyn,East Williamsburg,40.70849241041552,-73.93885815269203,CrossFit Virtuosity,40.719027924652224,-73.94800787522796,98 Bayard St,1404,11222,Brooklyn,NY,Gym
284,Brooklyn,East Williamsburg,40.70849241041552,-73.93885815269203,Crossfit Outbreak,40.71821365256554,-73.94289220547613,208 Frost St,1134,11211,Brooklyn,NY,Gym / Fitness Center
285,Brooklyn,East Williamsburg,40.70849241041552,-73.93885815269203,CrossFit Outbreak,40.69755415417896,-73.96498985427989,10 Grand Ave,2519,11205,Brooklyn,NY,Gym
286,Brooklyn,East Williamsburg,40.70849241041552,-73.93885815269203,CrossFit DeBo,40.710137651424134,-73.93635749816895,306 Stagg St,279,11206,Brooklyn,NY,Gym / Fitness Center
287,Brooklyn,East Williamsburg,40.70849241041552,-73.93885815269203,Crossfit Outbreak,40.695908,-73.93364,1000 Broadway,1468,11221,Brooklyn,NY,Gym / Fitness Center
288,Brooklyn,East Williamsburg,40.70849241041552,-73.93885815269203,Crossfit Outbreak,40.686849845476694,-73.94175109166727,492 Throop Ave,2421,11221,New York,NY,Gym / Fitness Center
289,Brooklyn,East Williamsburg,40.70849241041552,-73.93885815269203,Crossfit Outbreak,40.710482,-73.966665,415 Wythe Ave,2356,11249,Brooklyn,NY,Gym
290,Brooklyn,East Williamsburg,40.70849241041552,-73.93885815269203,willyb crossfit,40.729464975491624,-73.95069073496587,220 Newel Street,2539,,Brooklyn,NY,Gym
291,Brooklyn,East Williamsburg,40.70849241041552,-73.93885815269203,Brooklyn CrossFit : West Street,40.7281508786577,-73.95868520245914,42 West St,2754,11222,Brooklyn,NY,Gym
292,Brooklyn,North Side,40.714822906532056,-73.95880857587589,True North Training,40.71687709749549,-73.96593519191094,70 River St,643,11211,Brooklyn,NY,Gym
293,Brooklyn,North Side,40.714822906532056,-73.95880857587589,LTrain CrossFit,40.71148487197682,-73.94578712977734,667 Grand St,1159,11211,Brooklyn,NY,Gym / Fitness Center
294,Brooklyn,North Side,40.714822906532056,-73.95880857587589,CrossFit Virtuosity,40.719027924652224,-73.94800787522796,98 Bayard St,1024,11222,Brooklyn,NY,Gym
295,Brooklyn,North Side,40.714822906532056,-73.95880857587589,CrossFit East River,40.7254434939673,-73.97846140631547,647 E 9th St,2036,10009,New York,NY,Gym / Fitness Center
296,Brooklyn,North Side,40.714822906532056,-73.95880857587589,WillyB Crossfit,40.707827833118586,-73.94877866580192,41 Meserole Street,1150,,Brooklyn,NY,Gym
297,Brooklyn,North Side,40.714822906532056,-73.95880857587589,Crossfit Greenpoint,40.73611274835637,-73.9519963753644,188 DuPont St,2438,11222,Brooklyn,NY,Gym / Fitness Center
298,Brooklyn,North Side,40.714822906532056,-73.95880857587589,Crossfit Outbreak,40.71821365256554,-73.94289220547613,208 Frost St,1394,11211,Brooklyn,NY,Gym / Fitness Center
299,Brooklyn,North Side,40.714822906532056,-73.95880857587589,Bowery CrossFit,40.71781226812158,-73.99262371362899,285 Grand St,2872,10002,New York,NY,Gym
300,Brooklyn,North Side,40.714822906532056,-73.95880857587589,CrossFit Dumbo,40.70355587265485,-73.98779136884086,48 Pearl St,2748,11201,Brooklyn,NY,Gym
301,Brooklyn,North Side,40.714822906532056,-73.95880857587589,Bushwick CrossFit,40.703433968199775,-73.93095418810844,10 Wilson Ave,2670,11237,Brooklyn,NY,Gym / Fitness Center
302,Brooklyn,North Side,40.714822906532056,-73.95880857587589,CrossFit Outbreak,40.69755415417896,-73.96498985427989,10 Grand Ave,1991,11205,Brooklyn,NY,Gym
303,Brooklyn,North Side,40.714822906532056,-73.95880857587589,Crossfit Outbreak,40.710482,-73.966665,415 Wythe Ave,820,11249,Brooklyn,NY,Gym
304,Brooklyn,North Side,40.714822906532056,-73.95880857587589,CrossFit DeBo,40.710137651424134,-73.93635749816895,306 Stagg St,1964,11206,Brooklyn,NY,Gym / Fitness Center
305,Brooklyn,North Side,40.714822906532056,-73.95880857587589,Brooklyn CrossFit : West Street,40.7281508786577,-73.95868520245914,42 West St,1483,11222,Brooklyn,NY,Gym
306,Brooklyn,North Side,40.714822906532056,-73.95880857587589,willyb crossfit,40.729464975491624,-73.95069073496587,220 Newel Street,1767,,Brooklyn,NY,Gym
307,Brooklyn,North Side,40.714822906532056,-73.95880857587589,Crossfit Outbreak,40.695908,-73.93364,1000 Broadway,2990,11221,Brooklyn,NY,Gym / Fitness Center
308,Brooklyn,South Side,40.710861472650684,-73.95800095153338,True North Training,40.71687709749549,-73.96593519191094,70 River St,946,11211,Brooklyn,NY,Gym
309,Brooklyn,South Side,40.710861472650684,-73.95800095153338,LTrain CrossFit,40.71148487197682,-73.94578712977734,667 Grand St,1032,11211,Brooklyn,NY,Gym / Fitness Center
310,Brooklyn,South Side,40.710861472650684,-73.95800095153338,WillyB Crossfit,40.707827833118586,-73.94877866580192,41 Meserole Street,848,,Brooklyn,NY,Gym
311,Brooklyn,South Side,40.710861472650684,-73.95800095153338,CrossFit Virtuosity,40.719027924652224,-73.94800787522796,98 Bayard St,1239,11222,Brooklyn,NY,Gym
312,Brooklyn,South Side,40.710861472650684,-73.95800095153338,CrossFit East River,40.7254434939673,-73.97846140631547,647 E 9th St,2369,10009,New York,NY,Gym / Fitness Center
313,Brooklyn,South Side,40.710861472650684,-73.95800095153338,Crossfit Outbreak,40.71821365256554,-73.94289220547613,208 Frost St,1514,11211,Brooklyn,NY,Gym / Fitness Center
314,Brooklyn,South Side,40.710861472650684,-73.95800095153338,Crossfit Greenpoint,40.73611274835637,-73.9519963753644,188 DuPont St,2856,11222,Brooklyn,NY,Gym / Fitness Center
315,Brooklyn,South Side,40.710861472650684,-73.95800095153338,CrossFit Dumbo,40.70355587265485,-73.98779136884086,48 Pearl St,2642,11201,Brooklyn,NY,Gym
316,Brooklyn,South Side,40.710861472650684,-73.95800095153338,Bushwick CrossFit,40.703433968199775,-73.93095418810844,10 Wilson Ave,2427,11237,Brooklyn,NY,Gym / Fitness Center
317,Brooklyn,South Side,40.710861472650684,-73.95800095153338,CrossFit Outbreak,40.69755415417896,-73.96498985427989,10 Grand Ave,1594,11205,Brooklyn,NY,Gym
318,Brooklyn,South Side,40.710861472650684,-73.95800095153338,Crossfit Outbreak,40.710482,-73.966665,415 Wythe Ave,732,11249,Brooklyn,NY,Gym
319,Brooklyn,South Side,40.710861472650684,-73.95800095153338,CrossFit DeBo,40.710137651424134,-73.93635749816895,306 Stagg St,1828,11206,Brooklyn,NY,Gym / Fitness Center
320,Brooklyn,South Side,40.710861472650684,-73.95800095153338,Brooklyn CrossFit : West Street,40.7281508786577,-73.95868520245914,42 West St,1925,11222,Brooklyn,NY,Gym
321,Brooklyn,South Side,40.710861472650684,-73.95800095153338,willyb crossfit,40.729464975491624,-73.95069073496587,220 Newel Street,2160,,Brooklyn,NY,Gym
322,Brooklyn,South Side,40.710861472650684,-73.95800095153338,Crossfit Outbreak,40.695908,-73.93364,1000 Broadway,2645,11221,Brooklyn,NY,Gym / Fitness Center
323,Brooklyn,South Side,40.710861472650684,-73.95800095153338,Crossfit Outbreak,40.686849845476694,-73.94175109166727,492 Throop Ave,3004,11221,New York,NY,Gym / Fitness Center
324,Brooklyn,Navy Yard,40.698790872180545,-73.97164435527614,Crossfit South Brooklyn,40.6793845048432,-73.98371438935206,597 Degraw St,2388,11217,Brooklyn,NY,Gym
325,Brooklyn,Navy Yard,40.698790872180545,-73.97164435527614,True North Training,40.71687709749549,-73.96593519191094,70 River St,2070,11211,Brooklyn,NY,Gym
326,Brooklyn,Navy Yard,40.698790872180545,-73.97164435527614,CrossFit Dumbo,40.70355587265485,-73.98779136884086,48 Pearl St,1462,11201,Brooklyn,NY,Gym
327,Brooklyn,Navy Yard,40.698790872180545,-73.97164435527614,CrossFit Prospect Heights,40.68066094103169,-73.97400039656718,623 Bergen St,2027,11238,Brooklyn,NY,Gym / Fitness Center
328,Brooklyn,Navy Yard,40.698790872180545,-73.97164435527614,CrossFit Outbreak,40.69755415417896,-73.96498985427989,10 Grand Ave,578,11205,Brooklyn,NY,Gym
329,Brooklyn,Navy Yard,40.698790872180545,-73.97164435527614,Bowery CrossFit,40.71781226812158,-73.99262371362899,285 Grand St,2760,10002,New York,NY,Gym
330,Brooklyn,Navy Yard,40.698790872180545,-73.97164435527614,LTrain CrossFit,40.71148487197682,-73.94578712977734,667 Grand St,2599,11211,Brooklyn,NY,Gym / Fitness Center
331,Brooklyn,Navy Yard,40.698790872180545,-73.97164435527614,WillyB Crossfit,40.707827833118586,-73.94877866580192,41 Meserole Street,2176,,Brooklyn,NY,Gym
332,Brooklyn,Navy Yard,40.698790872180545,-73.97164435527614,Crow Hill CrossFit,40.67768653054873,-73.95677179098129,1010 Dean St,2663,11238,Brooklyn,NY,Gym
333,Brooklyn,Navy Yard,40.698790872180545,-73.97164435527614,Crossfit Kingsboro,40.68006491229371,-73.96083801950718,1000 Atlantic Ave,2275,11238,Brooklyn,NY,Gym / Fitness Center
334,Brooklyn,Navy Yard,40.698790872180545,-73.97164435527614,Crossfit Outbreak,40.710482,-73.966665,415 Wythe Ave,1367,11249,Brooklyn,NY,Gym
335,Brooklyn,Navy Yard,40.698790872180545,-73.97164435527614,Park Slope Crossfit,40.68155605033434,-73.97951811393598,500 Bergen St,2030,11217,Brooklyn,NY,Gym / Fitness Center
336,Brooklyn,Navy Yard,40.698790872180545,-73.97164435527614,Crossfit Outbreak,40.686849845476694,-73.94175109166727,492 Throop Ave,2851,11221,New York,NY,Gym / Fitness Center
337,Brooklyn,Navy Yard,40.698790872180545,-73.97164435527614,Class One Mixed Martial Arts & CrossFit,40.68168067415296,-73.97998644894972,85 4th Ave,2030,11217,Brooklyn,NY,Martial Arts Dojo
338,Brooklyn,Ocean Parkway,40.61305976667946,-73.96836678035548,CrossFit Coney Island,40.602854643892606,-73.96901325736928,2034 McDonald Ave,1137,11223,Brooklyn,NY,Gym
339,Brooklyn,Fort Hamilton,40.6147681269423,-74.0319791453799,Bay Ridge Crossfit,40.62414280628023,-74.03082276499144,3rd Avenue,1048,11209,Bay Ridge,NY,Gym / Fitness Center
340,Brooklyn,Fort Hamilton,40.6147681269423,-74.0319791453799,bayridge crossfit,40.62422697687232,-74.03072659659897,,1058,,Brooklyn,NY,Sports Club
341,Manhattan,Chinatown,40.715618422314364,-73.99427936255985,Bowery CrossFit,40.71781226812158,-73.99262371362899,285 Grand St,281,10002,New York,NY,Gym
342,Manhattan,Chinatown,40.715618422314364,-73.99427936255985,CrossFit Union Square,40.73531390186451,-73.99186057541448,1 Union Sq,2201,10003,New York,NY,Gym / Fitness Center
343,Manhattan,Chinatown,40.715618422314364,-73.99427936255985,True North Training,40.71687709749549,-73.96593519191094,70 River St,2395,11211,Brooklyn,NY,Gym
344,Manhattan,Chinatown,40.715618422314364,-73.99427936255985,CrossFit East River,40.7254434939673,-73.97846140631547,647 E 9th St,1725,10009,New York,NY,Gym / Fitness Center
345,Manhattan,Chinatown,40.715618422314364,-73.99427936255985,Brick New York,40.74150688612044,-74.0005285681433,257 W 17th St,2929,10011,New York,NY,Gym / Fitness Center
346,Manhattan,Chinatown,40.715618422314364,-73.99427936255985,Just Train,40.70947002162219,-74.00983963357307,6 Maiden Ln,1480,10038,New York,NY,Gym
347,Manhattan,Chinatown,40.715618422314364,-73.99427936255985,Reebok FitHub,40.73542,-73.99173,1 Union Sq West,2214,10003,New York,NY,Shoe Store
348,Manhattan,Chinatown,40.715618422314364,-73.99427936255985,Dig Inn,40.737378630570696,-73.99113558901335,17 E 17th St,2436,10003,New York,NY,New American Restaurant
349,Manhattan,Washington Heights,40.85190252555309,-73.93690027985242,Crossfit Uws,40.84654529961183,-73.92514653387603,,1155,,Bronx,NY,Athletics & Sports
350,Manhattan,Inwood,40.86768396449919,-73.92121042203905,Spuyten Duyvil Crossfit,40.887847,-73.907061,3603 Fieldston Rd,2540,10463,Bronx,NY,Gym / Fitness Center
351,Manhattan,Inwood,40.86768396449919,-73.92121042203905,Crossfit Uws,40.84654529961183,-73.92514653387603,,2376,,Bronx,NY,Athletics & Sports
352,Manhattan,Hamilton Heights,40.82360428481197,-73.94968791883373,CrossFit Harlem - Afrobrutality Sports,40.817750147175666,-73.93775306423404,,1198,,New York,NY,Gym
353,Manhattan,Hamilton Heights,40.82360428481197,-73.94968791883373,Harlem CrossFit,40.81719356788495,-73.93513753753648,,1418,10037,New York,NY,Gym
354,Manhattan,Hamilton Heights,40.82360428481197,-73.94968791883373,Crossfit Concrete Jungle,40.808122,-73.930234,"7 Bruckner Blvd, bronx Ny 10454",2378,10454,New York,NY,Gym / Fitness Center
355,Manhattan,Hamilton Heights,40.82360428481197,-73.94968791883373,CrossFit Equis,40.81975279405422,-73.92175018787384,655 Morris Ave,2392,10451,Bronx,NY,Gym
356,Manhattan,Manhattanville,40.81693442949784,-73.95738539351888,CrossFit Harlem - Afrobrutality Sports,40.817750147175666,-73.93775306423404,,1656,,New York,NY,Gym
357,Manhattan,Manhattanville,40.81693442949784,-73.95738539351888,Harlem CrossFit,40.81719356788495,-73.93513753753648,,1874,10037,New York,NY,Gym
358,Manhattan,Manhattanville,40.81693442949784,-73.95738539351888,Crossfit Concrete Jungle,40.808122,-73.930234,"7 Bruckner Blvd, bronx Ny 10454",2489,10454,New York,NY,Gym / Fitness Center
359,Manhattan,Central Harlem,40.81597606742418,-73.94321112603912,CrossFit SoBro (South Bronx),40.807106109371404,-73.91147735194403,229 Bruckner Blvd,2850,10454,Bronx,NY,Gym
360,Manhattan,Central Harlem,40.81597606742418,-73.94321112603912,CrossFit Harlem - Afrobrutality Sports,40.817750147175666,-73.93775306423404,,500,,New York,NY,Gym
361,Manhattan,Central Harlem,40.81597606742418,-73.94321112603912,Harlem CrossFit,40.81719356788495,-73.93513753753648,,693,10037,New York,NY,Gym
362,Manhattan,Central Harlem,40.81597606742418,-73.94321112603912,Crossfit Concrete Jungle,40.808122,-73.930234,"7 Bruckner Blvd, bronx Ny 10454",1399,10454,New York,NY,Gym / Fitness Center
363,Manhattan,Central Harlem,40.81597606742418,-73.94321112603912,CrossFit Equis,40.81975279405422,-73.92175018787384,655 Morris Ave,1856,10451,Bronx,NY,Gym
364,Manhattan,East Harlem,40.79224946663037,-73.94418223148531,Crossfit Metropolis,40.78820597637237,-73.94869510882322,156 E 100th St,589,10029,New York,NY,Gym
365,Manhattan,East Harlem,40.79224946663037,-73.94418223148531,Crossfit Concrete Jungle,40.782758706068456,-73.94729157655303,309 E 94th St,1088,10128,New York,NY,Gym
366,Manhattan,East Harlem,40.79224946663037,-73.94418223148531,Crossfit Concrete Jungle,40.808122,-73.930234,"7 Bruckner Blvd, bronx Ny 10454",2122,10454,New York,NY,Gym / Fitness Center
367,Manhattan,East Harlem,40.79224946663037,-73.94418223148531,CrossFit Harlem - Afrobrutality Sports,40.817750147175666,-73.93775306423404,,2889,,New York,NY,Gym
368,Manhattan,East Harlem,40.79224946663037,-73.94418223148531,Harlem CrossFit,40.81719356788495,-73.93513753753648,,2879,10037,New York,NY,Gym
369,Manhattan,Upper East Side,40.77563857330185,-73.96050763135007,Equinox Columbus Circle,40.76874192651226,-73.98214593908337,10 Columbus Cir,1979,10019,New York,NY,Gym
370,Manhattan,Upper East Side,40.77563857330185,-73.96050763135007,Crossfit NYC - Upper West Side,40.77441561462417,-73.98109653863574,157 Columbus Ave,1740,10023,New York,NY,Gym
371,Manhattan,Upper East Side,40.77563857330185,-73.96050763135007,Crossfit Metropolis,40.78820597637237,-73.94869510882322,156 E 100th St,1717,10029,New York,NY,Gym
372,Manhattan,Upper East Side,40.77563857330185,-73.96050763135007,Mercedes Club,40.76759458807264,-73.99207002674365,550 W 54th St,2807,10019,New York,NY,Gym / Fitness Center
373,Manhattan,Upper East Side,40.77563857330185,-73.96050763135007,Crossfit Concrete Jungle,40.782758706068456,-73.94729157655303,309 E 94th St,1367,10128,New York,NY,Gym
374,Manhattan,Upper East Side,40.77563857330185,-73.96050763135007,CrossFit SPOT,40.77215092116481,-73.98610786931728,"55 Amsterdam Ave, New York, NY",2192,10023,New York,NY,Gym / Fitness Center
375,Manhattan,Upper East Side,40.77563857330185,-73.96050763135007,EVF Columbus Circle,40.77150979949672,-73.98973676700084,555 W 59th St,2506,10019,New York,NY,Recreation Center
376,Manhattan,Upper East Side,40.77563857330185,-73.96050763135007,UWS CrossFit,40.77898642336577,-73.98508910271165,371 Amsterdam Ave,2105,10023,New York,NY,Athletics & Sports
377,Manhattan,Yorkville,40.77592984988492,-73.94711784471833,Crossfit Concrete Jungle,40.782758706068456,-73.94729157655303,309 E 94th St,760,10128,New York,NY,Gym
378,Manhattan,Yorkville,40.77592984988492,-73.94711784471833,Crossfit Metropolis,40.78820597637237,-73.94869510882322,156 E 100th St,1373,10029,New York,NY,Gym
379,Manhattan,Yorkville,40.77592984988492,-73.94711784471833,CrossFit LIC - Noskov Fitness,40.74979439698375,-73.94735552127253,1305 44th Ave,2909,11101,Long Island City,NY,Gym
380,Manhattan,Yorkville,40.77592984988492,-73.94711784471833,CrossFit Queens,40.76940404539832,-73.91897736979166,25-50 31st St,2481,11102,Astoria,NY,Gym
381,Manhattan,Yorkville,40.77592984988492,-73.94711784471833,Crossfit NYC - Upper West Side,40.77441561462417,-73.98109653863574,157 Columbus Ave,2869,10023,New York,NY,Gym
382,Manhattan,Yorkville,40.77592984988492,-73.94711784471833,New York Sports Clubs,40.76426352155887,-73.91563699810902,38-11 30th Ave,2954,11103,Astoria,NY,Gym / Fitness Center
383,Manhattan,Yorkville,40.77592984988492,-73.94711784471833,CrossFit Bell/Bayside Barbell,40.753070194034606,-73.9293165129859,37-22 34th St,2954,11101,Long Island City,NY,Gym
384,Manhattan,Yorkville,40.77592984988492,-73.94711784471833,Loupakis Fitness Center,40.767359,-73.921045,28-42 31st St,2396,11102,Astoria,NY,Gym
385,Manhattan,Yorkville,40.77592984988492,-73.94711784471833,Crossfit Dutch Kills,40.753802,-73.932102,,2769,11101,New York,NY,Gym / Fitness Center
386,Manhattan,Lenox Hill,40.76811265828737,-73.95885968813766,CrossFit Gantry,40.74612457212019,-73.9522352960643,10-20 47th Rd,2510,11101,Queens,NY,Gym / Fitness Center
387,Manhattan,Lenox Hill,40.76811265828737,-73.95885968813766,CrossFit LIC - Noskov Fitness,40.74979439698375,-73.94735552127253,1305 44th Ave,2258,11101,Long Island City,NY,Gym
388,Manhattan,Lenox Hill,40.76811265828737,-73.95885968813766,Equinox Columbus Circle,40.76874192651226,-73.98214593908337,10 Columbus Cir,1964,10019,New York,NY,Gym
389,Manhattan,Lenox Hill,40.76811265828737,-73.95885968813766,Crossfit NYC - Upper West Side,40.77441561462417,-73.98109653863574,157 Columbus Ave,2001,10023,New York,NY,Gym
390,Manhattan,Lenox Hill,40.76811265828737,-73.95885968813766,NEO FIFTH,40.750530813681124,-73.98329206512332,"420 Fifth Ave, Sub-Cellar",2841,10018,New York,NY,Gym
391,Manhattan,Lenox Hill,40.76811265828737,-73.95885968813766,Mercedes Club,40.76759458807264,-73.99207002674365,550 W 54th St,2800,10019,New York,NY,Gym / Fitness Center
392,Manhattan,Lenox Hill,40.76811265828737,-73.95885968813766,CrossFit SPOT,40.77215092116481,-73.98610786931728,"55 Amsterdam Ave, New York, NY",2340,10023,New York,NY,Gym / Fitness Center
393,Manhattan,Lenox Hill,40.76811265828737,-73.95885968813766,Crossfit Metropolis,40.78820597637237,-73.94869510882322,156 E 100th St,2395,10029,New York,NY,Gym
394,Manhattan,Lenox Hill,40.76811265828737,-73.95885968813766,Crossfit Concrete Jungle,40.782758706068456,-73.94729157655303,309 E 94th St,1899,10128,New York,NY,Gym
395,Manhattan,Lenox Hill,40.76811265828737,-73.95885968813766,EVF Columbus Circle,40.77150979949672,-73.98973676700084,555 W 59th St,2630,10019,New York,NY,Recreation Center
396,Manhattan,Lenox Hill,40.76811265828737,-73.95885968813766,Reebok FitHub,40.75075696,-73.98324847,420 5th Ave,2821,10018,New York,NY,Shoe Store
397,Manhattan,Lenox Hill,40.76811265828737,-73.95885968813766,CrossFit Bell/Bayside Barbell,40.753070194034606,-73.9293165129859,37-22 34th St,3001,11101,Long Island City,NY,Gym
398,Manhattan,Lenox Hill,40.76811265828737,-73.95885968813766,Mid-City Gym & Tanning,40.75810868499696,-73.9917226956553,345 W 42nd St,2986,10036,New York,NY,Gym
399,Manhattan,Lenox Hill,40.76811265828737,-73.95885968813766,Crossfit Dutch Kills,40.753802,-73.932102,,2761,11101,New York,NY,Gym / Fitness Center
400,Manhattan,Lenox Hill,40.76811265828737,-73.95885968813766,UWS CrossFit,40.77898642336577,-73.98508910271165,371 Amsterdam Ave,2520,10023,New York,NY,Athletics & Sports
401,Manhattan,Lenox Hill,40.76811265828737,-73.95885968813766,Crossfit Fifth Ave,40.750642,-73.983243,420 5th Ave,2830,10018,New York,NY,Gym
402,Manhattan,Roosevelt Island,40.762403730702246,-73.9494705736962,CrossFit Gantry,40.74612457212019,-73.9522352960643,10-20 47th Rd,1827,11101,Queens,NY,Gym / Fitness Center
403,Manhattan,Roosevelt Island,40.762403730702246,-73.9494705736962,CrossFit LIC - Noskov Fitness,40.74979439698375,-73.94735552127253,1305 44th Ave,1414,11101,Long Island City,NY,Gym
404,Manhattan,Roosevelt Island,40.762403730702246,-73.9494705736962,Crossfit Greenpoint,40.73611274835637,-73.9519963753644,188 DuPont St,2934,11222,Brooklyn,NY,Gym / Fitness Center
405,Manhattan,Roosevelt Island,40.762403730702246,-73.9494705736962,Equinox Columbus Circle,40.76874192651226,-73.98214593908337,10 Columbus Cir,2843,10019,New York,NY,Gym
406,Manhattan,Roosevelt Island,40.762403730702246,-73.9494705736962,CrossFit Queens,40.76940404539832,-73.91897736979166,25-50 31st St,2686,11102,Astoria,NY,Gym
407,Manhattan,Roosevelt Island,40.762403730702246,-73.9494705736962,CrossFit Bell/Bayside Barbell,40.753070194034606,-73.9293165129859,37-22 34th St,1991,11101,Long Island City,NY,Gym
408,Manhattan,Roosevelt Island,40.762403730702246,-73.9494705736962,Crossfit NYC - Upper West Side,40.77441561462417,-73.98109653863574,157 Columbus Ave,2982,10023,New York,NY,Gym
409,Manhattan,Roosevelt Island,40.762403730702246,-73.9494705736962,Crossfit Concrete Jungle,40.782758706068456,-73.94729157655303,309 E 94th St,2273,10128,New York,NY,Gym
410,Manhattan,Roosevelt Island,40.762403730702246,-73.9494705736962,Crossfit Metropolis,40.78820597637237,-73.94869510882322,156 E 100th St,2873,10029,New York,NY,Gym
411,Manhattan,Roosevelt Island,40.762403730702246,-73.9494705736962,New York Sports Clubs,40.76426352155887,-73.91563699810902,38-11 30th Ave,2860,11103,Astoria,NY,Gym / Fitness Center
412,Manhattan,Roosevelt Island,40.762403730702246,-73.9494705736962,Crossfit Dutch Kills,40.753802,-73.932102,,1749,11101,New York,NY,Gym / Fitness Center
413,Manhattan,Roosevelt Island,40.762403730702246,-73.9494705736962,Loupakis Fitness Center,40.767359,-73.921045,28-42 31st St,2459,11102,Astoria,NY,Gym
414,Manhattan,Upper West Side,40.7876579985349,-73.9770592363061,Crossfit NYC - Upper West Side,40.77441561462417,-73.98109653863574,157 Columbus Ave,1512,10023,New York,NY,Gym
415,Manhattan,Upper West Side,40.7876579985349,-73.9770592363061,Equinox Columbus Circle,40.76874192651226,-73.98214593908337,10 Columbus Cir,2148,10019,New York,NY,Gym
416,Manhattan,Upper West Side,40.7876579985349,-73.9770592363061,Mercedes Club,40.76759458807264,-73.99207002674365,550 W 54th St,2566,10019,New York,NY,Gym / Fitness Center
417,Manhattan,Upper West Side,40.7876579985349,-73.9770592363061,CrossFit SPOT,40.77215092116481,-73.98610786931728,"55 Amsterdam Ave, New York, NY",1887,10023,New York,NY,Gym / Fitness Center
418,Manhattan,Upper West Side,40.7876579985349,-73.9770592363061,EVF Columbus Circle,40.77150979949672,-73.98973676700084,555 W 59th St,2091,10019,New York,NY,Recreation Center
419,Manhattan,Upper West Side,40.7876579985349,-73.9770592363061,Crossfit Metropolis,40.78820597637237,-73.94869510882322,156 E 100th St,2391,10029,New York,NY,Gym
420,Manhattan,Upper West Side,40.7876579985349,-73.9770592363061,Crossfit Concrete Jungle,40.782758706068456,-73.94729157655303,309 E 94th St,2567,10128,New York,NY,Gym
421,Manhattan,Upper West Side,40.7876579985349,-73.9770592363061,CrossFit Elite Core Fitness (ECF),40.791,-74.00847,6500 Dewey Ave,2673,07093,West New York,NJ,Gym / Fitness Center
422,Manhattan,Upper West Side,40.7876579985349,-73.9770592363061,UWS CrossFit,40.77898642336577,-73.98508910271165,371 Amsterdam Ave,1178,10023,New York,NY,Athletics & Sports
423,Manhattan,Upper West Side,40.7876579985349,-73.9770592363061,elite core fitness crossfit,40.79197391248096,-74.00341108507929,6900 Park Ave,2272,07093,Guttenberg,NJ,Gym
424,Manhattan,Upper West Side,40.7876579985349,-73.9770592363061,Crossfit GIANT,40.805410752831214,-73.99173627158532,115 River Rd Ste 1100,2331,07020,Edgewater,NJ,Gymnastics Gym
425,Manhattan,Lincoln Square,40.773528889421705,-73.9853377700127,Equinox Columbus Circle,40.76874192651226,-73.98214593908337,10 Columbus Cir,596,10019,New York,NY,Gym
426,Manhattan,Lincoln Square,40.773528889421705,-73.9853377700127,Mercedes Club,40.76759458807264,-73.99207002674365,550 W 54th St,870,10019,New York,NY,Gym / Fitness Center
427,Manhattan,Lincoln Square,40.773528889421705,-73.9853377700127,CrossFit SPOT,40.77215092116481,-73.98610786931728,"55 Amsterdam Ave, New York, NY",166,10023,New York,NY,Gym / Fitness Center
428,Manhattan,Lincoln Square,40.773528889421705,-73.9853377700127,Crossfit NYC - Upper West Side,40.77441561462417,-73.98109653863574,157 Columbus Ave,370,10023,New York,NY,Gym
429,Manhattan,Lincoln Square,40.773528889421705,-73.9853377700127,EVF Columbus Circle,40.77150979949672,-73.98973676700084,555 W 59th St,433,10019,New York,NY,Recreation Center
430,Manhattan,Lincoln Square,40.773528889421705,-73.9853377700127,NEO FIFTH,40.750530813681124,-73.98329206512332,"420 Fifth Ave, Sub-Cellar",2565,10018,New York,NY,Gym
431,Manhattan,Lincoln Square,40.773528889421705,-73.9853377700127,Crossfit Hell's Kitchen,40.75385542742043,-73.99338177687183,315 W 36th St,2292,10018,New York,NY,Gym
432,Manhattan,Lincoln Square,40.773528889421705,-73.9853377700127,Reebok FitHub,40.75075696,-73.98324847,420 5th Ave,2541,10018,New York,NY,Shoe Store
433,Manhattan,Lincoln Square,40.773528889421705,-73.9853377700127,Mid-City Gym & Tanning,40.75810868499696,-73.9917226956553,345 W 42nd St,1798,10036,New York,NY,Gym
434,Manhattan,Lincoln Square,40.773528889421705,-73.9853377700127,CrossFit Elite Core Fitness (ECF),40.791,-74.00847,6500 Dewey Ave,2753,07093,West New York,NJ,Gym / Fitness Center
435,Manhattan,Lincoln Square,40.773528889421705,-73.9853377700127,UWS CrossFit,40.77898642336577,-73.98508910271165,371 Amsterdam Ave,607,10023,New York,NY,Athletics & Sports
436,Manhattan,Lincoln Square,40.773528889421705,-73.9853377700127,Crossfit Fifth Ave,40.750642,-73.983243,420 5th Ave,2553,10018,New York,NY,Gym
437,Manhattan,Lincoln Square,40.773528889421705,-73.9853377700127,elite core fitness crossfit,40.79197391248096,-74.00341108507929,6900 Park Ave,2556,07093,Guttenberg,NJ,Gym
438,Manhattan,Clinton,40.758333686906404,-73.99640768221386,CrossFit NYC,40.74589871935009,-73.99009029202607,50 W 28th St,1483,10001,New York,NY,Gym / Fitness Center
439,Manhattan,Clinton,40.758333686906404,-73.99640768221386,CrossFit Solace,40.74617150115289,-73.9831643795631,38 E 32nd St,1755,10016,New York,NY,Gym / Fitness Center
440,Manhattan,Clinton,40.758333686906404,-73.99640768221386,Brick New York,40.74150688612044,-74.0005285681433,257 W 17th St,1905,10011,New York,NY,Gym / Fitness Center
441,Manhattan,Clinton,40.758333686906404,-73.99640768221386,Crossfit Hell's Kitchen,40.75385542742043,-73.99338177687183,315 W 36th St,560,10018,New York,NY,Gym
442,Manhattan,Clinton,40.758333686906404,-73.99640768221386,Mercedes Club,40.76759458807264,-73.99207002674365,550 W 54th St,1093,10019,New York,NY,Gym / Fitness Center
443,Manhattan,Clinton,40.758333686906404,-73.99640768221386,NEO FIFTH,40.750530813681124,-73.98329206512332,"420 Fifth Ave, Sub-Cellar",1406,10018,New York,NY,Gym
444,Manhattan,Clinton,40.758333686906404,-73.99640768221386,CrossFit Union Square,40.73531390186451,-73.99186057541448,1 Union Sq,2591,10003,New York,NY,Gym / Fitness Center
445,Manhattan,Clinton,40.758333686906404,-73.99640768221386,"iLoveKickboxing - Chelsea, NY",40.74634,-73.9929,149 W 27th Street,1367,10001,New York,NY,Gym
446,Manhattan,Clinton,40.758333686906404,-73.99640768221386,Equinox Columbus Circle,40.76874192651226,-73.98214593908337,10 Columbus Cir,1669,10019,New York,NY,Gym
447,Manhattan,Clinton,40.758333686906404,-73.99640768221386,Reebok FitHub,40.75075696,-73.98324847,420 5th Ave,1393,10018,New York,NY,Shoe Store
448,Manhattan,Clinton,40.758333686906404,-73.99640768221386,EVF Columbus Circle,40.77150979949672,-73.98973676700084,555 W 59th St,1570,10019,New York,NY,Recreation Center
449,Manhattan,Clinton,40.758333686906404,-73.99640768221386,Mid-City Gym & Tanning,40.75810868499696,-73.9917226956553,345 W 42nd St,395,10036,New York,NY,Gym
450,Manhattan,Clinton,40.758333686906404,-73.99640768221386,New York Sports Clubs,40.75388708737827,-74.02842933079228,210 14th St Fl 1,2745,07030,Hoboken,NJ,Gym
451,Manhattan,Clinton,40.758333686906404,-73.99640768221386,Reebok FitHub,40.73542,-73.99173,1 Union Sq West,2581,10003,New York,NY,Shoe Store
452,Manhattan,Clinton,40.758333686906404,-73.99640768221386,Dig Inn,40.737378630570696,-73.99113558901335,17 E 17th St,2374,10003,New York,NY,New American Restaurant
453,Manhattan,Midtown,40.75469110270627,-73.98166882730311,CrossFit Solace,40.74617150115289,-73.9831643795631,38 E 32nd St,956,10016,New York,NY,Gym / Fitness Center
454,Manhattan,Midtown,40.75469110270627,-73.98166882730311,CrossFit NYC,40.74589871935009,-73.99009029202607,50 W 28th St,1209,10001,New York,NY,Gym / Fitness Center
455,Manhattan,Midtown,40.75469110270627,-73.98166882730311,NEO FIFTH,40.750530813681124,-73.98329206512332,"420 Fifth Ave, Sub-Cellar",482,10018,New York,NY,Gym
456,Manhattan,Midtown,40.75469110270627,-73.98166882730311,Brick New York,40.74150688612044,-74.0005285681433,257 W 17th St,2164,10011,New York,NY,Gym / Fitness Center
457,Manhattan,Midtown,40.75469110270627,-73.98166882730311,CrossFit Union Square,40.73531390186451,-73.99186057541448,1 Union Sq,2321,10003,New York,NY,Gym / Fitness Center
458,Manhattan,Midtown,40.75469110270627,-73.98166882730311,Crossfit Hell's Kitchen,40.75385542742043,-73.99338177687183,315 W 36th St,992,10018,New York,NY,Gym
459,Manhattan,Midtown,40.75469110270627,-73.98166882730311,Reebok FitHub,40.75075696,-73.98324847,420 5th Ave,457,10018,New York,NY,Shoe Store
460,Manhattan,Midtown,40.75469110270627,-73.98166882730311,"iLoveKickboxing - Chelsea, NY",40.74634,-73.9929,149 W 27th Street,1327,10001,New York,NY,Gym
461,Manhattan,Midtown,40.75469110270627,-73.98166882730311,CrossFit Gantry,40.74612457212019,-73.9522352960643,10-20 47th Rd,2659,11101,Queens,NY,Gym / Fitness Center
462,Manhattan,Midtown,40.75469110270627,-73.98166882730311,Mercedes Club,40.76759458807264,-73.99207002674365,550 W 54th St,1682,10019,New York,NY,Gym / Fitness Center
463,Manhattan,Midtown,40.75469110270627,-73.98166882730311,Equinox Columbus Circle,40.76874192651226,-73.98214593908337,10 Columbus Cir,1564,10019,New York,NY,Gym
464,Manhattan,Midtown,40.75469110270627,-73.98166882730311,EVF Columbus Circle,40.77150979949672,-73.98973676700084,555 W 59th St,1991,10019,New York,NY,Recreation Center
465,Manhattan,Midtown,40.75469110270627,-73.98166882730311,CrossFit LIC - Noskov Fitness,40.74979439698375,-73.94735552127253,1305 44th Ave,2944,11101,Long Island City,NY,Gym
466,Manhattan,Midtown,40.75469110270627,-73.98166882730311,Mid-City Gym & Tanning,40.75810868499696,-73.9917226956553,345 W 42nd St,929,10036,New York,NY,Gym
467,Manhattan,Midtown,40.75469110270627,-73.98166882730311,Reebok FitHub,40.73542,-73.99173,1 Union Sq West,2306,10003,New York,NY,Shoe Store
468,Manhattan,Midtown,40.75469110270627,-73.98166882730311,Dig Inn,40.737378630570696,-73.99113558901335,17 E 17th St,2086,10003,New York,NY,New American Restaurant
469,Manhattan,Murray Hill,40.74830307725222,-73.97833207924134,CrossFit Solace,40.74617150115289,-73.9831643795631,38 E 32nd St,471,10016,New York,NY,Gym / Fitness Center
470,Manhattan,Murray Hill,40.74830307725222,-73.97833207924134,CrossFit NYC,40.74589871935009,-73.99009029202607,50 W 28th St,1027,10001,New York,NY,Gym / Fitness Center
471,Manhattan,Murray Hill,40.74830307725222,-73.97833207924134,NEO FIFTH,40.750530813681124,-73.98329206512332,"420 Fifth Ave, Sub-Cellar",486,10018,New York,NY,Gym
472,Manhattan,Murray Hill,40.74830307725222,-73.97833207924134,CrossFit Union Square,40.73531390186451,-73.99186057541448,1 Union Sq,1841,10003,New York,NY,Gym / Fitness Center
473,Manhattan,Murray Hill,40.74830307725222,-73.97833207924134,Brick New York,40.74150688612044,-74.0005285681433,257 W 17th St,2019,10011,New York,NY,Gym / Fitness Center
474,Manhattan,Murray Hill,40.74830307725222,-73.97833207924134,CrossFit Gantry,40.74612457212019,-73.9522352960643,10-20 47th Rd,2214,11101,Queens,NY,Gym / Fitness Center
475,Manhattan,Murray Hill,40.74830307725222,-73.97833207924134,"iLoveKickboxing - Chelsea, NY",40.74634,-73.9929,149 W 27th Street,1247,10001,New York,NY,Gym
476,Manhattan,Murray Hill,40.74830307725222,-73.97833207924134,Reebok FitHub,40.75075696,-73.98324847,420 5th Ave,496,10018,New York,NY,Shoe Store
477,Manhattan,Murray Hill,40.74830307725222,-73.97833207924134,Crossfit Hell's Kitchen,40.75385542742043,-73.99338177687183,315 W 36th St,1411,10018,New York,NY,Gym
478,Manhattan,Murray Hill,40.74830307725222,-73.97833207924134,CrossFit East River,40.7254434939673,-73.97846140631547,647 E 9th St,2544,10009,New York,NY,Gym / Fitness Center
479,Manhattan,Murray Hill,40.74830307725222,-73.97833207924134,Mercedes Club,40.76759458807264,-73.99207002674365,550 W 54th St,2440,10019,New York,NY,Gym / Fitness Center
480,Manhattan,Murray Hill,40.74830307725222,-73.97833207924134,Crossfit Greenpoint,40.73611274835637,-73.9519963753644,188 DuPont St,2602,11222,Brooklyn,NY,Gym / Fitness Center
481,Manhattan,Murray Hill,40.74830307725222,-73.97833207924134,Equinox Columbus Circle,40.76874192651226,-73.98214593908337,10 Columbus Cir,2297,10019,New York,NY,Gym
482,Manhattan,Murray Hill,40.74830307725222,-73.97833207924134,CrossFit LIC - Noskov Fitness,40.74979439698375,-73.94735552127253,1305 44th Ave,2617,11101,Long Island City,NY,Gym
483,Manhattan,Murray Hill,40.74830307725222,-73.97833207924134,EVF Columbus Circle,40.77150979949672,-73.98973676700084,555 W 59th St,2756,10019,New York,NY,Recreation Center
484,Manhattan,Murray Hill,40.74830307725222,-73.97833207924134,Mid-City Gym & Tanning,40.75810868499696,-73.9917226956553,345 W 42nd St,1570,10036,New York,NY,Gym
485,Manhattan,Murray Hill,40.74830307725222,-73.97833207924134,Reebok FitHub,40.73542,-73.99173,1 Union Sq West,1825,10003,New York,NY,Shoe Store
486,Manhattan,Murray Hill,40.74830307725222,-73.97833207924134,Dig Inn,40.737378630570696,-73.99113558901335,17 E 17th St,1626,10003,New York,NY,New American Restaurant
487,Manhattan,Chelsea,40.74403470674802,-74.0031163347282,Brick New York,40.74150688612044,-74.0005285681433,257 W 17th St,356,10011,New York,NY,Gym / Fitness Center
488,Manhattan,Chelsea,40.74403470674802,-74.0031163347282,CrossFit NYC,40.74589871935009,-73.99009029202607,50 W 28th St,1118,10001,New York,NY,Gym / Fitness Center
489,Manhattan,Chelsea,40.74403470674802,-74.0031163347282,CrossFit Solace,40.74617150115289,-73.9831643795631,38 E 32nd St,1699,10016,New York,NY,Gym / Fitness Center
490,Manhattan,Chelsea,40.74403470674802,-74.0031163347282,CrossFit Union Square,40.73531390186451,-73.99186057541448,1 Union Sq,1357,10003,New York,NY,Gym / Fitness Center
491,Manhattan,Chelsea,40.74403470674802,-74.0031163347282,"iLoveKickboxing - Chelsea, NY",40.74634,-73.9929,149 W 27th Street,899,10001,New York,NY,Gym
492,Manhattan,Chelsea,40.74403470674802,-74.0031163347282,Crossfit Hell's Kitchen,40.75385542742043,-73.99338177687183,315 W 36th St,1367,10018,New York,NY,Gym
493,Manhattan,Chelsea,40.74403470674802,-74.0031163347282,NEO FIFTH,40.750530813681124,-73.98329206512332,"420 Fifth Ave, Sub-Cellar",1821,10018,New York,NY,Gym
494,Manhattan,Chelsea,40.74403470674802,-74.0031163347282,CrossFit East River,40.7254434939673,-73.97846140631547,647 E 9th St,2933,10009,New York,NY,Gym / Fitness Center
495,Manhattan,Chelsea,40.74403470674802,-74.0031163347282,Mercedes Club,40.76759458807264,-73.99207002674365,550 W 54th St,2783,10019,New York,NY,Gym / Fitness Center
496,Manhattan,Chelsea,40.74403470674802,-74.0031163347282,Reebok FitHub,40.75075696,-73.98324847,420 5th Ave,1835,10018,New York,NY,Shoe Store
497,Manhattan,Chelsea,40.74403470674802,-74.0031163347282,New York Sports Clubs,40.75388708737827,-74.02842933079228,210 14th St Fl 1,2399,07030,Hoboken,NJ,Gym
498,Manhattan,Chelsea,40.74403470674802,-74.0031163347282,Mid-City Gym & Tanning,40.75810868499696,-73.9917226956553,345 W 42nd St,1837,10036,New York,NY,Gym
499,Manhattan,Chelsea,40.74403470674802,-74.0031163347282,Reebok FitHub,40.73542,-73.99173,1 Union Sq West,1357,10003,New York,NY,Shoe Store
500,Manhattan,Chelsea,40.74403470674802,-74.0031163347282,Dig Inn,40.737378630570696,-73.99113558901335,17 E 17th St,1253,10003,New York,NY,New American Restaurant
501,Manhattan,Greenwich Village,40.72693288536132,-73.99991402945909,CrossFit Union Square,40.73531390186451,-73.99186057541448,1 Union Sq,1154,10003,New York,NY,Gym / Fitness Center
502,Manhattan,Greenwich Village,40.72693288536132,-73.99991402945909,Brick New York,40.74150688612044,-74.0005285681433,257 W 17th St,1623,10011,New York,NY,Gym / Fitness Center
503,Manhattan,Greenwich Village,40.72693288536132,-73.99991402945909,CrossFit NYC,40.74589871935009,-73.99009029202607,50 W 28th St,2268,10001,New York,NY,Gym / Fitness Center
504,Manhattan,Greenwich Village,40.72693288536132,-73.99991402945909,CrossFit Solace,40.74617150115289,-73.9831643795631,38 E 32nd St,2565,10016,New York,NY,Gym / Fitness Center
505,Manhattan,Greenwich Village,40.72693288536132,-73.99991402945909,Bowery CrossFit,40.71781226812158,-73.99262371362899,285 Grand St,1187,10002,New York,NY,Gym
506,Manhattan,Greenwich Village,40.72693288536132,-73.99991402945909,CrossFit East River,40.7254434939673,-73.97846140631547,647 E 9th St,1817,10009,New York,NY,Gym / Fitness Center
507,Manhattan,Greenwich Village,40.72693288536132,-73.99991402945909,"iLoveKickboxing - Chelsea, NY",40.74634,-73.9929,149 W 27th Street,2239,10001,New York,NY,Gym
508,Manhattan,Greenwich Village,40.72693288536132,-73.99991402945909,NEO FIFTH,40.750530813681124,-73.98329206512332,"420 Fifth Ave, Sub-Cellar",2977,10018,New York,NY,Gym
509,Manhattan,Greenwich Village,40.72693288536132,-73.99991402945909,Just Train,40.70947002162219,-74.00983963357307,6 Maiden Ln,2116,10038,New York,NY,Gym
510,Manhattan,Greenwich Village,40.72693288536132,-73.99991402945909,Reebok FitHub,40.75075696,-73.98324847,420 5th Ave,3001,10018,New York,NY,Shoe Store
511,Manhattan,Greenwich Village,40.72693288536132,-73.99991402945909,Reebok FitHub,40.73542,-73.99173,1 Union Sq West,1170,10003,New York,NY,Shoe Store
512,Manhattan,Greenwich Village,40.72693288536132,-73.99991402945909,Dig Inn,40.737378630570696,-73.99113558901335,17 E 17th St,1378,10003,New York,NY,New American Restaurant
513,Manhattan,East Village,40.72784677727029,-73.98222616506425,CrossFit Union Square,40.73531390186451,-73.99186057541448,1 Union Sq,1162,10003,New York,NY,Gym / Fitness Center
514,Manhattan,East Village,40.72784677727029,-73.98222616506425,CrossFit East River,40.7254434939673,-73.97846140631547,647 E 9th St,415,10009,New York,NY,Gym / Fitness Center
515,Manhattan,East Village,40.72784677727029,-73.98222616506425,CrossFit Solace,40.74617150115289,-73.9831643795631,38 E 32nd St,2041,10016,New York,NY,Gym / Fitness Center
516,Manhattan,East Village,40.72784677727029,-73.98222616506425,True North Training,40.71687709749549,-73.96593519191094,70 River St,1838,11211,Brooklyn,NY,Gym
517,Manhattan,East Village,40.72784677727029,-73.98222616506425,CrossFit NYC,40.74589871935009,-73.99009029202607,50 W 28th St,2116,10001,New York,NY,Gym / Fitness Center
518,Manhattan,East Village,40.72784677727029,-73.98222616506425,Brick New York,40.74150688612044,-74.0005285681433,257 W 17th St,2166,10011,New York,NY,Gym / Fitness Center
519,Manhattan,East Village,40.72784677727029,-73.98222616506425,Bowery CrossFit,40.71781226812158,-73.99262371362899,285 Grand St,1420,10002,New York,NY,Gym
520,Manhattan,East Village,40.72784677727029,-73.98222616506425,"iLoveKickboxing - Chelsea, NY",40.74634,-73.9929,149 W 27th Street,2246,10001,New York,NY,Gym
521,Manhattan,East Village,40.72784677727029,-73.98222616506425,NEO FIFTH,40.750530813681124,-73.98329206512332,"420 Fifth Ave, Sub-Cellar",2526,10018,New York,NY,Gym
522,Manhattan,East Village,40.72784677727029,-73.98222616506425,Crossfit Greenpoint,40.73611274835637,-73.9519963753644,188 DuPont St,2710,11222,Brooklyn,NY,Gym / Fitness Center
523,Manhattan,East Village,40.72784677727029,-73.98222616506425,Reebok FitHub,40.75075696,-73.98324847,420 5th Ave,2551,10018,New York,NY,Shoe Store
524,Manhattan,East Village,40.72784677727029,-73.98222616506425,Reebok FitHub,40.73542,-73.99173,1 Union Sq West,1163,10003,New York,NY,Shoe Store
525,Manhattan,East Village,40.72784677727029,-73.98222616506425,Dig Inn,40.737378630570696,-73.99113558901335,17 E 17th St,1300,10003,New York,NY,New American Restaurant
526,Manhattan,Lower East Side,40.71780674892769,-73.98089031999298,True North Training,40.71687709749549,-73.96593519191094,70 River St,1266,11211,Brooklyn,NY,Gym
527,Manhattan,Lower East Side,40.71780674892769,-73.98089031999298,CrossFit East River,40.7254434939673,-73.97846140631547,647 E 9th St,874,10009,New York,NY,Gym / Fitness Center
528,Manhattan,Lower East Side,40.71780674892769,-73.98089031999298,CrossFit Union Square,40.73531390186451,-73.99186057541448,1 Union Sq,2157,10003,New York,NY,Gym / Fitness Center
529,Manhattan,Lower East Side,40.71780674892769,-73.98089031999298,Bowery CrossFit,40.71781226812158,-73.99262371362899,285 Grand St,989,10002,New York,NY,Gym
530,Manhattan,Lower East Side,40.71780674892769,-73.98089031999298,CrossFit Dumbo,40.70355587265485,-73.98779136884086,48 Pearl St,1689,11201,Brooklyn,NY,Gym
531,Manhattan,Lower East Side,40.71780674892769,-73.98089031999298,Crossfit 212 NoHo,40.727048902963354,-73.99511692734373,666 Broadway,1580,10012,New York,NY,Gym
532,Manhattan,Lower East Side,40.71780674892769,-73.98089031999298,CrossFit 212 TriBeCa,40.714537431170484,-74.00599852611592,281 Broadway,2149,10007,New York,NY,Gym
533,Manhattan,Lower East Side,40.71780674892769,-73.98089031999298,CrossFit Virtuosity,40.719027924652224,-73.94800787522796,98 Bayard St,2777,11222,Brooklyn,NY,Gym
534,Manhattan,Lower East Side,40.71780674892769,-73.98089031999298,Crossfit 212,40.71805284050912,-74.00475220100614,84 Franklin St,2013,10013,New York,NY,Gym / Fitness Center
535,Manhattan,Lower East Side,40.71780674892769,-73.98089031999298,WillyB Crossfit,40.707827833118586,-73.94877866580192,41 Meserole Street,2928,,Brooklyn,NY,Gym
536,Manhattan,Lower East Side,40.71780674892769,-73.98089031999298,Crossfit Wall Street,40.70554386423745,-74.01213909064103,60 New St,2969,10004,New York,NY,Gym
537,Manhattan,Lower East Side,40.71780674892769,-73.98089031999298,Just Train,40.70947002162219,-74.00983963357307,6 Maiden Ln,2613,10038,New York,NY,Gym
538,Manhattan,Lower East Side,40.71780674892769,-73.98089031999298,CrossFit Outbreak,40.69755415417896,-73.96498985427989,10 Grand Ave,2623,11205,Brooklyn,NY,Gym
539,Manhattan,Lower East Side,40.71780674892769,-73.98089031999298,Reebok FitHub,40.73542,-73.99173,1 Union Sq West,2163,10003,New York,NY,Shoe Store
540,Manhattan,Lower East Side,40.71780674892769,-73.98089031999298,Crossfit Outbreak,40.710482,-73.966665,415 Wythe Ave,1451,11249,Brooklyn,NY,Gym
541,Manhattan,Lower East Side,40.71780674892769,-73.98089031999298,Dig Inn,40.737378630570696,-73.99113558901335,17 E 17th St,2343,10003,New York,NY,New American Restaurant
542,Manhattan,Lower East Side,40.71780674892769,-73.98089031999298,Oculus Crossfit,40.70977302010993,-74.0065501436561,151 William St,2342,10038,New York,NY,Gym / Fitness Center
543,Manhattan,Lower East Side,40.71780674892769,-73.98089031999298,CrossFit Wall Street,40.70974343802443,-74.0065837982249,111 Fulton St,2346,10038,New York,NY,Gym / Fitness Center
544,Manhattan,Lower East Side,40.71780674892769,-73.98089031999298,Brooklyn CrossFit : West Street,40.7281508786577,-73.95868520245914,42 West St,2198,11222,Brooklyn,NY,Gym
545,Manhattan,Lower East Side,40.71780674892769,-73.98089031999298,Crossfit USQ,40.739058209686924,-73.99303183011946,,2577,,New York,NY,Gym
546,Manhattan,Lower East Side,40.71780674892769,-73.98089031999298,willyb crossfit,40.729464975491624,-73.95069073496587,220 Newel Street,2859,,Brooklyn,NY,Gym
547,Manhattan,Lower East Side,40.71780674892769,-73.98089031999298,Infighting Shape CrossFit,40.739764941796956,-73.99270471561262,22 W 19th St,2639,10011,New York,NY,Athletics & Sports
548,Manhattan,Tribeca,40.72152196744325,-74.01068328559094,CrossFit Union Square,40.73531390186451,-73.99186057541448,1 Union Sq,2208,10003,New York,NY,Gym / Fitness Center
549,Manhattan,Tribeca,40.72152196744325,-74.01068328559094,Brick New York,40.74150688612044,-74.0005285681433,257 W 17th St,2383,10011,New York,NY,Gym / Fitness Center
550,Manhattan,Tribeca,40.72152196744325,-74.01068328559094,Bowery CrossFit,40.71781226812158,-73.99262371362899,285 Grand St,1578,10002,New York,NY,Gym
551,Manhattan,Tribeca,40.72152196744325,-74.01068328559094,CrossFit 212 TriBeCa,40.714537431170484,-74.00599852611592,281 Broadway,872,10007,New York,NY,Gym
552,Manhattan,Tribeca,40.72152196744325,-74.01068328559094,Crossfit 212,40.71805284050912,-74.00475220100614,84 Franklin St,632,10013,New York,NY,Gym / Fitness Center
553,Manhattan,Tribeca,40.72152196744325,-74.01068328559094,CrossFit East River,40.7254434939673,-73.97846140631547,647 E 9th St,2753,10009,New York,NY,Gym / Fitness Center
554,Manhattan,Tribeca,40.72152196744325,-74.01068328559094,Crossfit 212 NoHo,40.727048902963354,-73.99511692734373,666 Broadway,1450,10012,New York,NY,Gym
555,Manhattan,Tribeca,40.72152196744325,-74.01068328559094,Crossfit Wall Street,40.70554386423745,-74.01213909064103,60 New St,1782,10004,New York,NY,Gym
556,Manhattan,Tribeca,40.72152196744325,-74.01068328559094,Just Train,40.70947002162219,-74.00983963357307,6 Maiden Ln,1343,10038,New York,NY,Gym
557,Manhattan,Tribeca,40.72152196744325,-74.01068328559094,CrossFit Dumbo,40.70355587265485,-73.98779136884086,48 Pearl St,2780,11201,Brooklyn,NY,Gym
558,Manhattan,Tribeca,40.72152196744325,-74.01068328559094,CrossFit Jersey City,40.71952448445311,-74.0438343566733,109 Christopher Columbus Dr,2805,07302,Jersey City,NJ,Gym
559,Manhattan,Tribeca,40.72152196744325,-74.01068328559094,Reebok FitHub,40.73542,-73.99173,1 Union Sq West,2224,10003,New York,NY,Shoe Store
560,Manhattan,Tribeca,40.72152196744325,-74.01068328559094,Oculus Crossfit,40.70977302010993,-74.0065501436561,151 William St,1353,10038,New York,NY,Gym / Fitness Center
561,Manhattan,Tribeca,40.72152196744325,-74.01068328559094,CrossFit Wall Street,40.70974343802443,-74.0065837982249,111 Fulton St,1356,10038,New York,NY,Gym / Fitness Center
562,Manhattan,Tribeca,40.72152196744325,-74.01068328559094,Dig Inn,40.737378630570696,-73.99113558901335,17 E 17th St,2415,10003,New York,NY,New American Restaurant
563,Manhattan,Tribeca,40.72152196744325,-74.01068328559094,CrossFit 212 FiDi,40.70370900153129,-74.01152898481944,Stone,1984,10004,New York,NY,Gym / Fitness Center
564,Manhattan,Tribeca,40.72152196744325,-74.01068328559094,150 Bay Crossfit,40.72122093221981,-74.03982170588807,,2458,07302,Jersey City,NJ,Gym / Fitness Center
565,Manhattan,Tribeca,40.72152196744325,-74.01068328559094,Crossfit USQ,40.739058209686924,-73.99303183011946,,2455,,New York,NY,Gym
566,Manhattan,Tribeca,40.72152196744325,-74.01068328559094,Hudson River Crossfit v4.0,40.737077144766324,-74.03640281712778,300 Observer Hwy,2775,07030,Hoboken,NJ,Gym / Fitness Center
567,Manhattan,Tribeca,40.72152196744325,-74.01068328559094,Infighting Shape CrossFit,40.739764941796956,-73.99270471561262,22 W 19th St,2534,10011,New York,NY,Athletics & Sports
568,Manhattan,Little Italy,40.71932379395911,-73.9973046720808,Bowery CrossFit,40.71781226812158,-73.99262371362899,285 Grand St,429,10002,New York,NY,Gym
569,Manhattan,Little Italy,40.71932379395911,-73.9973046720808,CrossFit Union Square,40.73531390186451,-73.99186057541448,1 Union Sq,1838,10003,New York,NY,Gym / Fitness Center
570,Manhattan,Little Italy,40.71932379395911,-73.9973046720808,Brick New York,40.74150688612044,-74.0005285681433,257 W 17th St,2484,10011,New York,NY,Gym / Fitness Center
571,Manhattan,Little Italy,40.71932379395911,-73.9973046720808,CrossFit East River,40.7254434939673,-73.97846140631547,647 E 9th St,1729,10009,New York,NY,Gym / Fitness Center
572,Manhattan,Little Italy,40.71932379395911,-73.9973046720808,True North Training,40.71687709749549,-73.96593519191094,70 River St,2660,11211,Brooklyn,NY,Gym
573,Manhattan,Little Italy,40.71932379395911,-73.9973046720808,Just Train,40.70947002162219,-74.00983963357307,6 Maiden Ln,1523,10038,New York,NY,Gym
574,Manhattan,Little Italy,40.71932379395911,-73.9973046720808,Reebok FitHub,40.73542,-73.99173,1 Union Sq West,1852,10003,New York,NY,Shoe Store
575,Manhattan,Little Italy,40.71932379395911,-73.9973046720808,Dig Inn,40.737378630570696,-73.99113558901335,17 E 17th St,2076,10003,New York,NY,New American Restaurant
576,Manhattan,Soho,40.72218384131798,-74.00065666959766,CrossFit Union Square,40.73531390186451,-73.99186057541448,1 Union Sq,1639,10003,New York,NY,Gym / Fitness Center
577,Manhattan,Soho,40.72218384131798,-74.00065666959766,Brick New York,40.74150688612044,-74.0005285681433,257 W 17th St,2151,10011,New York,NY,Gym / Fitness Center
578,Manhattan,Soho,40.72218384131798,-74.00065666959766,Bowery CrossFit,40.71781226812158,-73.99262371362899,285 Grand St,834,10002,New York,NY,Gym
579,Manhattan,Soho,40.72218384131798,-74.00065666959766,CrossFit NYC,40.74589871935009,-73.99009029202607,50 W 28th St,2786,10001,New York,NY,Gym / Fitness Center
580,Manhattan,Soho,40.72218384131798,-74.00065666959766,CrossFit East River,40.7254434939673,-73.97846140631547,647 E 9th St,1907,10009,New York,NY,Gym / Fitness Center
581,Manhattan,Soho,40.72218384131798,-74.00065666959766,True North Training,40.71687709749549,-73.96593519191094,70 River St,2988,11211,Brooklyn,NY,Gym
582,Manhattan,Soho,40.72218384131798,-74.00065666959766,"iLoveKickboxing - Chelsea, NY",40.74634,-73.9929,149 W 27th Street,2767,10001,New York,NY,Gym
583,Manhattan,Soho,40.72218384131798,-74.00065666959766,Just Train,40.70947002162219,-74.00983963357307,6 Maiden Ln,1613,10038,New York,NY,Gym
584,Manhattan,Soho,40.72218384131798,-74.00065666959766,Reebok FitHub,40.73542,-73.99173,1 Union Sq West,1654,10003,New York,NY,Shoe Store
585,Manhattan,Soho,40.72218384131798,-74.00065666959766,Dig Inn,40.737378630570696,-73.99113558901335,17 E 17th St,1872,10003,New York,NY,New American Restaurant
586,Manhattan,West Village,40.734433935724375,-74.00617998126819,Brick New York,40.74150688612044,-74.0005285681433,257 W 17th St,920,10011,New York,NY,Gym / Fitness Center
587,Manhattan,West Village,40.734433935724375,-74.00617998126819,CrossFit Union Square,40.73531390186451,-73.99186057541448,1 Union Sq,1211,10003,New York,NY,Gym / Fitness Center
588,Manhattan,West Village,40.734433935724375,-74.00617998126819,CrossFit NYC,40.74589871935009,-73.99009029202607,50 W 28th St,1862,10001,New York,NY,Gym / Fitness Center
589,Manhattan,West Village,40.734433935724375,-74.00617998126819,CrossFit Solace,40.74617150115289,-73.9831643795631,38 E 32nd St,2339,10016,New York,NY,Gym / Fitness Center
590,Manhattan,West Village,40.734433935724375,-74.00617998126819,"iLoveKickboxing - Chelsea, NY",40.74634,-73.9929,149 W 27th Street,1735,10001,New York,NY,Gym
591,Manhattan,West Village,40.734433935724375,-74.00617998126819,Bowery CrossFit,40.71781226812158,-73.99262371362899,285 Grand St,2175,10002,New York,NY,Gym
592,Manhattan,West Village,40.734433935724375,-74.00617998126819,CrossFit East River,40.7254434939673,-73.97846140631547,647 E 9th St,2543,10009,New York,NY,Gym / Fitness Center
593,Manhattan,West Village,40.734433935724375,-74.00617998126819,NEO FIFTH,40.750530813681124,-73.98329206512332,"420 Fifth Ave, Sub-Cellar",2633,10018,New York,NY,Gym
594,Manhattan,West Village,40.734433935724375,-74.00617998126819,Crossfit Hell's Kitchen,40.75385542742043,-73.99338177687183,315 W 36th St,2416,10018,New York,NY,Gym
595,Manhattan,West Village,40.734433935724375,-74.00617998126819,Reebok FitHub,40.75075696,-73.98324847,420 5th Ave,2653,10018,New York,NY,Shoe Store
596,Manhattan,West Village,40.734433935724375,-74.00617998126819,New York Sports Clubs,40.75388708737827,-74.02842933079228,210 14th St Fl 1,2865,07030,Hoboken,NJ,Gym
597,Manhattan,West Village,40.734433935724375,-74.00617998126819,Just Train,40.70947002162219,-74.00983963357307,6 Maiden Ln,2796,10038,New York,NY,Gym
598,Manhattan,West Village,40.734433935724375,-74.00617998126819,Mid-City Gym & Tanning,40.75810868499696,-73.9917226956553,345 W 42nd St,2903,10036,New York,NY,Gym
599,Manhattan,West Village,40.734433935724375,-74.00617998126819,Reebok FitHub,40.73542,-73.99173,1 Union Sq West,1223,10003,New York,NY,Shoe Store
600,Manhattan,West Village,40.734433935724375,-74.00617998126819,Dig Inn,40.737378630570696,-73.99113558901335,17 E 17th St,1310,10003,New York,NY,New American Restaurant
601,Manhattan,Manhattan Valley,40.7973070417029,-73.96428617740662,Crossfit Metropolis,40.78820597637237,-73.94869510882322,156 E 100th St,1659,10029,New York,NY,Gym
602,Manhattan,Manhattan Valley,40.7973070417029,-73.96428617740662,Crossfit NYC - Upper West Side,40.77441561462417,-73.98109653863574,157 Columbus Ave,2915,10023,New York,NY,Gym
603,Manhattan,Manhattan Valley,40.7973070417029,-73.96428617740662,Crossfit Concrete Jungle,40.782758706068456,-73.94729157655303,309 E 94th St,2162,10128,New York,NY,Gym
604,Manhattan,Manhattan Valley,40.7973070417029,-73.96428617740662,UWS CrossFit,40.77898642336577,-73.98508910271165,371 Amsterdam Ave,2689,10023,New York,NY,Athletics & Sports
605,Manhattan,Manhattan Valley,40.7973070417029,-73.96428617740662,Crossfit GIANT,40.805410752831214,-73.99173627158532,115 River Rd Ste 1100,2482,07020,Edgewater,NJ,Gymnastics Gym
606,Manhattan,Morningside Heights,40.80799973816586,-73.96389627905339,Crossfit Metropolis,40.78820597637237,-73.94869510882322,156 E 100th St,2548,10029,New York,NY,Gym
607,Manhattan,Morningside Heights,40.80799973816586,-73.96389627905339,CrossFit Harlem - Afrobrutality Sports,40.817750147175666,-73.93775306423404,,2455,,New York,NY,Gym
608,Manhattan,Morningside Heights,40.80799973816586,-73.96389627905339,Harlem CrossFit,40.81719356788495,-73.93513753753648,,2630,10037,New York,NY,Gym
609,Manhattan,Morningside Heights,40.80799973816586,-73.96389627905339,Crossfit Concrete Jungle,40.808122,-73.930234,"7 Bruckner Blvd, bronx Ny 10454",2836,10454,New York,NY,Gym / Fitness Center
610,Manhattan,Morningside Heights,40.80799973816586,-73.96389627905339,Crossfit GIANT,40.805410752831214,-73.99173627158532,115 River Rd Ste 1100,2363,07020,Edgewater,NJ,Gymnastics Gym
611,Manhattan,Gramercy,40.737209832715045,-73.98137594833548,CrossFit Solace,40.74617150115289,-73.9831643795631,38 E 32nd St,1008,10016,New York,NY,Gym / Fitness Center
612,Manhattan,Gramercy,40.737209832715045,-73.98137594833548,CrossFit Union Square,40.73531390186451,-73.99186057541448,1 Union Sq,909,10003,New York,NY,Gym / Fitness Center
613,Manhattan,Gramercy,40.737209832715045,-73.98137594833548,CrossFit NYC,40.74589871935009,-73.99009029202607,50 W 28th St,1214,10001,New York,NY,Gym / Fitness Center
614,Manhattan,Gramercy,40.737209832715045,-73.98137594833548,Brick New York,40.74150688612044,-74.0005285681433,257 W 17th St,1684,10011,New York,NY,Gym / Fitness Center
615,Manhattan,Gramercy,40.737209832715045,-73.98137594833548,CrossFit East River,40.7254434939673,-73.97846140631547,647 E 9th St,1332,10009,New York,NY,Gym / Fitness Center
616,Manhattan,Gramercy,40.737209832715045,-73.98137594833548,True North Training,40.71687709749549,-73.96593519191094,70 River St,2611,11211,Brooklyn,NY,Gym
617,Manhattan,Gramercy,40.737209832715045,-73.98137594833548,NEO FIFTH,40.750530813681124,-73.98329206512332,"420 Fifth Ave, Sub-Cellar",1491,10018,New York,NY,Gym
618,Manhattan,Gramercy,40.737209832715045,-73.98137594833548,"iLoveKickboxing - Chelsea, NY",40.74634,-73.9929,149 W 27th Street,1406,10001,New York,NY,Gym
619,Manhattan,Gramercy,40.737209832715045,-73.98137594833548,CrossFit Gantry,40.74612457212019,-73.9522352960643,10-20 47th Rd,2650,11101,Queens,NY,Gym / Fitness Center
620,Manhattan,Gramercy,40.737209832715045,-73.98137594833548,Crossfit Greenpoint,40.73611274835637,-73.9519963753644,188 DuPont St,2481,11222,Brooklyn,NY,Gym / Fitness Center
621,Manhattan,Gramercy,40.737209832715045,-73.98137594833548,Bowery CrossFit,40.71781226812158,-73.99262371362899,285 Grand St,2358,10002,New York,NY,Gym
622,Manhattan,Gramercy,40.737209832715045,-73.98137594833548,Crossfit Hell's Kitchen,40.75385542742043,-73.99338177687183,315 W 36th St,2111,10018,New York,NY,Gym
623,Manhattan,Gramercy,40.737209832715045,-73.98137594833548,Reebok FitHub,40.75075696,-73.98324847,420 5th Ave,1516,10018,New York,NY,Shoe Store
624,Manhattan,Gramercy,40.737209832715045,-73.98137594833548,Mid-City Gym & Tanning,40.75810868499696,-73.9917226956553,345 W 42nd St,2484,10036,New York,NY,Gym
625,Manhattan,Gramercy,40.737209832715045,-73.98137594833548,Reebok FitHub,40.73542,-73.99173,1 Union Sq West,895,10003,New York,NY,Shoe Store
626,Manhattan,Gramercy,40.737209832715045,-73.98137594833548,Dig Inn,40.737378630570696,-73.99113558901335,17 E 17th St,823,10003,New York,NY,New American Restaurant
627,Manhattan,Battery Park City,40.71193198394569,-74.01686930508625,CrossFit 212 TriBeCa,40.714537431170484,-74.00599852611592,281 Broadway,962,10007,New York,NY,Gym
628,Manhattan,Battery Park City,40.71193198394569,-74.01686930508625,Crossfit Wall Street,40.70554386423745,-74.01213909064103,60 New St,815,10004,New York,NY,Gym
629,Manhattan,Battery Park City,40.71193198394569,-74.01686930508625,Bowery CrossFit,40.71781226812158,-73.99262371362899,285 Grand St,2147,10002,New York,NY,Gym
630,Manhattan,Battery Park City,40.71193198394569,-74.01686930508625,Just Train,40.70947002162219,-74.00983963357307,6 Maiden Ln,653,10038,New York,NY,Gym
631,Manhattan,Battery Park City,40.71193198394569,-74.01686930508625,CrossFit Jersey City,40.71952448445311,-74.0438343566733,109 Christopher Columbus Dr,2427,07302,Jersey City,NJ,Gym
632,Manhattan,Battery Park City,40.71193198394569,-74.01686930508625,Crossfit 212,40.71805284050912,-74.00475220100614,84 Franklin St,1228,10013,New York,NY,Gym / Fitness Center
633,Manhattan,Battery Park City,40.71193198394569,-74.01686930508625,CrossFit Dumbo,40.70355587265485,-73.98779136884086,48 Pearl St,2624,11201,Brooklyn,NY,Gym
634,Manhattan,Battery Park City,40.71193198394569,-74.01686930508625,Crossfit 212 NoHo,40.727048902963354,-73.99511692734373,666 Broadway,2489,10012,New York,NY,Gym
635,Manhattan,Battery Park City,40.71193198394569,-74.01686930508625,CrossFit Wall Street,40.70974343802443,-74.0065837982249,111 Fulton St,901,10038,New York,NY,Gym / Fitness Center
636,Manhattan,Battery Park City,40.71193198394569,-74.01686930508625,Oculus Crossfit,40.70977302010993,-74.0065501436561,151 William St,903,10038,New York,NY,Gym / Fitness Center
637,Manhattan,Battery Park City,40.71193198394569,-74.01686930508625,CrossFit 212 FiDi,40.70370900153129,-74.01152898481944,Stone,1020,10004,New York,NY,Gym / Fitness Center
638,Manhattan,Battery Park City,40.71193198394569,-74.01686930508625,150 Bay Crossfit,40.72122093221981,-74.03982170588807,,2195,07302,Jersey City,NJ,Gym / Fitness Center
639,Manhattan,Financial District,40.70710710727052,-74.01066544521277,Crossfit Wall Street,40.70554386423745,-74.01213909064103,60 New St,213,10004,New York,NY,Gym
640,Manhattan,Financial District,40.70710710727052,-74.01066544521277,CrossFit 212 TriBeCa,40.714537431170484,-74.00599852611592,281 Broadway,916,10007,New York,NY,Gym
641,Manhattan,Financial District,40.70710710727052,-74.01066544521277,Bowery CrossFit,40.71781226812158,-73.99262371362899,285 Grand St,1933,10002,New York,NY,Gym
642,Manhattan,Financial District,40.70710710727052,-74.01066544521277,Just Train,40.70947002162219,-74.00983963357307,6 Maiden Ln,272,10038,New York,NY,Gym
643,Manhattan,Financial District,40.70710710727052,-74.01066544521277,CrossFit Dumbo,40.70355587265485,-73.98779136884086,48 Pearl St,1970,11201,Brooklyn,NY,Gym
644,Manhattan,Financial District,40.70710710727052,-74.01066544521277,Crossfit 212,40.71805284050912,-74.00475220100614,84 Franklin St,1316,10013,New York,NY,Gym / Fitness Center
645,Manhattan,Financial District,40.70710710727052,-74.01066544521277,CrossFit Red Hook,40.68119660398171,-74.00834022022252,209 Van Brunt St,2890,11231,Brooklyn,NY,Gym / Fitness Center
646,Manhattan,Financial District,40.70710710727052,-74.01066544521277,Crossfit 212 NoHo,40.727048902963354,-73.99511692734373,666 Broadway,2578,10012,New York,NY,Gym
647,Manhattan,Financial District,40.70710710727052,-74.01066544521277,CrossFit 212 FiDi,40.70370900153129,-74.01152898481944,Stone,385,10004,New York,NY,Gym / Fitness Center
648,Manhattan,Financial District,40.70710710727052,-74.01066544521277,CrossFit Wall Street,40.70974343802443,-74.0065837982249,111 Fulton St,452,10038,New York,NY,Gym / Fitness Center
649,Manhattan,Financial District,40.70710710727052,-74.01066544521277,Oculus Crossfit,40.70977302010993,-74.0065501436561,151 William St,456,10038,New York,NY,Gym / Fitness Center
650,Manhattan,Financial District,40.70710710727052,-74.01066544521277,150 Bay Crossfit,40.72122093221981,-74.03982170588807,,2919,07302,Jersey City,NJ,Gym / Fitness Center
651,Queens,Astoria,40.768508593354966,-73.91565374304241,CrossFit Queens,40.76940404539832,-73.91897736979166,25-50 31st St,297,11102,Astoria,NY,Gym
652,Queens,Astoria,40.768508593354966,-73.91565374304241,New York Sports Clubs,40.76426352155887,-73.91563699810902,38-11 30th Ave,472,11103,Astoria,NY,Gym / Fitness Center
653,Queens,Astoria,40.768508593354966,-73.91565374304241,CrossFit Dynamix,40.77793428308367,-73.90354697996085,36-05 20th Ave,1463,11105,Astoria,NY,Gym / Fitness Center
654,Queens,Astoria,40.768508593354966,-73.91565374304241,CrossFit Bell/Bayside Barbell,40.753070194034606,-73.9293165129859,37-22 34th St,2068,11101,Long Island City,NY,Gym
655,Queens,Astoria,40.768508593354966,-73.91565374304241,Loupakis Fitness Center,40.767359,-73.921045,28-42 31st St,472,11102,Astoria,NY,Gym
656,Queens,Astoria,40.768508593354966,-73.91565374304241,Efc Crossfit,40.77540849938759,-73.91088570183538,22-15 31st St,866,11105,Astoria,NY,Gym
657,Queens,Astoria,40.768508593354966,-73.91565374304241,CrossFit Sunnyside,40.74998004012634,-73.91652693887511,47-01 Barnett Ave,2063,11104,Sunnyside,NY,Gym / Fitness Center
658,Queens,Astoria,40.768508593354966,-73.91565374304241,Crossfit Dutch Kills,40.753802,-73.932102,,2145,11101,New York,NY,Gym / Fitness Center
659,Queens,Woodside,40.746349088602265,-73.90184166838291,Urban Jungle,40.736644952458036,-73.89244645431641,50-12 72nd St Fl 2,1339,11377,Woodside,NY,Gym / Fitness Center
660,Queens,Woodside,40.746349088602265,-73.90184166838291,CrossFit Queens,40.76940404539832,-73.91897736979166,25-50 31st St,2945,11102,Astoria,NY,Gym
661,Queens,Woodside,40.746349088602265,-73.90184166838291,New York Sports Clubs,40.76426352155887,-73.91563699810902,38-11 30th Ave,2308,11103,Astoria,NY,Gym / Fitness Center
662,Queens,Woodside,40.746349088602265,-73.90184166838291,CrossFit Bell/Bayside Barbell,40.753070194034606,-73.9293165129859,37-22 34th St,2434,11101,Long Island City,NY,Gym
663,Queens,Woodside,40.746349088602265,-73.90184166838291,CrossFit Sunnyside,40.74998004012634,-73.91652693887511,47-01 Barnett Ave,1302,11104,Sunnyside,NY,Gym / Fitness Center
664,Queens,Woodside,40.746349088602265,-73.90184166838291,Loupakis Fitness Center,40.767359,-73.921045,28-42 31st St,2844,11102,Astoria,NY,Gym
665,Queens,Woodside,40.746349088602265,-73.90184166838291,Crossfit Dutch Kills,40.753802,-73.932102,,2683,11101,New York,NY,Gym / Fitness Center
666,Queens,Jackson Heights,40.751981380073715,-73.88282109164372,Urban Jungle,40.736644952458036,-73.89244645431641,50-12 72nd St Fl 2,1890,11377,Woodside,NY,Gym / Fitness Center
667,Queens,Jackson Heights,40.751981380073715,-73.88282109164372,CrossFit Sunnyside,40.74998004012634,-73.91652693887511,47-01 Barnett Ave,2851,11104,Sunnyside,NY,Gym / Fitness Center
668,Queens,Elmhurst,40.744048505122066,-73.88165622288396,Urban Jungle,40.736644952458036,-73.89244645431641,50-12 72nd St Fl 2,1227,11377,Woodside,NY,Gym / Fitness Center
669,Queens,Howard Beach,40.6542252773849,-73.83813764600289,Monkey Fist Martial Arts,40.67275500125601,-73.84350153773275,135-26 Cross Bay Blvd.,2111,11417,Ozone Park,NY,Gym / Fitness Center
670,Queens,South Corona,40.7423817501567,-73.85682497345266,Crossfit Breed,40.719609926582024,-73.84300043768515,63-49 60th Pl,2790,11385,Ridgewood,NY,Gym / Fitness Center
671,Queens,Forest Hills,40.725263782165065,-73.8444750078899,Crossfit Breed,40.719609926582024,-73.84300043768515,63-49 60th Pl,641,11385,Ridgewood,NY,Gym / Fitness Center
672,Queens,Forest Hills,40.725263782165065,-73.8444750078899,CrossFit Glendale,40.70992427095417,-73.86641222449022,70-17 83rd St,2518,11385,Glendale,NY,Gym
673,Queens,Kew Gardens,40.705179035414844,-73.8298190582571,Crossfit Breed,40.719609926582024,-73.84300043768515,63-49 60th Pl,1953,11385,Ridgewood,NY,Gym / Fitness Center
674,Queens,Richmond Hill,40.69794731471767,-73.83183321446894,Monkey Fist Martial Arts,40.67275500125601,-73.84350153773275,135-26 Cross Bay Blvd.,2972,11417,Ozone Park,NY,Gym / Fitness Center
675,Queens,Richmond Hill,40.69794731471767,-73.83183321446894,Crossfit Breed,40.719609926582024,-73.84300043768515,63-49 60th Pl,2589,11385,Ridgewood,NY,Gym / Fitness Center
676,Queens,Downtown Flushing,40.76116362081876,-73.82936758711861,Crossfit Mma of Whitestone,40.78683263373473,-73.83710200617963,13-15 131st Street,2930,,Whitestone,NY,Athletics & Sports
677,Queens,Long Island City,40.75021734610532,-73.93920223915512,CrossFit Gantry,40.74612457212019,-73.9522352960643,10-20 47th Rd,1189,11101,Queens,NY,Gym / Fitness Center
678,Queens,Long Island City,40.75021734610532,-73.93920223915512,CrossFit LIC - Noskov Fitness,40.74979439698375,-73.94735552127253,1305 44th Ave,689,11101,Long Island City,NY,Gym
679,Queens,Long Island City,40.75021734610532,-73.93920223915512,Crossfit Greenpoint,40.73611274835637,-73.9519963753644,188 DuPont St,1905,11222,Brooklyn,NY,Gym / Fitness Center
680,Queens,Long Island City,40.75021734610532,-73.93920223915512,CrossFit Bell/Bayside Barbell,40.753070194034606,-73.9293165129859,37-22 34th St,892,11101,Long Island City,NY,Gym
681,Queens,Long Island City,40.75021734610532,-73.93920223915512,CrossFit Queens,40.76940404539832,-73.91897736979166,25-50 31st St,2733,11102,Astoria,NY,Gym
682,Queens,Long Island City,40.75021734610532,-73.93920223915512,New York Sports Clubs,40.76426352155887,-73.91563699810902,38-11 30th Ave,2528,11103,Astoria,NY,Gym / Fitness Center
683,Queens,Long Island City,40.75021734610532,-73.93920223915512,Crossfit Dutch Kills,40.753802,-73.932102,,719,11101,New York,NY,Gym / Fitness Center
684,Queens,Long Island City,40.75021734610532,-73.93920223915512,Loupakis Fitness Center,40.767359,-73.921045,28-42 31st St,2446,11102,Astoria,NY,Gym
685,Queens,Long Island City,40.75021734610532,-73.93920223915512,CrossFit Sunnyside,40.74998004012634,-73.91652693887511,47-01 Barnett Ave,1912,11104,Sunnyside,NY,Gym / Fitness Center
686,Queens,Long Island City,40.75021734610532,-73.93920223915512,willyb crossfit,40.729464975491624,-73.95069073496587,220 Newel Street,2505,,Brooklyn,NY,Gym
687,Queens,Long Island City,40.75021734610532,-73.93920223915512,Brooklyn CrossFit : West Street,40.7281508786577,-73.95868520245914,42 West St,2955,11222,Brooklyn,NY,Gym
688,Queens,Sunnyside,40.74017628351928,-73.92691617561584,CrossFit Gantry,40.74612457212019,-73.9522352960643,10-20 47th Rd,2235,11101,Queens,NY,Gym / Fitness Center
689,Queens,Sunnyside,40.74017628351928,-73.92691617561584,CrossFit LIC - Noskov Fitness,40.74979439698375,-73.94735552127253,1305 44th Ave,2029,11101,Long Island City,NY,Gym
690,Queens,Sunnyside,40.74017628351928,-73.92691617561584,Crossfit Greenpoint,40.73611274835637,-73.9519963753644,188 DuPont St,2163,11222,Brooklyn,NY,Gym / Fitness Center
691,Queens,Sunnyside,40.74017628351928,-73.92691617561584,Urban Jungle,40.736644952458036,-73.89244645431641,50-12 72nd St Fl 2,2933,11377,Woodside,NY,Gym / Fitness Center
692,Queens,Sunnyside,40.74017628351928,-73.92691617561584,CrossFit Bell/Bayside Barbell,40.753070194034606,-73.9293165129859,37-22 34th St,1449,11101,Long Island City,NY,Gym
693,Queens,Sunnyside,40.74017628351928,-73.92691617561584,CrossFit Virtuosity,40.719027924652224,-73.94800787522796,98 Bayard St,2950,11222,Brooklyn,NY,Gym
694,Queens,Sunnyside,40.74017628351928,-73.92691617561584,Crossfit Outbreak,40.71821365256554,-73.94289220547613,208 Frost St,2791,11211,Brooklyn,NY,Gym / Fitness Center
695,Queens,Sunnyside,40.74017628351928,-73.92691617561584,New York Sports Clubs,40.76426352155887,-73.91563699810902,38-11 30th Ave,2845,11103,Astoria,NY,Gym / Fitness Center
696,Queens,Sunnyside,40.74017628351928,-73.92691617561584,CrossFit Sunnyside,40.74998004012634,-73.91652693887511,47-01 Barnett Ave,1399,11104,Sunnyside,NY,Gym / Fitness Center
697,Queens,Sunnyside,40.74017628351928,-73.92691617561584,Crossfit Dutch Kills,40.753802,-73.932102,,1578,11101,New York,NY,Gym / Fitness Center
698,Queens,Sunnyside,40.74017628351928,-73.92691617561584,willyb crossfit,40.729464975491624,-73.95069073496587,220 Newel Street,2333,,Brooklyn,NY,Gym
699,Queens,Sunnyside,40.74017628351928,-73.92691617561584,Brooklyn CrossFit : West Street,40.7281508786577,-73.95868520245914,42 West St,2995,11222,Brooklyn,NY,Gym
700,Queens,Maspeth,40.72542737409365,-73.89621713626867,Urban Jungle,40.736644952458036,-73.89244645431641,50-12 72nd St Fl 2,1288,11377,Woodside,NY,Gym / Fitness Center
701,Queens,Maspeth,40.72542737409365,-73.89621713626867,CrossFit Ridgewood,40.71171,-73.89977,63-49 60th Pl,1556,11385,Ridgewood,NY,Gym / Fitness Center
702,Queens,Ridgewood,40.70832315613862,-73.90143517559596,Crossfit BQE,40.687133932943645,-73.90619787369249,698 Central Ave,2392,11207,Brooklyn,NY,Athletics & Sports
703,Queens,Ridgewood,40.70832315613862,-73.90143517559596,Bushwick CrossFit,40.703433968199775,-73.93095418810844,10 Wilson Ave,2549,11237,Brooklyn,NY,Gym / Fitness Center
704,Queens,Ridgewood,40.70832315613862,-73.90143517559596,CrossFit Ridgewood,40.71171,-73.89977,63-49 60th Pl,402,11385,Ridgewood,NY,Gym / Fitness Center
705,Queens,Ridgewood,40.70832315613862,-73.90143517559596,Crossfit Bridge and Tunnel,40.69545059200372,-73.90079651038307,,1433,11385,Queens,NY,Gym
706,Queens,Ridgewood,40.70832315613862,-73.90143517559596,CrossFit DeBo,40.710137651424134,-73.93635749816895,306 Stagg St,2953,11206,Brooklyn,NY,Gym / Fitness Center
707,Queens,Ridgewood,40.70832315613862,-73.90143517559596,CrossFit Glendale,40.70992427095417,-73.86641222449022,70-17 83rd St,2960,11385,Glendale,NY,Gym
708,Queens,Glendale,40.702762429678415,-73.87074167435614,CrossFit Glendale,40.70992427095417,-73.86641222449022,70-17 83rd St,876,11385,Glendale,NY,Gym
709,Queens,Glendale,40.702762429678415,-73.87074167435614,CrossFit Ridgewood,40.71171,-73.89977,63-49 60th Pl,2644,11385,Ridgewood,NY,Gym / Fitness Center
710,Queens,Glendale,40.702762429678415,-73.87074167435614,Crossfit Bridge and Tunnel,40.69545059200372,-73.90079651038307,,2663,11385,Queens,NY,Gym
711,Queens,Glendale,40.702762429678415,-73.87074167435614,Crossfit Breed,40.719609926582024,-73.84300043768515,63-49 60th Pl,2999,11385,Ridgewood,NY,Gym / Fitness Center
712,Queens,Rego Park,40.72897409480739,-73.85782686905377,CrossFit Glendale,40.70992427095417,-73.86641222449022,70-17 83rd St,2240,11385,Glendale,NY,Gym
713,Queens,Rego Park,40.72897409480739,-73.85782686905377,Crossfit Breed,40.719609926582024,-73.84300043768515,63-49 60th Pl,1628,11385,Ridgewood,NY,Gym / Fitness Center
714,Queens,Woodhaven,40.689886879157925,-73.85811046554328,Monkey Fist Martial Arts,40.67275500125601,-73.84350153773275,135-26 Cross Bay Blvd.,2271,11417,Ozone Park,NY,Gym / Fitness Center
715,Queens,Woodhaven,40.689886879157925,-73.85811046554328,CrossFit Glendale,40.70992427095417,-73.86641222449022,70-17 83rd St,2337,11385,Glendale,NY,Gym
716,Queens,Ozone Park,40.68070846826546,-73.84320266173454,Monkey Fist Martial Arts,40.67275500125601,-73.84350153773275,135-26 Cross Bay Blvd.,885,11417,Ozone Park,NY,Gym / Fitness Center
717,Queens,South Ozone Park,40.66854957767199,-73.80986478649048,Monkey Fist Martial Arts,40.67275500125601,-73.84350153773275,135-26 Cross Bay Blvd.,2878,11417,Ozone Park,NY,Gym / Fitness Center
718,Queens,College Point,40.78490274926025,-73.84304528896132,Crossfit Mma of Whitestone,40.78683263373473,-73.83710200617963,13-15 131st Street,545,,Whitestone,NY,Athletics & Sports
719,Queens,Whitestone,40.781290766026984,-73.8142021661087,Crossfit Mma of Whitestone,40.78683263373473,-73.83710200617963,13-15 131st Street,2026,,Whitestone,NY,Athletics & Sports
720,Queens,Bayside,40.76604063281068,-73.77427363068676,CrossFit Bayside,40.76179449017823,-73.76046454597872,220-40 Northern Blvd,1256,11361,Bayside,NY,Gym
721,Queens,Bayside,40.76604063281068,-73.77427363068676,CrossFit 192,40.759054011543185,-73.78964241352489,42-04 192nd St,1511,11358,Flushing,NY,Athletics & Sports
722,Queens,Auburndale,40.761729549032665,-73.79176243728068,CrossFit Bayside,40.76179449017823,-73.76046454597872,220-40 Northern Blvd,2638,11361,Bayside,NY,Gym
723,Queens,Auburndale,40.761729549032665,-73.79176243728068,CrossFit 192,40.759054011543185,-73.78964241352489,42-04 192nd St,347,11358,Flushing,NY,Athletics & Sports
724,Queens,Auburndale,40.761729549032665,-73.79176243728068,CrossFit Flushing,40.739137276519024,-73.7966506480444,59-47 Fresh Meadow Ln,2548,11365,Flushing,NY,Athletics & Sports
725,Queens,Little Neck,40.77082619282674,-73.73889775580747,CrossFit Bayside,40.76179449017823,-73.76046454597872,220-40 Northern Blvd,2077,11361,Bayside,NY,Gym
726,Queens,Little Neck,40.77082619282674,-73.73889775580747,Crossfit Great Neck,40.775741801805815,-73.73000784492471,164 Northern Blvd,927,11021,Great Neck,NY,Gym / Fitness Center
727,Queens,Douglaston,40.766846097907674,-73.74249820727337,CrossFit Bayside,40.76179449017823,-73.76046454597872,220-40 Northern Blvd,1615,11361,Bayside,NY,Gym
728,Queens,Douglaston,40.766846097907674,-73.74249820727337,Crossfit Great Neck,40.775741801805815,-73.73000784492471,164 Northern Blvd,1445,11021,Great Neck,NY,Gym / Fitness Center
729,Queens,Glen Oaks,40.74944079974336,-73.71548118999152,Crossfit bayside,40.72864047078291,-73.7260904148116,220-40 Northern Blvd,2482,11361,Bayside,NY,Gym
730,Queens,Bellerose,40.72857318176679,-73.7201281482691,Crossfit bayside,40.72864047078291,-73.7260904148116,220-40 Northern Blvd,503,11361,Bayside,NY,Gym
731,Queens,Kew Gardens Hills,40.72257824422808,-73.82087764933573,Crossfit Breed,40.719609926582024,-73.84300043768515,63-49 60th Pl,1895,11385,Ridgewood,NY,Gym / Fitness Center
732,Queens,Kew Gardens Hills,40.72257824422808,-73.82087764933573,CrossFit Flushing,40.739137276519024,-73.7966506480444,59-47 Fresh Meadow Ln,2752,11365,Flushing,NY,Athletics & Sports
733,Queens,Fresh Meadows,40.734394465331334,-73.78271337003271,CrossFit Flushing,40.739137276519024,-73.7966506480444,59-47 Fresh Meadow Ln,1288,11365,Flushing,NY,Athletics & Sports
734,Queens,Fresh Meadows,40.734394465331334,-73.78271337003271,CrossFit 192,40.759054011543185,-73.78964241352489,42-04 192nd St,2806,11358,Flushing,NY,Athletics & Sports
735,Queens,Briarwood,40.710935472522756,-73.81174822458641,Crossfit Breed,40.719609926582024,-73.84300043768515,63-49 60th Pl,2808,11385,Ridgewood,NY,Gym / Fitness Center
736,Queens,Oakland Gardens,40.74561857141858,-73.75494976234339,CrossFit Bayside,40.76179449017823,-73.76046454597872,220-40 Northern Blvd,1859,11361,Bayside,NY,Gym
737,Queens,Queens Village,40.7188930921674,-73.73871484578433,Crossfit bayside,40.72864047078291,-73.7260904148116,220-40 Northern Blvd,1520,11361,Bayside,NY,Gym
738,Queens,Steinway,40.77592301564293,-73.90228960391681,CrossFit Dynamix,40.77793428308367,-73.90354697996085,36-05 20th Ave,247,11105,Astoria,NY,Gym / Fitness Center
739,Queens,Steinway,40.77592301564293,-73.90228960391681,CrossFit Queens,40.76940404539832,-73.91897736979166,25-50 31st St,1582,11102,Astoria,NY,Gym
740,Queens,Steinway,40.77592301564293,-73.90228960391681,New York Sports Clubs,40.76426352155887,-73.91563699810902,38-11 30th Ave,1717,11103,Astoria,NY,Gym / Fitness Center
741,Queens,Steinway,40.77592301564293,-73.90228960391681,Efc Crossfit,40.77540849938759,-73.91088570183538,22-15 31st St,726,11105,Astoria,NY,Gym
742,Queens,Steinway,40.77592301564293,-73.90228960391681,Loupakis Fitness Center,40.767359,-73.921045,28-42 31st St,1846,11102,Astoria,NY,Gym
743,Queens,Beechhurst,40.792781403600515,-73.80436451720996,Crossfit Mma of Whitestone,40.78683263373473,-73.83710200617963,13-15 131st Street,2837,,Whitestone,NY,Athletics & Sports
744,Queens,Bay Terrace,40.7828428062456,-73.77680222621588,CrossFit Bayside,40.76179449017823,-73.76046454597872,220-40 Northern Blvd,2717,11361,Bayside,NY,Gym
745,Queens,Bay Terrace,40.7828428062456,-73.77680222621588,CrossFit 192,40.759054011543185,-73.78964241352489,42-04 192nd St,2860,11358,Flushing,NY,Athletics & Sports
746,Queens,Murray Hill,40.7641261226141,-73.81276269135873,CrossFit 192,40.759054011543185,-73.78964241352489,42-04 192nd St,2029,11358,Flushing,NY,Athletics & Sports
747,Queens,Floral Park,40.74137842194548,-73.70884705889253,Crossfit bayside,40.72864047078291,-73.7260904148116,220-40 Northern Blvd,2031,11361,Bayside,NY,Gym
748,Queens,Jamaica Estates,40.716804830146174,-73.78722696936667,CrossFit Flushing,40.739137276519024,-73.7966506480444,59-47 Fresh Meadow Ln,2610,11365,Flushing,NY,Athletics & Sports
749,Queens,Queensboro Hill,40.744572309286745,-73.82580915110566,CrossFit Flushing,40.739137276519024,-73.7966506480444,59-47 Fresh Meadow Ln,2532,11365,Flushing,NY,Athletics & Sports
750,Queens,Hillcrest,40.72382490182924,-73.79760300912679,CrossFit Flushing,40.739137276519024,-73.7966506480444,59-47 Fresh Meadow Ln,1706,11365,Flushing,NY,Athletics & Sports
751,Queens,Ravenswood,40.76170452605419,-73.93157506072886,CrossFit Gantry,40.74612457212019,-73.9522352960643,10-20 47th Rd,2458,11101,Queens,NY,Gym / Fitness Center
752,Queens,Ravenswood,40.76170452605419,-73.93157506072886,CrossFit LIC - Noskov Fitness,40.74979439698375,-73.94735552127253,1305 44th Ave,1878,11101,Long Island City,NY,Gym
753,Queens,Ravenswood,40.76170452605419,-73.93157506072886,CrossFit Queens,40.76940404539832,-73.91897736979166,25-50 31st St,1364,11102,Astoria,NY,Gym
754,Queens,Ravenswood,40.76170452605419,-73.93157506072886,CrossFit Bell/Bayside Barbell,40.753070194034606,-73.9293165129859,37-22 34th St,979,11101,Long Island City,NY,Gym
755,Queens,Ravenswood,40.76170452605419,-73.93157506072886,New York Sports Clubs,40.76426352155887,-73.91563699810902,38-11 30th Ave,1373,11103,Astoria,NY,Gym / Fitness Center
756,Queens,Ravenswood,40.76170452605419,-73.93157506072886,CrossFit Dynamix,40.77793428308367,-73.90354697996085,36-05 20th Ave,2974,11105,Astoria,NY,Gym / Fitness Center
757,Queens,Ravenswood,40.76170452605419,-73.93157506072886,Crossfit Concrete Jungle,40.782758706068456,-73.94729157655303,309 E 94th St,2692,10128,New York,NY,Gym
758,Queens,Ravenswood,40.76170452605419,-73.93157506072886,Loupakis Fitness Center,40.767359,-73.921045,28-42 31st St,1088,11102,Astoria,NY,Gym
759,Queens,Ravenswood,40.76170452605419,-73.93157506072886,Crossfit Dutch Kills,40.753802,-73.932102,,880,11101,New York,NY,Gym / Fitness Center
760,Queens,Ravenswood,40.76170452605419,-73.93157506072886,CrossFit Sunnyside,40.74998004012634,-73.91652693887511,47-01 Barnett Ave,1820,11104,Sunnyside,NY,Gym / Fitness Center
761,Queens,Ravenswood,40.76170452605419,-73.93157506072886,Efc Crossfit,40.77540849938759,-73.91088570183538,22-15 31st St,2317,11105,Astoria,NY,Gym
762,Queens,Lindenwood,40.66391841925143,-73.84963782402448,Monkey Fist Martial Arts,40.67275500125601,-73.84350153773275,135-26 Cross Bay Blvd.,1111,11417,Ozone Park,NY,Gym / Fitness Center
763,Queens,Lefrak City,40.73607457083084,-73.86252471413746,Urban Jungle,40.736644952458036,-73.89244645431641,50-12 72nd St Fl 2,2524,11377,Woodside,NY,Gym / Fitness Center
764,Queens,Lefrak City,40.73607457083084,-73.86252471413746,CrossFit Glendale,40.70992427095417,-73.86641222449022,70-17 83rd St,2929,11385,Glendale,NY,Gym
765,Queens,Lefrak City,40.73607457083084,-73.86252471413746,Crossfit Breed,40.719609926582024,-73.84300043768515,63-49 60th Pl,2464,11385,Ridgewood,NY,Gym / Fitness Center
766,Queens,Bellaire,40.73301404027838,-73.73889198912488,Crossfit bayside,40.72864047078291,-73.7260904148116,220-40 Northern Blvd,1184,11361,Bayside,NY,Gym
767,Queens,Forest Hills Gardens,40.71461108151174,-73.84102211234017,Crossfit Breed,40.719609926582024,-73.84300043768515,63-49 60th Pl,580,11385,Ridgewood,NY,Gym / Fitness Center
768,Queens,Forest Hills Gardens,40.71461108151174,-73.84102211234017,CrossFit Glendale,40.70992427095417,-73.86641222449022,70-17 83rd St,2205,11385,Glendale,NY,Gym
769,Staten Island,St. George,40.64498157100444,-74.07935312512804,Verrazano Crossfit,40.63014771942491,-74.07651377339889,480 Bay St,1668,10304,Staten Island,NY,Athletics & Sports
770,Staten Island,New Brighton,40.64061455913515,-74.08701650516633,Verrazano Crossfit,40.63014771942491,-74.07651377339889,480 Bay St,1464,10304,Staten Island,NY,Athletics & Sports
771,Staten Island,Stapleton,40.6269276253818,-74.07790192660073,Verrazano Crossfit,40.63014771942491,-74.07651377339889,480 Bay St,377,10304,Staten Island,NY,Athletics & Sports
772,Staten Island,Rosebank,40.61530494652765,-74.06980526716148,Verrazano Crossfit,40.63014771942491,-74.07651377339889,480 Bay St,1746,10304,Staten Island,NY,Athletics & Sports
773,Staten Island,West Brighton,40.63187892654611,-74.10718178265617,Verrazano Crossfit,40.63014771942491,-74.07651377339889,480 Bay St,2598,10304,Staten Island,NY,Athletics & Sports
774,Staten Island,Grymes Hill,40.62418479131304,-74.08724819983736,Verrazano Crossfit,40.63014771942491,-74.07651377339889,480 Bay St,1123,10304,Staten Island,NY,Athletics & Sports
775,Staten Island,Todt Hill,40.59706851814676,-74.11132881800887,Unbeaten Crossfit,40.575709,-74.105202,2271 Hylan Boulevard,2433,10306,New York,NY,Gym
776,Staten Island,Todt Hill,40.59706851814676,-74.11132881800887,Third Rail CrossFit,40.57347606762298,-74.11803448230869,81 New Dorp Plz N,2686,10306,Staten Island,NY,Athletics & Sports
777,Staten Island,South Beach,40.5802474135096,-74.07955292539827,Unbeaten Crossfit,40.575709,-74.105202,2271 Hylan Boulevard,2226,10306,New York,NY,Gym
778,Staten Island,New Springville,40.59425237916174,-74.16496031329834,Staten Island Crossfit,40.59708162854936,-74.1826428966589,3801 Victory Blvd,1527,10314,Staten Island,NY,Gym
779,Staten Island,Travis,40.58631375103285,-74.19073717538123,Staten Island Crossfit,40.59708162854936,-74.1826428966589,3801 Victory Blvd,1380,10314,Staten Island,NY,Gym
780,Staten Island,New Dorp,40.57257231820636,-74.11647943606387,Third Rail CrossFit,40.57347606762298,-74.11803448230869,81 New Dorp Plz N,165,10306,Staten Island,NY,Athletics & Sports
781,Staten Island,New Dorp,40.57257231820636,-74.11647943606387,Unbeaten Crossfit,40.575709,-74.105202,2271 Hylan Boulevard,1015,10306,New York,NY,Gym
782,Staten Island,Oakwood,40.558462243288844,-74.12156593771904,Third Rail CrossFit,40.57347606762298,-74.11803448230869,81 New Dorp Plz N,1697,10306,Staten Island,NY,Athletics & Sports
783,Staten Island,Oakwood,40.558462243288844,-74.12156593771904,Unbeaten Crossfit,40.575709,-74.105202,2271 Hylan Boulevard,2366,10306,New York,NY,Gym
784,Staten Island,Tompkinsville,40.63731606711036,-74.08055351790122,Verrazano Crossfit,40.63014771942491,-74.07651377339889,480 Bay St,867,10304,Staten Island,NY,Athletics & Sports
785,Staten Island,Silver Lake,40.619193107926804,-74.09629029235465,Verrazano Crossfit,40.63014771942491,-74.07651377339889,480 Bay St,2068,10304,Staten Island,NY,Athletics & Sports
786,Staten Island,Sunnyside,40.612760157564935,-74.09712552178537,Verrazano Crossfit,40.63014771942491,-74.07651377339889,480 Bay St,2603,10304,Staten Island,NY,Athletics & Sports
787,Brooklyn,Wingate,40.660946561881154,-73.93718680559321,Crow Hill CrossFit,40.67768653054873,-73.95677179098129,1010 Dean St,2491,11238,Brooklyn,NY,Gym
788,Brooklyn,Wingate,40.660946561881154,-73.93718680559321,Crossfit Kingsboro,40.68006491229371,-73.96083801950718,1000 Atlantic Ave,2918,11238,Brooklyn,NY,Gym / Fitness Center
789,Brooklyn,Wingate,40.660946561881154,-73.93718680559321,Crowhill Crossfit,40.650587473474175,-73.9129353301848,800,2350,,Brooklyn,NY,Athletics & Sports
790,Brooklyn,Wingate,40.660946561881154,-73.93718680559321,Crossfit Outbreak,40.686849845476694,-73.94175109166727,492 Throop Ave,2909,11221,New York,NY,Gym / Fitness Center
791,Brooklyn,Rugby,40.65557231328081,-73.92688212616963,Crowhill Crossfit,40.650587473474175,-73.9129353301848,800,1302,,Brooklyn,NY,Athletics & Sports
792,Brooklyn,Rugby,40.65557231328081,-73.92688212616963,Crossfit Fit Cross II,40.641800472432834,-73.91133785247803,8701 Farragut Rd,2018,11236,Brooklyn,NY,Gym
793,Staten Island,Park Hill,40.60919044434562,-74.08015734936303,Verrazano Crossfit,40.63014771942491,-74.07651377339889,480 Bay St,2353,10304,Staten Island,NY,Athletics & Sports
794,Staten Island,Old Town,40.596328913795176,-74.08751118005587,Unbeaten Crossfit,40.575709,-74.105202,2271 Hylan Boulevard,2739,10306,New York,NY,Gym
795,Staten Island,Dongan Hills,40.58867294819932,-74.09639905312528,Unbeaten Crossfit,40.575709,-74.105202,2271 Hylan Boulevard,1623,10306,New York,NY,Gym
796,Staten Island,Dongan Hills,40.58867294819932,-74.09639905312528,Third Rail CrossFit,40.57347606762298,-74.11803448230869,81 New Dorp Plz N,2491,10306,Staten Island,NY,Athletics & Sports
797,Staten Island,Midland Beach,40.573526905742874,-74.09348266303599,Unbeaten Crossfit,40.575709,-74.105202,2271 Hylan Boulevard,1020,10306,New York,NY,Gym
798,Staten Island,Midland Beach,40.573526905742874,-74.09348266303599,Third Rail CrossFit,40.57347606762298,-74.11803448230869,81 New Dorp Plz N,2075,10306,Staten Island,NY,Athletics & Sports
799,Staten Island,Grant City,40.57621558711792,-74.10585598545441,Unbeaten Crossfit,40.575709,-74.105202,2271 Hylan Boulevard,78,10306,New York,NY,Gym
800,Staten Island,Grant City,40.57621558711792,-74.10585598545441,Third Rail CrossFit,40.57347606762298,-74.11803448230869,81 New Dorp Plz N,1073,10306,Staten Island,NY,Athletics & Sports
801,Staten Island,New Dorp Beach,40.56425549307338,-74.10432707469131,Unbeaten Crossfit,40.575709,-74.105202,2271 Hylan Boulevard,1277,10306,New York,NY,Gym
802,Staten Island,New Dorp Beach,40.56425549307338,-74.10432707469131,Third Rail CrossFit,40.57347606762298,-74.11803448230869,81 New Dorp Plz N,1548,10306,Staten Island,NY,Athletics & Sports
803,Staten Island,Bay Terrace,40.55398800858466,-74.13916622175775,Third Rail CrossFit,40.57347606762298,-74.11803448230869,81 New Dorp Plz N,2810,10306,Staten Island,NY,Athletics & Sports
804,Staten Island,Rossville,40.549404006500765,-74.21572851113959,BlackHearts CrossFit,40.56933209673012,-74.23277710980052,,2645,07064,Port Reading,NJ,Gym
805,Staten Island,Heartland Village,40.589138948752854,-74.15902208156608,Staten Island Crossfit,40.59708162854936,-74.1826428966589,3801 Victory Blvd,2183,10314,Staten Island,NY,Gym
806,Staten Island,Chelsea,40.59472602746298,-74.18956045519697,Staten Island Crossfit,40.59708162854936,-74.1826428966589,3801 Victory Blvd,640,10314,Staten Island,NY,Gym
807,Staten Island,Bloomfield,40.60577868452362,-74.18725638381574,Staten Island Crossfit,40.59708162854936,-74.1826428966589,3801 Victory Blvd,1043,10314,Staten Island,NY,Gym
808,Staten Island,Bulls Head,40.60959180042034,-74.15940948657129,Staten Island Crossfit,40.59708162854936,-74.1826428966589,3801 Victory Blvd,2407,10314,Staten Island,NY,Gym
809,Manhattan,Carnegie Hill,40.78268256712574,-73.95325646837121,Crossfit Metropolis,40.78820597637237,-73.94869510882322,156 E 100th St,725,10029,New York,NY,Gym
810,Manhattan,Carnegie Hill,40.78268256712574,-73.95325646837121,Crossfit Concrete Jungle,40.782758706068456,-73.94729157655303,309 E 94th St,502,10128,New York,NY,Gym
811,Manhattan,Carnegie Hill,40.78268256712574,-73.95325646837121,Equinox Columbus Circle,40.76874192651226,-73.98214593908337,10 Columbus Cir,2887,10019,New York,NY,Gym
812,Manhattan,Carnegie Hill,40.78268256712574,-73.95325646837121,Crossfit NYC - Upper West Side,40.77441561462417,-73.98109653863574,157 Columbus Ave,2520,10023,New York,NY,Gym
813,Manhattan,Carnegie Hill,40.78268256712574,-73.95325646837121,UWS CrossFit,40.77898642336577,-73.98508910271165,371 Amsterdam Ave,2714,10023,New York,NY,Athletics & Sports
814,Manhattan,Noho,40.72325901885772,-73.98843368023604,CrossFit Union Square,40.73531390186451,-73.99186057541448,1 Union Sq,1372,10003,New York,NY,Gym / Fitness Center
815,Manhattan,Noho,40.72325901885772,-73.98843368023604,CrossFit East River,40.7254434939673,-73.97846140631547,647 E 9th St,875,10009,New York,NY,Gym / Fitness Center
816,Manhattan,Noho,40.72325901885772,-73.98843368023604,Bowery CrossFit,40.71781226812158,-73.99262371362899,285 Grand St,701,10002,New York,NY,Gym
817,Manhattan,Noho,40.72325901885772,-73.98843368023604,True North Training,40.71687709749549,-73.96593519191094,70 River St,2026,11211,Brooklyn,NY,Gym
818,Manhattan,Noho,40.72325901885772,-73.98843368023604,Brick New York,40.74150688612044,-74.0005285681433,257 W 17th St,2273,10011,New York,NY,Gym / Fitness Center
819,Manhattan,Noho,40.72325901885772,-73.98843368023604,CrossFit Solace,40.74617150115289,-73.9831643795631,38 E 32nd St,2589,10016,New York,NY,Gym / Fitness Center
820,Manhattan,Noho,40.72325901885772,-73.98843368023604,CrossFit NYC,40.74589871935009,-73.99009029202607,50 W 28th St,2524,10001,New York,NY,Gym / Fitness Center
821,Manhattan,Noho,40.72325901885772,-73.98843368023604,"iLoveKickboxing - Chelsea, NY",40.74634,-73.9929,149 W 27th Street,2596,10001,New York,NY,Gym
822,Manhattan,Noho,40.72325901885772,-73.98843368023604,Just Train,40.70947002162219,-74.00983963357307,6 Maiden Ln,2370,10038,New York,NY,Gym
823,Manhattan,Noho,40.72325901885772,-73.98843368023604,Reebok FitHub,40.73542,-73.99173,1 Union Sq West,1382,10003,New York,NY,Shoe Store
824,Manhattan,Noho,40.72325901885772,-73.98843368023604,Dig Inn,40.737378630570696,-73.99113558901335,17 E 17th St,1588,10003,New York,NY,New American Restaurant
825,Manhattan,Civic Center,40.715228920462856,-74.00541529873362,CrossFit 212 TriBeCa,40.714537431170484,-74.00599852611592,281 Broadway,91,10007,New York,NY,Gym
826,Manhattan,Civic Center,40.715228920462856,-74.00541529873362,Bowery CrossFit,40.71781226812158,-73.99262371362899,285 Grand St,1116,10002,New York,NY,Gym
827,Manhattan,Civic Center,40.715228920462856,-74.00541529873362,CrossFit Union Square,40.73531390186451,-73.99186057541448,1 Union Sq,2511,10003,New York,NY,Gym / Fitness Center
828,Manhattan,Civic Center,40.715228920462856,-74.00541529873362,Brick New York,40.74150688612044,-74.0005285681433,257 W 17th St,2954,10011,New York,NY,Gym / Fitness Center
829,Manhattan,Civic Center,40.715228920462856,-74.00541529873362,Crossfit 212,40.71805284050912,-74.00475220100614,84 Franklin St,319,10013,New York,NY,Gym / Fitness Center
830,Manhattan,Civic Center,40.715228920462856,-74.00541529873362,Crossfit Wall Street,40.70554386423745,-74.01213909064103,60 New St,1218,10004,New York,NY,Gym
831,Manhattan,Civic Center,40.715228920462856,-74.00541529873362,CrossFit East River,40.7254434939673,-73.97846140631547,647 E 9th St,2542,10009,New York,NY,Gym / Fitness Center
832,Manhattan,Civic Center,40.715228920462856,-74.00541529873362,CrossFit Dumbo,40.70355587265485,-73.98779136884086,48 Pearl St,1974,11201,Brooklyn,NY,Gym
833,Manhattan,Civic Center,40.715228920462856,-74.00541529873362,Just Train,40.70947002162219,-74.00983963357307,6 Maiden Ln,741,10038,New York,NY,Gym
834,Manhattan,Civic Center,40.715228920462856,-74.00541529873362,Crossfit 212 NoHo,40.727048902963354,-73.99511692734373,666 Broadway,1576,10012,New York,NY,Gym
835,Manhattan,Civic Center,40.715228920462856,-74.00541529873362,Reebok FitHub,40.73542,-73.99173,1 Union Sq West,2526,10003,New York,NY,Shoe Store
836,Manhattan,Civic Center,40.715228920462856,-74.00541529873362,Oculus Crossfit,40.70977302010993,-74.0065501436561,151 William St,614,10038,New York,NY,Gym / Fitness Center
837,Manhattan,Civic Center,40.715228920462856,-74.00541529873362,CrossFit Wall Street,40.70974343802443,-74.0065837982249,111 Fulton St,618,10038,New York,NY,Gym / Fitness Center
838,Manhattan,Civic Center,40.715228920462856,-74.00541529873362,CrossFit 212 FiDi,40.70370900153129,-74.01152898481944,Stone,1382,10004,New York,NY,Gym / Fitness Center
839,Manhattan,Civic Center,40.715228920462856,-74.00541529873362,Dig Inn,40.737378630570696,-73.99113558901335,17 E 17th St,2744,10003,New York,NY,New American Restaurant
840,Manhattan,Civic Center,40.715228920462856,-74.00541529873362,150 Bay Crossfit,40.72122093221981,-74.03982170588807,,2978,07302,Jersey City,NJ,Gym / Fitness Center
841,Manhattan,Civic Center,40.715228920462856,-74.00541529873362,Crossfit USQ,40.739058209686924,-73.99303183011946,,2850,,New York,NY,Gym
842,Manhattan,Civic Center,40.715228920462856,-74.00541529873362,Infighting Shape CrossFit,40.739764941796956,-73.99270471561262,22 W 19th St,2934,10011,New York,NY,Athletics & Sports
843,Manhattan,Midtown South,40.748509664312245,-73.98871313285254,CrossFit NYC,40.74589871935009,-73.99009029202607,50 W 28th St,312,10001,New York,NY,Gym / Fitness Center
844,Manhattan,Midtown South,40.748509664312245,-73.98871313285254,CrossFit Solace,40.74617150115289,-73.9831643795631,38 E 32nd St,535,10016,New York,NY,Gym / Fitness Center
845,Manhattan,Midtown South,40.748509664312245,-73.98871313285254,Brick New York,40.74150688612044,-74.0005285681433,257 W 17th St,1265,10011,New York,NY,Gym / Fitness Center
846,Manhattan,Midtown South,40.748509664312245,-73.98871313285254,CrossFit Union Square,40.73531390186451,-73.99186057541448,1 Union Sq,1492,10003,New York,NY,Gym / Fitness Center
847,Manhattan,Midtown South,40.748509664312245,-73.98871313285254,NEO FIFTH,40.750530813681124,-73.98329206512332,"420 Fifth Ave, Sub-Cellar",509,10018,New York,NY,Gym
848,Manhattan,Midtown South,40.748509664312245,-73.98871313285254,"iLoveKickboxing - Chelsea, NY",40.74634,-73.9929,149 W 27th Street,427,10001,New York,NY,Gym
849,Manhattan,Midtown South,40.748509664312245,-73.98871313285254,Crossfit Hell's Kitchen,40.75385542742043,-73.99338177687183,315 W 36th St,713,10018,New York,NY,Gym
850,Manhattan,Midtown South,40.748509664312245,-73.98871313285254,Reebok FitHub,40.75075696,-73.98324847,420 5th Ave,524,10018,New York,NY,Shoe Store
851,Manhattan,Midtown South,40.748509664312245,-73.98871313285254,Mercedes Club,40.76759458807264,-73.99207002674365,550 W 54th St,2143,10019,New York,NY,Gym / Fitness Center
852,Manhattan,Midtown South,40.748509664312245,-73.98871313285254,CrossFit East River,40.7254434939673,-73.97846140631547,647 E 9th St,2709,10009,New York,NY,Gym / Fitness Center
853,Manhattan,Midtown South,40.748509664312245,-73.98871313285254,Equinox Columbus Circle,40.76874192651226,-73.98214593908337,10 Columbus Cir,2319,10019,New York,NY,Gym
854,Manhattan,Midtown South,40.748509664312245,-73.98871313285254,Mid-City Gym & Tanning,40.75810868499696,-73.9917226956553,345 W 42nd St,1098,10036,New York,NY,Gym
855,Manhattan,Midtown South,40.748509664312245,-73.98871313285254,EVF Columbus Circle,40.77150979949672,-73.98973676700084,555 W 59th St,2561,10019,New York,NY,Recreation Center
856,Manhattan,Midtown South,40.748509664312245,-73.98871313285254,Reebok FitHub,40.73542,-73.99173,1 Union Sq West,1479,10003,New York,NY,Shoe Store
857,Manhattan,Midtown South,40.748509664312245,-73.98871313285254,Dig Inn,40.737378630570696,-73.99113558901335,17 E 17th St,1255,10003,New York,NY,New American Restaurant
858,Staten Island,Richmond Town,40.56960594275509,-74.13405729862578,Third Rail CrossFit,40.57347606762298,-74.11803448230869,81 New Dorp Plz N,1421,10306,Staten Island,NY,Athletics & Sports
859,Staten Island,Richmond Town,40.56960594275509,-74.13405729862578,Unbeaten Crossfit,40.575709,-74.105202,2271 Hylan Boulevard,2532,10306,New York,NY,Gym
860,Staten Island,Shore Acres,40.609719340792886,-74.06667766061778,Verrazano Crossfit,40.63014771942491,-74.07651377339889,480 Bay St,2421,10304,Staten Island,NY,Athletics & Sports
861,Staten Island,Clifton,40.61917845202847,-74.07264244548406,Verrazano Crossfit,40.63014771942491,-74.07651377339889,480 Bay St,1264,10304,Staten Island,NY,Athletics & Sports
862,Staten Island,Concord,40.604473189687944,-74.08402364740365,Verrazano Crossfit,40.63014771942491,-74.07651377339889,480 Bay St,2927,10304,Staten Island,NY,Athletics & Sports
863,Staten Island,Randall Manor,40.63563000681155,-74.09805062373894,Verrazano Crossfit,40.63014771942491,-74.07651377339889,480 Bay St,1919,10304,Staten Island,NY,Athletics & Sports
864,Brooklyn,Remsen Village,40.65211745179353,-73.91665331978055,Crowhill Crossfit,40.650587473474175,-73.9129353301848,800,357,,Brooklyn,NY,Athletics & Sports
865,Brooklyn,Remsen Village,40.65211745179353,-73.91665331978055,Crossfit Fit Cross II,40.641800472432834,-73.91133785247803,8701 Farragut Rd,1233,11236,Brooklyn,NY,Gym
866,Brooklyn,New Lots,40.66274427969663,-73.885117763793,Crowhill Crossfit,40.650587473474175,-73.9129353301848,800,2711,,Brooklyn,NY,Athletics & Sports
867,Brooklyn,Paerdegat Basin,40.63131755039671,-73.90233474295843,Crossfit Fit Cross II,40.641800472432834,-73.91133785247803,8701 Farragut Rd,1392,11236,Brooklyn,NY,Gym
868,Brooklyn,Paerdegat Basin,40.63131755039671,-73.90233474295843,Crowhill Crossfit,40.650587473474175,-73.9129353301848,800,2324,,Brooklyn,NY,Athletics & Sports
869,Brooklyn,Mill Basin,40.615974239623405,-73.9151539155041,Crossfit Marine Park,40.606168128959396,-73.93010083727226,2119 E 34th St,1669,11234,Brooklyn,NY,Gym
870,Brooklyn,Mill Basin,40.615974239623405,-73.9151539155041,Crossfit Fit Cross II,40.641800472432834,-73.91133785247803,8701 Farragut Rd,2892,11236,Brooklyn,NY,Gym
871,Queens,Utopia,40.7335002542976,-73.79671678028357,CrossFit Flushing,40.739137276519024,-73.7966506480444,59-47 Fresh Meadow Ln,627,11365,Flushing,NY,Athletics & Sports
872,Queens,Utopia,40.7335002542976,-73.79671678028357,CrossFit 192,40.759054011543185,-73.78964241352489,42-04 192nd St,2906,11358,Flushing,NY,Athletics & Sports
873,Queens,Pomonok,40.73493618075482,-73.80486120040544,CrossFit Flushing,40.739137276519024,-73.7966506480444,59-47 Fresh Meadow Ln,835,11365,Flushing,NY,Athletics & Sports
874,Queens,Pomonok,40.73493618075482,-73.80486120040544,CrossFit 192,40.759054011543185,-73.78964241352489,42-04 192nd St,2975,11358,Flushing,NY,Athletics & Sports
875,Queens,Astoria Heights,40.770317392998244,-73.89467996270581,CrossFit Dynamix,40.77793428308367,-73.90354697996085,36-05 20th Ave,1130,11105,Astoria,NY,Gym / Fitness Center
876,Queens,Astoria Heights,40.770317392998244,-73.89467996270581,CrossFit Queens,40.76940404539832,-73.91897736979166,25-50 31st St,2050,11102,Astoria,NY,Gym
877,Queens,Astoria Heights,40.770317392998244,-73.89467996270581,New York Sports Clubs,40.76426352155887,-73.91563699810902,38-11 30th Ave,1891,11103,Astoria,NY,Gym / Fitness Center
878,Queens,Astoria Heights,40.770317392998244,-73.89467996270581,Loupakis Fitness Center,40.767359,-73.921045,28-42 31st St,2247,11102,Astoria,NY,Gym
879,Queens,Astoria Heights,40.770317392998244,-73.89467996270581,Efc Crossfit,40.77540849938759,-73.91088570183538,22-15 31st St,1479,11105,Astoria,NY,Gym
880,Queens,Astoria Heights,40.770317392998244,-73.89467996270581,CrossFit Sunnyside,40.74998004012634,-73.91652693887511,47-01 Barnett Ave,2918,11104,Sunnyside,NY,Gym / Fitness Center
881,Bronx,Claremont Village,40.83142834161551,-73.90119903387674,CrossFit SoBro (South Bronx),40.807106109371404,-73.91147735194403,229 Bruckner Blvd,2842,10454,Bronx,NY,Gym
882,Bronx,Claremont Village,40.83142834161551,-73.90119903387674,CrossFit Equis,40.81975279405422,-73.92175018787384,655 Morris Ave,2164,10451,Bronx,NY,Gym
883,Bronx,Claremont Village,40.83142834161551,-73.90119903387674,Crossfit Uws,40.84654529961183,-73.92514653387603,,2626,,Bronx,NY,Athletics & Sports
884,Bronx,Concourse Village,40.82478049084294,-73.91584652759016,CrossFit SoBro (South Bronx),40.807106109371404,-73.91147735194403,229 Bruckner Blvd,2001,10454,Bronx,NY,Gym
885,Bronx,Concourse Village,40.82478049084294,-73.91584652759016,CrossFit Equis,40.81975279405422,-73.92175018787384,655 Morris Ave,748,10451,Bronx,NY,Gym
886,Bronx,Concourse Village,40.82478049084294,-73.91584652759016,CrossFit Harlem - Afrobrutality Sports,40.817750147175666,-73.93775306423404,,2004,,New York,NY,Gym
887,Bronx,Concourse Village,40.82478049084294,-73.91584652759016,Harlem CrossFit,40.81719356788495,-73.93513753753648,,1831,10037,New York,NY,Gym
888,Bronx,Concourse Village,40.82478049084294,-73.91584652759016,Crossfit Concrete Jungle,40.808122,-73.930234,"7 Bruckner Blvd, bronx Ny 10454",2215,10454,New York,NY,Gym / Fitness Center
889,Bronx,Concourse Village,40.82478049084294,-73.91584652759016,Crossfit Uws,40.84654529961183,-73.92514653387603,,2546,,Bronx,NY,Athletics & Sports
890,Bronx,Mount Eden,40.843826176716576,-73.91655551964426,Crossfit Uws,40.84654529961183,-73.92514653387603,,784,,Bronx,NY,Athletics & Sports
891,Bronx,Mount Eden,40.843826176716576,-73.91655551964426,CrossFit Equis,40.81975279405422,-73.92175018787384,655 Morris Ave,2715,10451,Bronx,NY,Gym
892,Bronx,Mount Hope,40.84884160724669,-73.90829930881995,Crossfit Uws,40.84654529961183,-73.92514653387603,,1441,,Bronx,NY,Athletics & Sports
893,Manhattan,Sutton Place,40.76028033131378,-73.9635561409431,CrossFit Solace,40.74617150115289,-73.9831643795631,38 E 32nd St,2280,10016,New York,NY,Gym / Fitness Center
894,Manhattan,Sutton Place,40.76028033131378,-73.9635561409431,CrossFit Gantry,40.74612457212019,-73.9522352960643,10-20 47th Rd,1842,11101,Queens,NY,Gym / Fitness Center
895,Manhattan,Sutton Place,40.76028033131378,-73.9635561409431,CrossFit NYC,40.74589871935009,-73.99009029202607,50 W 28th St,2751,10001,New York,NY,Gym / Fitness Center
896,Manhattan,Sutton Place,40.76028033131378,-73.9635561409431,CrossFit LIC - Noskov Fitness,40.74979439698375,-73.94735552127253,1305 44th Ave,1796,11101,Long Island City,NY,Gym
897,Manhattan,Sutton Place,40.76028033131378,-73.9635561409431,NEO FIFTH,40.750530813681124,-73.98329206512332,"420 Fifth Ave, Sub-Cellar",1986,10018,New York,NY,Gym
898,Manhattan,Sutton Place,40.76028033131378,-73.9635561409431,Equinox Columbus Circle,40.76874192651226,-73.98214593908337,10 Columbus Cir,1828,10019,New York,NY,Gym
899,Manhattan,Sutton Place,40.76028033131378,-73.9635561409431,Mercedes Club,40.76759458807264,-73.99207002674365,550 W 54th St,2538,10019,New York,NY,Gym / Fitness Center
900,Manhattan,Sutton Place,40.76028033131378,-73.9635561409431,Crossfit Greenpoint,40.73611274835637,-73.9519963753644,188 DuPont St,2861,11222,Brooklyn,NY,Gym / Fitness Center
901,Manhattan,Sutton Place,40.76028033131378,-73.9635561409431,Reebok FitHub,40.75075696,-73.98324847,420 5th Ave,1970,10018,New York,NY,Shoe Store
902,Manhattan,Sutton Place,40.76028033131378,-73.9635561409431,Crossfit Hell's Kitchen,40.75385542742043,-73.99338177687183,315 W 36th St,2614,10018,New York,NY,Gym
903,Manhattan,Sutton Place,40.76028033131378,-73.9635561409431,"iLoveKickboxing - Chelsea, NY",40.74634,-73.9929,149 W 27th Street,2920,10001,New York,NY,Gym
904,Manhattan,Sutton Place,40.76028033131378,-73.9635561409431,EVF Columbus Circle,40.77150979949672,-73.98973676700084,555 W 59th St,2536,10019,New York,NY,Recreation Center
905,Manhattan,Sutton Place,40.76028033131378,-73.9635561409431,Crossfit Concrete Jungle,40.782758706068456,-73.94729157655303,309 E 94th St,2853,10128,New York,NY,Gym
906,Manhattan,Sutton Place,40.76028033131378,-73.9635561409431,Mid-City Gym & Tanning,40.75810868499696,-73.9917226956553,345 W 42nd St,2387,10036,New York,NY,Gym
907,Queens,Hunters Point,40.74341409007358,-73.95386782130753,CrossFit Gantry,40.74612457212019,-73.9522352960643,10-20 47th Rd,331,11101,Queens,NY,Gym / Fitness Center
908,Queens,Hunters Point,40.74341409007358,-73.95386782130753,Crossfit Greenpoint,40.73611274835637,-73.9519963753644,188 DuPont St,827,11222,Brooklyn,NY,Gym / Fitness Center
909,Queens,Hunters Point,40.74341409007358,-73.95386782130753,CrossFit LIC - Noskov Fitness,40.74979439698375,-73.94735552127253,1305 44th Ave,897,11101,Long Island City,NY,Gym
910,Queens,Hunters Point,40.74341409007358,-73.95386782130753,CrossFit Solace,40.74617150115289,-73.9831643795631,38 E 32nd St,2489,10016,New York,NY,Gym / Fitness Center
911,Queens,Hunters Point,40.74341409007358,-73.95386782130753,NEO FIFTH,40.750530813681124,-73.98329206512332,"420 Fifth Ave, Sub-Cellar",2604,10018,New York,NY,Gym
912,Queens,Hunters Point,40.74341409007358,-73.95386782130753,CrossFit East River,40.7254434939673,-73.97846140631547,647 E 9th St,2881,10009,New York,NY,Gym / Fitness Center
913,Queens,Hunters Point,40.74341409007358,-73.95386782130753,Reebok FitHub,40.75075696,-73.98324847,420 5th Ave,2609,10018,New York,NY,Shoe Store
914,Manhattan,Turtle Bay,40.75204236950726,-73.96770824581843,CrossFit Solace,40.74617150115289,-73.9831643795631,38 E 32nd St,1458,10016,New York,NY,Gym / Fitness Center
915,Manhattan,Turtle Bay,40.75204236950726,-73.96770824581843,CrossFit Gantry,40.74612457212019,-73.9522352960643,10-20 47th Rd,1461,11101,Queens,NY,Gym / Fitness Center
916,Manhattan,Turtle Bay,40.75204236950726,-73.96770824581843,CrossFit NYC,40.74589871935009,-73.99009029202607,50 W 28th St,2007,10001,New York,NY,Gym / Fitness Center
917,Manhattan,Turtle Bay,40.75204236950726,-73.96770824581843,NEO FIFTH,40.750530813681124,-73.98329206512332,"420 Fifth Ave, Sub-Cellar",1324,10018,New York,NY,Gym
918,Manhattan,Turtle Bay,40.75204236950726,-73.96770824581843,CrossFit Union Square,40.73531390186451,-73.99186057541448,1 Union Sq,2759,10003,New York,NY,Gym / Fitness Center
919,Manhattan,Turtle Bay,40.75204236950726,-73.96770824581843,CrossFit LIC - Noskov Fitness,40.74979439698375,-73.94735552127253,1305 44th Ave,1734,11101,Long Island City,NY,Gym
920,Manhattan,Turtle Bay,40.75204236950726,-73.96770824581843,Crossfit Greenpoint,40.73611274835637,-73.9519963753644,188 DuPont St,2213,11222,Brooklyn,NY,Gym / Fitness Center
921,Manhattan,Turtle Bay,40.75204236950726,-73.96770824581843,Reebok FitHub,40.75075696,-73.98324847,420 5th Ave,1318,10018,New York,NY,Shoe Store
922,Manhattan,Turtle Bay,40.75204236950726,-73.96770824581843,"iLoveKickboxing - Chelsea, NY",40.74634,-73.9929,149 W 27th Street,2217,10001,New York,NY,Gym
923,Manhattan,Turtle Bay,40.75204236950726,-73.96770824581843,Equinox Columbus Circle,40.76874192651226,-73.98214593908337,10 Columbus Cir,2222,10019,New York,NY,Gym
924,Manhattan,Turtle Bay,40.75204236950726,-73.96770824581843,Crossfit Hell's Kitchen,40.75385542742043,-73.99338177687183,315 W 36th St,2174,10018,New York,NY,Gym
925,Manhattan,Turtle Bay,40.75204236950726,-73.96770824581843,Mercedes Club,40.76759458807264,-73.99207002674365,550 W 54th St,2686,10019,New York,NY,Gym / Fitness Center
926,Manhattan,Turtle Bay,40.75204236950726,-73.96770824581843,EVF Columbus Circle,40.77150979949672,-73.98973676700084,555 W 59th St,2854,10019,New York,NY,Recreation Center
927,Manhattan,Turtle Bay,40.75204236950726,-73.96770824581843,Mid-City Gym & Tanning,40.75810868499696,-73.9917226956553,345 W 42nd St,2134,10036,New York,NY,Gym
928,Manhattan,Turtle Bay,40.75204236950726,-73.96770824581843,Reebok FitHub,40.73542,-73.99173,1 Union Sq West,2743,10003,New York,NY,Shoe Store
929,Manhattan,Turtle Bay,40.75204236950726,-73.96770824581843,Dig Inn,40.737378630570696,-73.99113558901335,17 E 17th St,2562,10003,New York,NY,New American Restaurant
930,Manhattan,Tudor City,40.74691741074023,-73.97121928722272,CrossFit Solace,40.74617150115289,-73.9831643795631,38 E 32nd St,1010,10016,New York,NY,Gym / Fitness Center
931,Manhattan,Tudor City,40.74691741074023,-73.97121928722272,CrossFit NYC,40.74589871935009,-73.99009029202607,50 W 28th St,1595,10001,New York,NY,Gym / Fitness Center
932,Manhattan,Tudor City,40.74691741074023,-73.97121928722272,CrossFit Gantry,40.74612457212019,-73.9522352960643,10-20 47th Rd,1603,11101,Queens,NY,Gym / Fitness Center
933,Manhattan,Tudor City,40.74691741074023,-73.97121928722272,NEO FIFTH,40.750530813681124,-73.98329206512332,"420 Fifth Ave, Sub-Cellar",1094,10018,New York,NY,Gym
934,Manhattan,Tudor City,40.74691741074023,-73.97121928722272,CrossFit Union Square,40.73531390186451,-73.99186057541448,1 Union Sq,2167,10003,New York,NY,Gym / Fitness Center
935,Manhattan,Tudor City,40.74691741074023,-73.97121928722272,Brick New York,40.74150688612044,-74.0005285681433,257 W 17th St,2544,10011,New York,NY,Gym / Fitness Center
936,Manhattan,Tudor City,40.74691741074023,-73.97121928722272,Crossfit Greenpoint,40.73611274835637,-73.9519963753644,188 DuPont St,2018,11222,Brooklyn,NY,Gym / Fitness Center
937,Manhattan,Tudor City,40.74691741074023,-73.97121928722272,CrossFit LIC - Noskov Fitness,40.74979439698375,-73.94735552127253,1305 44th Ave,2037,11101,Long Island City,NY,Gym
938,Manhattan,Tudor City,40.74691741074023,-73.97121928722272,"iLoveKickboxing - Chelsea, NY",40.74634,-73.9929,149 W 27th Street,1829,10001,New York,NY,Gym
939,Manhattan,Tudor City,40.74691741074023,-73.97121928722272,Reebok FitHub,40.75075696,-73.98324847,420 5th Ave,1100,10018,New York,NY,Shoe Store
940,Manhattan,Tudor City,40.74691741074023,-73.97121928722272,CrossFit East River,40.7254434939673,-73.97846140631547,647 E 9th St,2467,10009,New York,NY,Gym / Fitness Center
941,Manhattan,Tudor City,40.74691741074023,-73.97121928722272,Crossfit Hell's Kitchen,40.75385542742043,-73.99338177687183,315 W 36th St,2022,10018,New York,NY,Gym
942,Manhattan,Tudor City,40.74691741074023,-73.97121928722272,Equinox Columbus Circle,40.76874192651226,-73.98214593908337,10 Columbus Cir,2598,10019,New York,NY,Gym
943,Manhattan,Tudor City,40.74691741074023,-73.97121928722272,Mercedes Club,40.76759458807264,-73.99207002674365,550 W 54th St,2896,10019,New York,NY,Gym / Fitness Center
944,Manhattan,Tudor City,40.74691741074023,-73.97121928722272,Mid-City Gym & Tanning,40.75810868499696,-73.9917226956553,345 W 42nd St,2131,10036,New York,NY,Gym
945,Manhattan,Tudor City,40.74691741074023,-73.97121928722272,Reebok FitHub,40.73542,-73.99173,1 Union Sq West,2151,10003,New York,NY,Shoe Store
946,Manhattan,Tudor City,40.74691741074023,-73.97121928722272,Dig Inn,40.737378630570696,-73.99113558901335,17 E 17th St,1987,10003,New York,NY,New American Restaurant
947,Manhattan,Stuyvesant Town,40.73099955477065,-73.9740517046921,CrossFit Solace,40.74617150115289,-73.9831643795631,38 E 32nd St,1855,10016,New York,NY,Gym / Fitness Center
948,Manhattan,Stuyvesant Town,40.73099955477065,-73.9740517046921,CrossFit East River,40.7254434939673,-73.97846140631547,647 E 9th St,721,10009,New York,NY,Gym / Fitness Center
949,Manhattan,Stuyvesant Town,40.73099955477065,-73.9740517046921,CrossFit Union Square,40.73531390186451,-73.99186057541448,1 Union Sq,1577,10003,New York,NY,Gym / Fitness Center
950,Manhattan,Stuyvesant Town,40.73099955477065,-73.9740517046921,True North Training,40.71687709749549,-73.96593519191094,70 River St,1714,11211,Brooklyn,NY,Gym
951,Manhattan,Stuyvesant Town,40.73099955477065,-73.9740517046921,CrossFit NYC,40.74589871935009,-73.99009029202607,50 W 28th St,2140,10001,New York,NY,Gym / Fitness Center
952,Manhattan,Stuyvesant Town,40.73099955477065,-73.9740517046921,Brick New York,40.74150688612044,-74.0005285681433,257 W 17th St,2521,10011,New York,NY,Gym / Fitness Center
953,Manhattan,Stuyvesant Town,40.73099955477065,-73.9740517046921,CrossFit Gantry,40.74612457212019,-73.9522352960643,10-20 47th Rd,2494,11101,Queens,NY,Gym / Fitness Center
954,Manhattan,Stuyvesant Town,40.73099955477065,-73.9740517046921,Crossfit Greenpoint,40.73611274835637,-73.9519963753644,188 DuPont St,1945,11222,Brooklyn,NY,Gym / Fitness Center
955,Manhattan,Stuyvesant Town,40.73099955477065,-73.9740517046921,Bowery CrossFit,40.71781226812158,-73.99262371362899,285 Grand St,2147,10002,New York,NY,Gym
956,Manhattan,Stuyvesant Town,40.73099955477065,-73.9740517046921,NEO FIFTH,40.750530813681124,-73.98329206512332,"420 Fifth Ave, Sub-Cellar",2309,10018,New York,NY,Gym
957,Manhattan,Stuyvesant Town,40.73099955477065,-73.9740517046921,"iLoveKickboxing - Chelsea, NY",40.74634,-73.9929,149 W 27th Street,2333,10001,New York,NY,Gym
958,Manhattan,Stuyvesant Town,40.73099955477065,-73.9740517046921,Reebok FitHub,40.75075696,-73.98324847,420 5th Ave,2332,10018,New York,NY,Shoe Store
959,Manhattan,Stuyvesant Town,40.73099955477065,-73.9740517046921,Reebok FitHub,40.73542,-73.99173,1 Union Sq West,1570,10003,New York,NY,Shoe Store
960,Manhattan,Stuyvesant Town,40.73099955477065,-73.9740517046921,Dig Inn,40.737378630570696,-73.99113558901335,17 E 17th St,1606,10003,New York,NY,New American Restaurant
961,Manhattan,Flatiron,40.73967304763847,-73.99094710528267,CrossFit NYC,40.74589871935009,-73.99009029202607,50 W 28th St,696,10001,New York,NY,Gym / Fitness Center
962,Manhattan,Flatiron,40.73967304763847,-73.99094710528267,CrossFit Union Square,40.73531390186451,-73.99186057541448,1 Union Sq,491,10003,New York,NY,Gym / Fitness Center
963,Manhattan,Flatiron,40.73967304763847,-73.99094710528267,CrossFit Solace,40.74617150115289,-73.9831643795631,38 E 32nd St,976,10016,New York,NY,Gym / Fitness Center
964,Manhattan,Flatiron,40.73967304763847,-73.99094710528267,Brick New York,40.74150688612044,-74.0005285681433,257 W 17th St,833,10011,New York,NY,Gym / Fitness Center
965,Manhattan,Flatiron,40.73967304763847,-73.99094710528267,"iLoveKickboxing - Chelsea, NY",40.74634,-73.9929,149 W 27th Street,760,10001,New York,NY,Gym
966,Manhattan,Flatiron,40.73967304763847,-73.99094710528267,NEO FIFTH,40.750530813681124,-73.98329206512332,"420 Fifth Ave, Sub-Cellar",1370,10018,New York,NY,Gym
967,Manhattan,Flatiron,40.73967304763847,-73.99094710528267,CrossFit East River,40.7254434939673,-73.97846140631547,647 E 9th St,1902,10009,New York,NY,Gym / Fitness Center
968,Manhattan,Flatiron,40.73967304763847,-73.99094710528267,Crossfit Hell's Kitchen,40.75385542742043,-73.99338177687183,315 W 36th St,1592,10018,New York,NY,Gym
969,Manhattan,Flatiron,40.73967304763847,-73.99094710528267,Reebok FitHub,40.75075696,-73.98324847,420 5th Ave,1394,10018,New York,NY,Shoe Store
970,Manhattan,Flatiron,40.73967304763847,-73.99094710528267,Bowery CrossFit,40.71781226812158,-73.99262371362899,285 Grand St,2437,10002,New York,NY,Gym
971,Manhattan,Flatiron,40.73967304763847,-73.99094710528267,Mid-City Gym & Tanning,40.75810868499696,-73.9917226956553,345 W 42nd St,2053,10036,New York,NY,Gym
972,Manhattan,Flatiron,40.73967304763847,-73.99094710528267,Reebok FitHub,40.73542,-73.99173,1 Union Sq West,478,10003,New York,NY,Shoe Store
973,Manhattan,Flatiron,40.73967304763847,-73.99094710528267,Dig Inn,40.737378630570696,-73.99113558901335,17 E 17th St,255,10003,New York,NY,New American Restaurant
974,Queens,Sunnyside Gardens,40.745651806080794,-73.9181928643169,CrossFit Gantry,40.74612457212019,-73.9522352960643,10-20 47th Rd,2871,11101,Queens,NY,Gym / Fitness Center
975,Queens,Sunnyside Gardens,40.745651806080794,-73.9181928643169,Urban Jungle,40.736644952458036,-73.89244645431641,50-12 72nd St Fl 2,2391,11377,Woodside,NY,Gym / Fitness Center
976,Queens,Sunnyside Gardens,40.745651806080794,-73.9181928643169,CrossFit LIC - Noskov Fitness,40.74979439698375,-73.94735552127253,1305 44th Ave,2502,11101,Long Island City,NY,Gym
977,Queens,Sunnyside Gardens,40.745651806080794,-73.9181928643169,CrossFit Bell/Bayside Barbell,40.753070194034606,-73.9293165129859,37-22 34th St,1249,11101,Long Island City,NY,Gym
978,Queens,Sunnyside Gardens,40.745651806080794,-73.9181928643169,CrossFit Queens,40.76940404539832,-73.91897736979166,25-50 31st St,2644,11102,Astoria,NY,Gym
979,Queens,Sunnyside Gardens,40.745651806080794,-73.9181928643169,New York Sports Clubs,40.76426352155887,-73.91563699810902,38-11 30th Ave,2083,11103,Astoria,NY,Gym / Fitness Center
980,Queens,Sunnyside Gardens,40.745651806080794,-73.9181928643169,CrossFit Sunnyside,40.74998004012634,-73.91652693887511,47-01 Barnett Ave,501,11104,Sunnyside,NY,Gym / Fitness Center
981,Queens,Sunnyside Gardens,40.745651806080794,-73.9181928643169,Crossfit Dutch Kills,40.753802,-73.932102,,1482,11101,New York,NY,Gym / Fitness Center
982,Queens,Sunnyside Gardens,40.745651806080794,-73.9181928643169,Loupakis Fitness Center,40.767359,-73.921045,28-42 31st St,2428,11102,Astoria,NY,Gym
983,Queens,Blissville,40.73725071694501,-73.93244235260185,CrossFit Gantry,40.74612457212019,-73.9522352960643,10-20 47th Rd,1939,11101,Queens,NY,Gym / Fitness Center
984,Queens,Blissville,40.73725071694501,-73.93244235260185,Crossfit Greenpoint,40.73611274835637,-73.9519963753644,188 DuPont St,1654,11222,Brooklyn,NY,Gym / Fitness Center
985,Queens,Blissville,40.73725071694501,-73.93244235260185,CrossFit LIC - Noskov Fitness,40.74979439698375,-73.94735552127253,1305 44th Ave,1879,11101,Long Island City,NY,Gym
986,Queens,Blissville,40.73725071694501,-73.93244235260185,CrossFit Virtuosity,40.719027924652224,-73.94800787522796,98 Bayard St,2416,11222,Brooklyn,NY,Gym
987,Queens,Blissville,40.73725071694501,-73.93244235260185,Crossfit Outbreak,40.71821365256554,-73.94289220547613,208 Frost St,2295,11211,Brooklyn,NY,Gym / Fitness Center
988,Queens,Blissville,40.73725071694501,-73.93244235260185,CrossFit Bell/Bayside Barbell,40.753070194034606,-73.9293165129859,37-22 34th St,1780,11101,Long Island City,NY,Gym
989,Queens,Blissville,40.73725071694501,-73.93244235260185,Crossfit Dutch Kills,40.753802,-73.932102,,1842,11101,New York,NY,Gym / Fitness Center
990,Queens,Blissville,40.73725071694501,-73.93244235260185,willyb crossfit,40.729464975491624,-73.95069073496587,220 Newel Street,1766,,Brooklyn,NY,Gym
991,Queens,Blissville,40.73725071694501,-73.93244235260185,CrossFit Sunnyside,40.74998004012634,-73.91652693887511,47-01 Barnett Ave,1951,11104,Sunnyside,NY,Gym / Fitness Center
992,Queens,Blissville,40.73725071694501,-73.93244235260185,Brooklyn CrossFit : West Street,40.7281508786577,-73.95868520245914,42 West St,2434,11222,Brooklyn,NY,Gym
993,Brooklyn,Fulton Ferry,40.70328109093018,-73.99550751888422,Crossfit South Brooklyn,40.6793845048432,-73.98371438935206,597 Degraw St,2840,11217,Brooklyn,NY,Gym
994,Brooklyn,Fulton Ferry,40.70328109093018,-73.99550751888422,CrossFit Dumbo,40.70355587265485,-73.98779136884086,48 Pearl St,651,11201,Brooklyn,NY,Gym
995,Brooklyn,Fulton Ferry,40.70328109093018,-73.99550751888422,True North Training,40.71687709749549,-73.96593519191094,70 River St,2918,11211,Brooklyn,NY,Gym
996,Brooklyn,Fulton Ferry,40.70328109093018,-73.99550751888422,Bowery CrossFit,40.71781226812158,-73.99262371362899,285 Grand St,1635,10002,New York,NY,Gym
997,Brooklyn,Fulton Ferry,40.70328109093018,-73.99550751888422,CrossFit 212 TriBeCa,40.714537431170484,-74.00599852611592,281 Broadway,1534,10007,New York,NY,Gym
998,Brooklyn,Fulton Ferry,40.70328109093018,-73.99550751888422,Crossfit Wall Street,40.70554386423745,-74.01213909064103,60 New St,1425,10004,New York,NY,Gym
999,Brooklyn,Fulton Ferry,40.70328109093018,-73.99550751888422,CrossFit East River,40.7254434939673,-73.97846140631547,647 E 9th St,2855,10009,New York,NY,Gym / Fitness Center
1000,Brooklyn,Fulton Ferry,40.70328109093018,-73.99550751888422,Just Train,40.70947002162219,-74.00983963357307,6 Maiden Ln,1391,10038,New York,NY,Gym
1001,Brooklyn,Fulton Ferry,40.70328109093018,-73.99550751888422,CrossFit Red Hook,40.68119660398171,-74.00834022022252,209 Van Brunt St,2686,11231,Brooklyn,NY,Gym / Fitness Center
1002,Brooklyn,Fulton Ferry,40.70328109093018,-73.99550751888422,Crossfit 212,40.71805284050912,-74.00475220100614,84 Franklin St,1820,10013,New York,NY,Gym / Fitness Center
1003,Brooklyn,Fulton Ferry,40.70328109093018,-73.99550751888422,Crossfit 212 NoHo,40.727048902963354,-73.99511692734373,666 Broadway,2646,10012,New York,NY,Gym
1004,Brooklyn,Fulton Ferry,40.70328109093018,-73.99550751888422,CrossFit Outbreak,40.69755415417896,-73.96498985427989,10 Grand Ave,2653,11205,Brooklyn,NY,Gym
1005,Brooklyn,Fulton Ferry,40.70328109093018,-73.99550751888422,Oculus Crossfit,40.70977302010993,-74.0065501436561,151 William St,1179,10038,New York,NY,Gym / Fitness Center
1006,Brooklyn,Fulton Ferry,40.70328109093018,-73.99550751888422,CrossFit Wall Street,40.70974343802443,-74.0065837982249,111 Fulton St,1179,10038,New York,NY,Gym / Fitness Center
1007,Brooklyn,Fulton Ferry,40.70328109093018,-73.99550751888422,CrossFit 212 FiDi,40.70370900153129,-74.01152898481944,Stone,1352,10004,New York,NY,Gym / Fitness Center
1008,Brooklyn,Fulton Ferry,40.70328109093018,-73.99550751888422,Crossfit Outbreak,40.710482,-73.966665,415 Wythe Ave,2562,11249,Brooklyn,NY,Gym
1009,Brooklyn,Fulton Ferry,40.70328109093018,-73.99550751888422,Park Slope Crossfit,40.68155605033434,-73.97951811393598,500 Bergen St,2769,11217,Brooklyn,NY,Gym / Fitness Center
1010,Brooklyn,Fulton Ferry,40.70328109093018,-73.99550751888422,Class One Mixed Martial Arts & CrossFit,40.68168067415296,-73.97998644894972,85 4th Ave,2738,11217,Brooklyn,NY,Martial Arts Dojo
1011,Brooklyn,Vinegar Hill,40.703321498828785,-73.981116035924,True North Training,40.71687709749549,-73.96593519191094,70 River St,1979,11211,Brooklyn,NY,Gym
1012,Brooklyn,Vinegar Hill,40.703321498828785,-73.981116035924,Crossfit South Brooklyn,40.6793845048432,-73.98371438935206,597 Degraw St,2673,11217,Brooklyn,NY,Gym
1013,Brooklyn,Vinegar Hill,40.703321498828785,-73.981116035924,CrossFit Dumbo,40.70355587265485,-73.98779136884086,48 Pearl St,563,11201,Brooklyn,NY,Gym
1014,Brooklyn,Vinegar Hill,40.703321498828785,-73.981116035924,Bowery CrossFit,40.71781226812158,-73.99262371362899,285 Grand St,1882,10002,New York,NY,Gym
1015,Brooklyn,Vinegar Hill,40.703321498828785,-73.981116035924,CrossFit East River,40.7254434939673,-73.97846140631547,647 E 9th St,2472,10009,New York,NY,Gym / Fitness Center
1016,Brooklyn,Vinegar Hill,40.703321498828785,-73.981116035924,CrossFit Prospect Heights,40.68066094103169,-73.97400039656718,623 Bergen St,2593,11238,Brooklyn,NY,Gym / Fitness Center
1017,Brooklyn,Vinegar Hill,40.703321498828785,-73.981116035924,CrossFit 212 TriBeCa,40.714537431170484,-74.00599852611592,281 Broadway,2442,10007,New York,NY,Gym
1018,Brooklyn,Vinegar Hill,40.703321498828785,-73.981116035924,CrossFit Outbreak,40.69755415417896,-73.96498985427989,10 Grand Ave,1504,11205,Brooklyn,NY,Gym
1019,Brooklyn,Vinegar Hill,40.703321498828785,-73.981116035924,Crossfit Wall Street,40.70554386423745,-74.01213909064103,60 New St,2629,10004,New York,NY,Gym
1020,Brooklyn,Vinegar Hill,40.703321498828785,-73.981116035924,WillyB Crossfit,40.707827833118586,-73.94877866580192,41 Meserole Street,2774,,Brooklyn,NY,Gym
1021,Brooklyn,Vinegar Hill,40.703321498828785,-73.981116035924,Crossfit 212 NoHo,40.727048902963354,-73.99511692734373,666 Broadway,2893,10012,New York,NY,Gym
1022,Brooklyn,Vinegar Hill,40.703321498828785,-73.981116035924,Just Train,40.70947002162219,-74.00983963357307,6 Maiden Ln,2518,10038,New York,NY,Gym
1023,Brooklyn,Vinegar Hill,40.703321498828785,-73.981116035924,Crossfit 212,40.71805284050912,-74.00475220100614,84 Franklin St,2582,10013,New York,NY,Gym / Fitness Center
1024,Brooklyn,Vinegar Hill,40.703321498828785,-73.981116035924,Crossfit Outbreak,40.710482,-73.966665,415 Wythe Ave,1456,11249,Brooklyn,NY,Gym
1025,Brooklyn,Vinegar Hill,40.703321498828785,-73.981116035924,Oculus Crossfit,40.70977302010993,-74.0065501436561,151 William St,2263,10038,New York,NY,Gym / Fitness Center
1026,Brooklyn,Vinegar Hill,40.703321498828785,-73.981116035924,CrossFit Wall Street,40.70974343802443,-74.0065837982249,111 Fulton St,2264,10038,New York,NY,Gym / Fitness Center
1027,Brooklyn,Vinegar Hill,40.703321498828785,-73.981116035924,Park Slope Crossfit,40.68155605033434,-73.97951811393598,500 Bergen St,2426,11217,Brooklyn,NY,Gym / Fitness Center
1028,Brooklyn,Vinegar Hill,40.703321498828785,-73.981116035924,CrossFit 212 FiDi,40.70370900153129,-74.01152898481944,Stone,2566,10004,New York,NY,Gym / Fitness Center
1029,Brooklyn,Vinegar Hill,40.703321498828785,-73.981116035924,Class One Mixed Martial Arts & CrossFit,40.68168067415296,-73.97998644894972,85 4th Ave,2410,11217,Brooklyn,NY,Martial Arts Dojo
1030,Brooklyn,Weeksville,40.67503986503241,-73.93053108817347,Crossfit BQE,40.687133932943645,-73.90619787369249,698 Central Ave,2456,11207,Brooklyn,NY,Athletics & Sports
1031,Brooklyn,Weeksville,40.67503986503241,-73.93053108817347,Crow Hill CrossFit,40.67768653054873,-73.95677179098129,1010 Dean St,2234,11238,Brooklyn,NY,Gym
1032,Brooklyn,Weeksville,40.67503986503241,-73.93053108817347,Crossfit Kingsboro,40.68006491229371,-73.96083801950718,1000 Atlantic Ave,2619,11238,Brooklyn,NY,Gym / Fitness Center
1033,Brooklyn,Weeksville,40.67503986503241,-73.93053108817347,Crossfit Outbreak,40.686849845476694,-73.94175109166727,492 Throop Ave,1620,11221,New York,NY,Gym / Fitness Center
1034,Brooklyn,Weeksville,40.67503986503241,-73.93053108817347,Crossfit Outbreak,40.695908,-73.93364,1000 Broadway,2337,11221,Brooklyn,NY,Gym / Fitness Center
1035,Brooklyn,Broadway Junction,40.67786104769535,-73.90331684852606,Crossfit BQE,40.687133932943645,-73.90619787369249,698 Central Ave,1060,11207,Brooklyn,NY,Athletics & Sports
1036,Brooklyn,Broadway Junction,40.67786104769535,-73.90331684852606,Crossfit Bridge and Tunnel,40.69545059200372,-73.90079651038307,,1969,11385,Queens,NY,Gym
1037,Brooklyn,Dumbo,40.70317632822696,-73.98875280745047,CrossFit Dumbo,40.70355587265485,-73.98779136884086,48 Pearl St,91,11201,Brooklyn,NY,Gym
1038,Brooklyn,Dumbo,40.70317632822696,-73.98875280745047,Crossfit South Brooklyn,40.6793845048432,-73.98371438935206,597 Degraw St,2682,11217,Brooklyn,NY,Gym
1039,Brooklyn,Dumbo,40.70317632822696,-73.98875280745047,True North Training,40.71687709749549,-73.96593519191094,70 River St,2456,11211,Brooklyn,NY,Gym
1040,Brooklyn,Dumbo,40.70317632822696,-73.98875280745047,Bowery CrossFit,40.71781226812158,-73.99262371362899,285 Grand St,1661,10002,New York,NY,Gym
1041,Brooklyn,Dumbo,40.70317632822696,-73.98875280745047,CrossFit East River,40.7254434939673,-73.97846140631547,647 E 9th St,2626,10009,New York,NY,Gym / Fitness Center
1042,Brooklyn,Dumbo,40.70317632822696,-73.98875280745047,CrossFit 212 TriBeCa,40.714537431170484,-74.00599852611592,281 Broadway,1928,10007,New York,NY,Gym
1043,Brooklyn,Dumbo,40.70317632822696,-73.98875280745047,Crossfit Wall Street,40.70554386423745,-74.01213909064103,60 New St,1991,10004,New York,NY,Gym
1044,Brooklyn,Dumbo,40.70317632822696,-73.98875280745047,CrossFit Prospect Heights,40.68066094103169,-73.97400039656718,623 Bergen St,2798,11238,Brooklyn,NY,Gym / Fitness Center
1045,Brooklyn,Dumbo,40.70317632822696,-73.98875280745047,CrossFit Red Hook,40.68119660398171,-74.00834022022252,209 Van Brunt St,2952,11231,Brooklyn,NY,Gym / Fitness Center
1046,Brooklyn,Dumbo,40.70317632822696,-73.98875280745047,Just Train,40.70947002162219,-74.00983963357307,6 Maiden Ln,1912,10038,New York,NY,Gym
1047,Brooklyn,Dumbo,40.70317632822696,-73.98875280745047,Crossfit 212 NoHo,40.727048902963354,-73.99511692734373,666 Broadway,2711,10012,New York,NY,Gym
1048,Brooklyn,Dumbo,40.70317632822696,-73.98875280745047,Crossfit 212,40.71805284050912,-74.00475220100614,84 Franklin St,2136,10013,New York,NY,Gym / Fitness Center
1049,Brooklyn,Dumbo,40.70317632822696,-73.98875280745047,CrossFit Outbreak,40.69755415417896,-73.96498985427989,10 Grand Ave,2100,11205,Brooklyn,NY,Gym
1050,Brooklyn,Dumbo,40.70317632822696,-73.98875280745047,Oculus Crossfit,40.70977302010993,-74.0065501436561,151 William St,1671,10038,New York,NY,Gym / Fitness Center
1051,Brooklyn,Dumbo,40.70317632822696,-73.98875280745047,CrossFit Wall Street,40.70974343802443,-74.0065837982249,111 Fulton St,1672,10038,New York,NY,Gym / Fitness Center
1052,Brooklyn,Dumbo,40.70317632822696,-73.98875280745047,CrossFit 212 FiDi,40.70370900153129,-74.01152898481944,Stone,1923,10004,New York,NY,Gym / Fitness Center
1053,Brooklyn,Dumbo,40.70317632822696,-73.98875280745047,Crossfit Outbreak,40.710482,-73.966665,415 Wythe Ave,2033,11249,Brooklyn,NY,Gym
1054,Brooklyn,Dumbo,40.70317632822696,-73.98875280745047,Park Slope Crossfit,40.68155605033434,-73.97951811393598,500 Bergen St,2529,11217,Brooklyn,NY,Gym / Fitness Center
1055,Brooklyn,Dumbo,40.70317632822696,-73.98875280745047,Class One Mixed Martial Arts & CrossFit,40.68168067415296,-73.97998644894972,85 4th Ave,2504,11217,Brooklyn,NY,Martial Arts Dojo
1056,Staten Island,Egbertville,40.579118742961256,-74.12727240604953,Third Rail CrossFit,40.57347606762298,-74.11803448230869,81 New Dorp Plz N,1002,10306,Staten Island,NY,Athletics & Sports
1057,Staten Island,Egbertville,40.579118742961256,-74.12727240604953,Unbeaten Crossfit,40.575709,-74.105202,2271 Hylan Boulevard,1904,10306,New York,NY,Gym
1058,Queens,Roxbury,40.567375889570364,-73.89213760232829,Aviator Sports & Events Center,40.589889630162254,-73.89891475268549,3159 Flatbush Ave,2570,11234,Brooklyn,NY,Climbing Gym
1059,Queens,Roxbury,40.567375889570364,-73.89213760232829,CrossFit Floyd Bennett Field,40.589915256260205,-73.89955781515174,3159 Flatbush Ave,2586,11234,Brooklyn,NY,Sports Club
1060,Brooklyn,Homecrest,40.59852509513729,-73.9591845942871,CrossFit Coney Island,40.602854643892606,-73.96901325736928,2034 McDonald Ave,960,11223,Brooklyn,NY,Gym
1061,Brooklyn,Homecrest,40.59852509513729,-73.9591845942871,Crossfit Marine Park,40.606168128959396,-73.93010083727226,2119 E 34th St,2601,11234,Brooklyn,NY,Gym
1062,Brooklyn,Homecrest,40.59852509513729,-73.9591845942871,CrossFit STEED,40.58140561672332,-73.98444682359695,2705 W 16th St,2862,11224,Brooklyn,NY,Gym / Fitness Center
1063,Queens,Middle Village,40.71641451115823,-73.8811431920061,Urban Jungle,40.736644952458036,-73.89244645431641,50-12 72nd St Fl 2,2445,11377,Woodside,NY,Gym / Fitness Center
1064,Queens,Middle Village,40.71641451115823,-73.8811431920061,CrossFit Glendale,40.70992427095417,-73.86641222449022,70-17 83rd St,1437,11385,Glendale,NY,Gym
1065,Queens,Middle Village,40.71641451115823,-73.8811431920061,CrossFit Ridgewood,40.71171,-73.89977,63-49 60th Pl,1656,11385,Ridgewood,NY,Gym / Fitness Center
1066,Queens,Middle Village,40.71641451115823,-73.8811431920061,Crossfit Bridge and Tunnel,40.69545059200372,-73.90079651038307,,2862,11385,Queens,NY,Gym
1067,Staten Island,Lighthouse Hill,40.576506293794935,-74.13792663771576,Third Rail CrossFit,40.57347606762298,-74.11803448230869,81 New Dorp Plz N,1715,10306,Staten Island,NY,Athletics & Sports
1068,Staten Island,Lighthouse Hill,40.576506293794935,-74.13792663771576,Unbeaten Crossfit,40.575709,-74.105202,2271 Hylan Boulevard,2768,10306,New York,NY,Gym
1069,Queens,Malba,40.790601556701525,-73.8266775713865,Crossfit Mma of Whitestone,40.78683263373473,-73.83710200617963,13-15 131st Street,973,,Whitestone,NY,Athletics & Sports
1070,Brooklyn,Highland Park,40.68248551101694,-73.8902809854761,Crossfit BQE,40.687133932943645,-73.90619787369249,698 Central Ave,1439,11207,Brooklyn,NY,Athletics & Sports
1071,Brooklyn,Highland Park,40.68248551101694,-73.8902809854761,Crossfit Bridge and Tunnel,40.69545059200372,-73.90079651038307,,1694,11385,Queens,NY,Gym
1072,Brooklyn,Madison,40.609377701137696,-73.948415153289,Crossfit Marine Park,40.606168128959396,-73.93010083727226,2119 E 34th St,1588,11234,Brooklyn,NY,Gym
1073,Brooklyn,Madison,40.609377701137696,-73.948415153289,CrossFit Coney Island,40.602854643892606,-73.96901325736928,2034 McDonald Ave,1886,11223,Brooklyn,NY,Gym
